{"type":"FeatureCollection","features":[{"geometry":{"type":"LineString","coordinates":[[-48.682426307854584,-26.914336309953438],[-48.68266815263669,-26.914881073682917]]},"id":771,"type":"Feature","properties":{"nome":"R. José Pereira Liberato","evento":"2023-11"}},{"geometry":{"type":"LineString","coordinates":[[-48.68454662400587,-26.918854457762116],[-48.68479715865934,-26.919355748354317]]},"id":780,"type":"Feature","properties":{"nome":"R. José Pereira Liberato","evento":"2023-11"}},{"geometry":{"type":"LineString","coordinates":[[-48.68479715865934,-26.919355748354317],[-48.68522347909253,-26.92020707642286],[-48.685275636933035,-26.92032132448944],[-48.685277569409685,-26.92041730276863],[-48.685211056320576,-26.92052960397211],[-48.68509063453777,-26.920661081742658]]},"id":781,"type":"Feature","properties":{"nome":"R. José Pereira Liberato","evento":"2023-11"}},{"geometry":{"type":"LineString","coordinates":[[-48.68509063453777,-26.920661081742658],[-48.68493941633462,-26.920823455113922]]},"id":782,"type":"Feature","properties":{"nome":"R. José Pereira Liberato","evento":"2023-11"}},{"geometry":{"type":"LineString","coordinates":[[-48.68493941633462,-26.920823455113922],[-48.68445749143411,-26.92136069957097]]},"id":783,"type":"Feature","properties":{"nome":"R. José Pereira Liberato","evento":"2023-11"}},{"geometry":{"type":"LineString","coordinates":[[-48.68445749143411,-26.92136069957097],[-48.68264889803407,-26.923392992078604]]},"id":784,"type":"Feature","properties":{"nome":"R. José Pereira Liberato","evento":"2023-11"}},{"geometry":{"type":"LineString","coordinates":[[-48.68264889803407,-26.923392992078604],[-48.682584432793156,-26.92350009133336],[-48.68251798045277,-26.92365051068]]},"id":785,"type":"Feature","properties":{"nome":"R. José Pereira Liberato","evento":"2023-11"}},{"geometry":{"type":"LineString","coordinates":[[-48.68264889803407,-26.923392992078604],[-48.6825361875376,-26.92348010957568],[-48.682439076537925,-26.923565738825374]]},"id":786,"type":"Feature","properties":{"nome":"R. José Pereira Liberato","evento":"2023-11"}},{"geometry":{"type":"LineString","coordinates":[[-48.7126785588494,-26.91109991223606],[-48.713056605602766,-26.91066139762377],[-48.71345234254419,-26.909786503882174],[-48.71360931690058,-26.9095019245049],[-48.713820403345956,-26.909401661220738],[-48.714076948161996,-26.909473609071743],[-48.714379756850576,-26.909677903707188],[-48.7147681793449,-26.90982775428724],[-48.71517010511629,-26.90996984754489],[-48.71572810023548,-26.91031385639439],[-48.717951785116,-26.911661820752446],[-48.719450603534234,-26.912559381411594],[-48.726438606510946,-26.91679155935101],[-48.72868153876086,-26.91807985826963],[-48.728634512182005,-26.918206712036984],[-48.7229707410684,-26.923782122684635],[-48.7134849205451,-26.93313363345255]]},"id":1373,"type":"Feature","properties":{"nome":"R. José Natal Cugik","evento":"2023-11"}},{"geometry":{"type":"LineString","coordinates":[[-48.6867581490684,-26.904212915613765],[-48.685290510985865,-26.904133309621695]]},"id":1685,"type":"Feature","properties":{"nome":"R. Manoel Bandeira","evento":"2023-11"}},{"geometry":{"type":"LineString","coordinates":[[-48.6868187437628,-26.903702852813165],[-48.68597335660591,-26.90365684554027]]},"id":2051,"type":"Feature","properties":{"nome":"R. Antônio Francisco de Oliveira","evento":"2023-11"}},{"geometry":{"type":"LineString","coordinates":[[-48.68546584096128,-26.9159418793846],[-48.68548894579078,-26.91605943200534]]},"id":2560,"type":"Feature","properties":{"nome":"R. Otto Hoier","evento":"2023-11"}},{"geometry":{"type":"LineString","coordinates":[[-48.68548894579078,-26.91605943200534],[-48.68567866498738,-26.91644835888017]]},"id":2561,"type":"Feature","properties":{"nome":"R. Otto Hoier","evento":"2023-11"}},{"geometry":{"type":"LineString","coordinates":[[-48.68567866498738,-26.91644835888017],[-48.68585217899267,-26.91669412498582],[-48.68613439985132,-26.916924526376885]]},"id":2562,"type":"Feature","properties":{"nome":"R. Otto Hoier","evento":"2023-11"}},{"geometry":{"type":"LineString","coordinates":[[-48.68613439985132,-26.916924526376885],[-48.68644930897051,-26.917115452937104],[-48.6867401793444,-26.917234537337414],[-48.687136395908155,-26.917346773902036],[-48.68760499906319,-26.917348737921177],[-48.68879537648972,-26.917288219652896]]},"id":2563,"type":"Feature","properties":{"nome":"R. Otto Hoier","evento":"2023-11"}},{"geometry":{"type":"LineString","coordinates":[[-48.68879537648972,-26.917288219652896],[-48.688911156721694,-26.91723867364347]]},"id":2564,"type":"Feature","properties":{"nome":"R. Estefano José Vanolli","evento":"2023-11"}},{"geometry":{"type":"LineString","coordinates":[[-48.688911156721694,-26.91723867364347],[-48.68902014694312,-26.917287613541344]]},"id":2565,"type":"Feature","properties":{"nome":"R. Estefano José Vanolli","evento":"2023-11"}},{"geometry":{"type":"LineString","coordinates":[[-48.68902014694312,-26.917287613541344],[-48.68933792192852,-26.917259951793643]]},"id":2566,"type":"Feature","properties":{"nome":"R. Otto Hoier","evento":"2023-11"}},{"geometry":{"type":"LineString","coordinates":[[-48.68902014694312,-26.917287613541344],[-48.689053310918034,-26.91738103877683]]},"id":2567,"type":"Feature","properties":{"nome":"R. Estefano José Vanolli","evento":"2023-11"}},{"geometry":{"type":"LineString","coordinates":[[-48.689053310918034,-26.91738103877683],[-48.688980323307526,-26.91744271688306]]},"id":2568,"type":"Feature","properties":{"nome":"R. Estefano José Vanolli","evento":"2023-11"}},{"geometry":{"type":"LineString","coordinates":[[-48.688980323307526,-26.91744271688306],[-48.68890044452807,-26.91745141119575],[-48.688810517705065,-26.91740564054712]]},"id":2569,"type":"Feature","properties":{"nome":"R. Estefano José Vanolli","evento":"2023-11"}},{"geometry":{"type":"LineString","coordinates":[[-48.688810517705065,-26.91740564054712],[-48.68879537648972,-26.917288219652896]]},"id":2570,"type":"Feature","properties":{"nome":"R. Estefano José Vanolli","evento":"2023-11"}},{"geometry":{"type":"LineString","coordinates":[[-48.68933792192852,-26.917259951793643],[-48.68955291177412,-26.91742637229848],[-48.68980436490689,-26.917759146767086]]},"id":2571,"type":"Feature","properties":{"nome":"R. Otto Hoier","evento":"2023-11"}},{"geometry":{"type":"LineString","coordinates":[[-48.68980436490689,-26.917759146767086],[-48.69003621707418,-26.918271648200086]]},"id":2572,"type":"Feature","properties":{"nome":"R. Otto Hoier","evento":"2023-11"}},{"geometry":{"type":"LineString","coordinates":[[-48.69003621707418,-26.918271648200086],[-48.69010983990404,-26.91857007461615]]},"id":2573,"type":"Feature","properties":{"nome":"R. Otto Hoier","evento":"2023-11"}},{"geometry":{"type":"LineString","coordinates":[[-48.69010983990404,-26.91857007461615],[-48.690140707205366,-26.918776348424693]]},"id":2574,"type":"Feature","properties":{"nome":"R. Otto Hoier","evento":"2023-11"}},{"geometry":{"type":"LineString","coordinates":[[-48.690140707205366,-26.918776348424693],[-48.69017223044458,-26.91941989022781],[-48.69016175413185,-26.919934139484536],[-48.690185548884884,-26.92017459178452]]},"id":2577,"type":"Feature","properties":{"nome":"R. Otto Hoier","evento":"2023-11"}},{"geometry":{"type":"LineString","coordinates":[[-48.690185548884884,-26.92017459178452],[-48.69024015218986,-26.920624175801223]]},"id":2578,"type":"Feature","properties":{"nome":"R. Otto Hoier","evento":"2023-11"}},{"geometry":{"type":"LineString","coordinates":[[-48.690185548884884,-26.92017459178452],[-48.691010548003895,-26.920053773921946]]},"id":2579,"type":"Feature","properties":{"nome":"R. Das Azaléias","evento":"2023-11"}},{"geometry":{"type":"LineString","coordinates":[[-48.691010548003895,-26.920053773921946],[-48.6926227628756,-26.919788642387683]]},"id":2580,"type":"Feature","properties":{"nome":"R. Das Azaléias","evento":"2023-11"}},{"geometry":{"type":"LineString","coordinates":[[-48.69600802535639,-26.91950101340496],[-48.69455626039499,-26.920028874401122]]},"id":2585,"type":"Feature","properties":{"nome":"R. Narcisa Maria Vitorino","evento":"2023-11"}},{"geometry":{"type":"LineString","coordinates":[[-48.68825705488245,-26.920940360415727],[-48.68906478638937,-26.92088500285295],[-48.6896959615048,-26.920732439131424],[-48.69024015218986,-26.920624175801223]]},"id":2586,"type":"Feature","properties":{"nome":"R. Jorge Fernando Pereira","evento":"2023-11"}},{"geometry":{"type":"LineString","coordinates":[[-48.69024015218986,-26.920624175801223],[-48.69106527196133,-26.92049764373343]]},"id":2587,"type":"Feature","properties":{"nome":"R. Arnoldo Corrêa de Mello","evento":"2023-11"}},{"geometry":{"type":"LineString","coordinates":[[-48.69106527196133,-26.92049764373343],[-48.69157393799997,-26.920411656064925]]},"id":2588,"type":"Feature","properties":{"nome":"R. Arnoldo Corrêa de Mello","evento":"2023-11"}},{"geometry":{"type":"LineString","coordinates":[[-48.692645680234506,-26.9202291337393],[-48.69380358735627,-26.9200422954277]]},"id":2591,"type":"Feature","properties":{"nome":"R. Arnoldo Corrêa de Mello","evento":"2023-11"}},{"geometry":{"type":"LineString","coordinates":[[-48.69157393799997,-26.920411656064925],[-48.69167942412042,-26.920867787370767],[-48.6917208560005,-26.920868465194165]]},"id":2592,"type":"Feature","properties":{"nome":"Serv. Adilson Laudelino Chaves","evento":"2023-11"}},{"geometry":{"type":"LineString","coordinates":[[-48.691377660097125,-26.921282960392595],[-48.691255528177564,-26.921018035949377],[-48.69120327986341,-26.92076568610612]]},"id":2593,"type":"Feature","properties":{"nome":"R. Das Orquídeas","evento":"2023-11"}},{"geometry":{"type":"LineString","coordinates":[[-48.69077336372476,-26.921524566179567],[-48.691377660097125,-26.921282960392595]]},"id":2594,"type":"Feature","properties":{"nome":"R. Ivo Werner","evento":"2023-11"}},{"geometry":{"type":"LineString","coordinates":[[-48.691377660097125,-26.921282960392595],[-48.692268106847585,-26.920923143411024]]},"id":2595,"type":"Feature","properties":{"nome":"R. Ivo Werner","evento":"2023-11"}},{"geometry":{"type":"LineString","coordinates":[[-48.692268106847585,-26.920923143411024],[-48.692782053456376,-26.920734353908742]]},"id":2596,"type":"Feature","properties":{"nome":"R. Ivo Werner","evento":"2023-11"}},{"geometry":{"type":"LineString","coordinates":[[-48.692130641117416,-26.92031502111647],[-48.692268106847585,-26.920923143411024]]},"id":2598,"type":"Feature","properties":{"nome":"Serv. Dilcéa Faria Pereira Façanha","evento":"2023-11"}},{"geometry":{"type":"LineString","coordinates":[[-48.69024015218986,-26.920624175801223],[-48.69077336372476,-26.921524566179567]]},"id":2599,"type":"Feature","properties":{"nome":"R.P.Heribert José Schmith","evento":"2023-11"}},{"geometry":{"type":"LineString","coordinates":[[-48.69077336372476,-26.921524566179567],[-48.69100106335417,-26.92192839768474],[-48.69145681729194,-26.922718918415214]]},"id":2600,"type":"Feature","properties":{"nome":"R.P.Heribert José Schmith","evento":"2023-11"}},{"geometry":{"type":"LineString","coordinates":[[-48.69145681729194,-26.922718918415214],[-48.691696747083725,-26.92314867116545]]},"id":2601,"type":"Feature","properties":{"nome":"R.P.Heribert José Schmith","evento":"2023-11"}},{"geometry":{"type":"LineString","coordinates":[[-48.691696747083725,-26.92314867116545],[-48.691889394659,-26.92355192797229]]},"id":2602,"type":"Feature","properties":{"nome":"R.P.Heribert José Schmith","evento":"2023-11"}},{"geometry":{"type":"LineString","coordinates":[[-48.691889394659,-26.92355192797229],[-48.69207219177312,-26.923969312565468]]},"id":2603,"type":"Feature","properties":{"nome":"R.P.Heribert José Schmith","evento":"2023-11"}},{"geometry":{"type":"LineString","coordinates":[[-48.69207219177312,-26.923969312565468],[-48.692264434748296,-26.924392568395557]]},"id":2604,"type":"Feature","properties":{"nome":"R.P.Heribert José Schmith","evento":"2023-11"}},{"geometry":{"type":"LineString","coordinates":[[-48.69263848262274,-26.925233439038422],[-48.69310401487661,-26.92590669406867]]},"id":2607,"type":"Feature","properties":{"nome":"R.P.Heribert José Schmith","evento":"2023-11"}},{"geometry":{"type":"LineString","coordinates":[[-48.69310401487661,-26.92590669406867],[-48.693366325955836,-26.92628926655105]]},"id":2608,"type":"Feature","properties":{"nome":"R.P.Heribert José Schmith","evento":"2023-11"}},{"geometry":{"type":"LineString","coordinates":[[-48.693366325955836,-26.92628926655105],[-48.69362748673886,-26.92666116385831]]},"id":2609,"type":"Feature","properties":{"nome":"R.P.Heribert José Schmith","evento":"2023-11"}},{"geometry":{"type":"LineString","coordinates":[[-48.692938350990914,-26.926527005824617],[-48.692157789834,-26.925402518502292]]},"id":2616,"type":"Feature","properties":{"nome":"R. Anastácio José Mendes","evento":"2023-11"}},{"geometry":{"type":"LineString","coordinates":[[-48.693423648228304,-26.92806962122601],[-48.69250312764995,-26.92676280944878]]},"id":2618,"type":"Feature","properties":{"nome":"R. Juarez José Mendes","evento":"2023-11"}},{"geometry":{"type":"LineString","coordinates":[[-48.69250312764995,-26.92676280944878],[-48.691698293471326,-26.925577906352828]]},"id":2619,"type":"Feature","properties":{"nome":"R. Juarez José Mendes","evento":"2023-11"}},{"geometry":{"type":"LineString","coordinates":[[-48.693107551862084,-26.928498875253965],[-48.692090039830134,-26.9270075468903]]},"id":2621,"type":"Feature","properties":{"nome":"R. Nancy Patino Reiser","evento":"2023-11"}},{"geometry":{"type":"LineString","coordinates":[[-48.692090039830134,-26.9270075468903],[-48.691232480264254,-26.92575033124819]]},"id":2622,"type":"Feature","properties":{"nome":"R. Nancy Patino Reiser","evento":"2023-11"}},{"geometry":{"type":"LineString","coordinates":[[-48.692816194272375,-26.928925639847908],[-48.69191480615877,-26.927627700460132]]},"id":2623,"type":"Feature","properties":{"nome":"R. Arnaldo Lopes","evento":"2023-11"}},{"geometry":{"type":"LineString","coordinates":[[-48.69191480615877,-26.927627700460132],[-48.69165805861019,-26.927240541848143]]},"id":2624,"type":"Feature","properties":{"nome":"R. Arnaldo Lopes","evento":"2023-11"}},{"geometry":{"type":"LineString","coordinates":[[-48.69165805861019,-26.927240541848143],[-48.69072186907389,-26.92593059435943]]},"id":2625,"type":"Feature","properties":{"nome":"R. Arnaldo Lopes","evento":"2023-11"}},{"geometry":{"type":"LineString","coordinates":[[-48.69072186907389,-26.92593059435943],[-48.69052325515579,-26.925507233258298]]},"id":2626,"type":"Feature","properties":{"nome":"R. Arnaldo Lopes","evento":"2023-11"}},{"geometry":{"type":"LineString","coordinates":[[-48.69123250768439,-26.927470782621363],[-48.690739409674286,-26.926791107242064]]},"id":2627,"type":"Feature","properties":{"nome":"R. Nelson Manoel Simão","evento":"2023-11"}},{"geometry":{"type":"LineString","coordinates":[[-48.690739409674286,-26.926791107242064],[-48.69025947235629,-26.92609164069102]]},"id":2628,"type":"Feature","properties":{"nome":"R. Nelson Manoel Simão","evento":"2023-11"}},{"geometry":{"type":"LineString","coordinates":[[-48.69025947235629,-26.92609164069102],[-48.690095002487034,-26.926183258430644],[-48.689928435282305,-26.926377725320243],[-48.68992344294072,-26.926466238142492],[-48.69030081920317,-26.927035421784097]]},"id":2629,"type":"Feature","properties":{"nome":"R. Acelino Alves dos Santos","evento":"2023-11"}},{"geometry":{"type":"LineString","coordinates":[[-48.69030081920317,-26.927035421784097],[-48.69055802719797,-26.927399727029545],[-48.69089497834567,-26.927762479161753],[-48.69116419639089,-26.928006948253536],[-48.69124051690652,-26.92801677136993],[-48.691307915311036,-26.927995011255213]]},"id":2630,"type":"Feature","properties":{"nome":"R. Acelino Alves dos Santos","evento":"2023-11"}},{"geometry":{"type":"LineString","coordinates":[[-48.691307915311036,-26.927995011255213],[-48.69191480615877,-26.927627700460132]]},"id":2631,"type":"Feature","properties":{"nome":"R. Acelino Alves dos Santos","evento":"2023-11"}},{"geometry":{"type":"LineString","coordinates":[[-48.691307915311036,-26.927995011255213],[-48.69153508925641,-26.928268800231468]]},"id":2632,"type":"Feature","properties":{"nome":"Serv. Sem denominação oficial","evento":"2023-11"}},{"geometry":{"type":"LineString","coordinates":[[-48.69030081920317,-26.927035421784097],[-48.690739409674286,-26.926791107242064]]},"id":2633,"type":"Feature","properties":{"nome":"R. Aprígio José Pinto","evento":"2023-11"}},{"geometry":{"type":"LineString","coordinates":[[-48.69025947235629,-26.92609164069102],[-48.69018276031926,-26.925944631808893],[-48.69024177532635,-26.925708393433606],[-48.69034632802409,-26.92558435738583],[-48.69052325515579,-26.925507233258298]]},"id":2634,"type":"Feature","properties":{"nome":"R. José Domingos Machado","evento":"2023-11"}},{"geometry":{"type":"LineString","coordinates":[[-48.69052325515579,-26.925507233258298],[-48.69118897344956,-26.925262698481617]]},"id":2635,"type":"Feature","properties":{"nome":"R. José Domingos Machado","evento":"2023-11"}},{"geometry":{"type":"LineString","coordinates":[[-48.69311100070339,-26.925066906227453],[-48.69263848262274,-26.925233439038422]]},"id":2667,"type":"Feature","properties":{"nome":"R. Raul Machado","evento":"2023-11"}},{"geometry":{"type":"LineString","coordinates":[[-48.69263848262274,-26.925233439038422],[-48.692157789834,-26.925402518502292]]},"id":2668,"type":"Feature","properties":{"nome":"R. Raul Machado","evento":"2023-11"}},{"geometry":{"type":"LineString","coordinates":[[-48.692157789834,-26.925402518502292],[-48.691698293471326,-26.925577906352828]]},"id":2669,"type":"Feature","properties":{"nome":"R. Raul Machado","evento":"2023-11"}},{"geometry":{"type":"LineString","coordinates":[[-48.691698293471326,-26.925577906352828],[-48.69137411449335,-26.925684059583286]]},"id":2670,"type":"Feature","properties":{"nome":"R. Raul Machado","evento":"2023-11"}},{"geometry":{"type":"LineString","coordinates":[[-48.69137411449335,-26.925684059583286],[-48.691232480264254,-26.92575033124819]]},"id":2671,"type":"Feature","properties":{"nome":"R. Raul Machado","evento":"2023-11"}},{"geometry":{"type":"LineString","coordinates":[[-48.691232480264254,-26.92575033124819],[-48.69072186907389,-26.92593059435943]]},"id":2672,"type":"Feature","properties":{"nome":"R. Raul Machado","evento":"2023-11"}},{"geometry":{"type":"LineString","coordinates":[[-48.69102416899401,-26.924863832889102],[-48.69118897344956,-26.925262698481617],[-48.69137411449335,-26.925684059583286]]},"id":2673,"type":"Feature","properties":{"nome":"R. Olivia Rautenberg","evento":"2023-11"}},{"geometry":{"type":"LineString","coordinates":[[-48.69102416899401,-26.924863832889102],[-48.692264434748296,-26.924392568395557]]},"id":2674,"type":"Feature","properties":{"nome":"R. Peterson André Machado","evento":"2023-11"}},{"geometry":{"type":"LineString","coordinates":[[-48.69409259015805,-26.922762021477645],[-48.69468639702676,-26.922565957368434]]},"id":2689,"type":"Feature","properties":{"nome":"R. Palmir Francisco Dias","evento":"2023-11"}},{"geometry":{"type":"LineString","coordinates":[[-48.69343419694486,-26.922528343463398],[-48.693906658842096,-26.922341729947664]]},"id":2695,"type":"Feature","properties":{"nome":"R. Oscar Martins da Silva","evento":"2023-11"}},{"geometry":{"type":"LineString","coordinates":[[-48.693906658842096,-26.922341729947664],[-48.694035074349294,-26.922298102439246]]},"id":2696,"type":"Feature","properties":{"nome":"R. Oscar Martins da Silva","evento":"2023-11"}},{"geometry":{"type":"LineString","coordinates":[[-48.69145681729194,-26.922718918415214],[-48.692767349560285,-26.92224022474711]]},"id":2701,"type":"Feature","properties":{"nome":"R. Maria Verena Heil","evento":"2023-11"}},{"geometry":{"type":"LineString","coordinates":[[-48.692767349560285,-26.92224022474711],[-48.693236565766156,-26.92205641750105]]},"id":2702,"type":"Feature","properties":{"nome":"R. Maria Verena Heil","evento":"2023-11"}},{"geometry":{"type":"LineString","coordinates":[[-48.693236565766156,-26.92205641750105],[-48.693708560961745,-26.921892660124264]]},"id":2703,"type":"Feature","properties":{"nome":"R. Maria Verena Heil","evento":"2023-11"}},{"geometry":{"type":"LineString","coordinates":[[-48.693708560961745,-26.921892660124264],[-48.69399117855475,-26.921791536700233]]},"id":2704,"type":"Feature","properties":{"nome":"R. Maria Verena Heil","evento":"2023-11"}},{"geometry":{"type":"LineString","coordinates":[[-48.69399117855475,-26.921791536700233],[-48.694276924808364,-26.921693322727553]]},"id":2705,"type":"Feature","properties":{"nome":"R. Maria Verena Heil","evento":"2023-11"}},{"geometry":{"type":"LineString","coordinates":[[-48.70084972782238,-26.926077437866937],[-48.70132921026477,-26.92648821576789]]},"id":2739,"type":"Feature","properties":{"nome":"R. Otília Damasceno","evento":"2023-11"}},{"geometry":{"type":"LineString","coordinates":[[-48.70132921026477,-26.92648821576789],[-48.70174315277987,-26.92682933470466]]},"id":2740,"type":"Feature","properties":{"nome":"R. Otília Damasceno","evento":"2023-11"}},{"geometry":{"type":"LineString","coordinates":[[-48.70174315277987,-26.92682933470466],[-48.702151187312985,-26.927147493037754]]},"id":2741,"type":"Feature","properties":{"nome":"R. Otília Damasceno","evento":"2023-11"}},{"geometry":{"type":"LineString","coordinates":[[-48.702151187312985,-26.927147493037754],[-48.70259932688215,-26.927532035179865]]},"id":2742,"type":"Feature","properties":{"nome":"R. Otília Damasceno","evento":"2023-11"}},{"geometry":{"type":"LineString","coordinates":[[-48.700109694149596,-26.92766580136382],[-48.70132921026477,-26.92648821576789]]},"id":2743,"type":"Feature","properties":{"nome":"R. Ivana Werner","evento":"2023-11"}},{"geometry":{"type":"LineString","coordinates":[[-48.70132921026477,-26.92648821576789],[-48.70212213760837,-26.925749503860406],[-48.702754896451175,-26.925834114678615]]},"id":2744,"type":"Feature","properties":{"nome":"R. Ivana Werner","evento":"2023-11"}},{"geometry":{"type":"LineString","coordinates":[[-48.70093769773399,-26.92834233115474],[-48.702151187312985,-26.927147493037754]]},"id":2747,"type":"Feature","properties":{"nome":"R. Andrelino Werner","evento":"2023-11"}},{"geometry":{"type":"LineString","coordinates":[[-48.702151187312985,-26.927147493037754],[-48.703383948122564,-26.92594438274049]]},"id":2748,"type":"Feature","properties":{"nome":"R. Andrelino Werner","evento":"2023-11"}},{"geometry":{"type":"LineString","coordinates":[[-48.700530127546905,-26.928001313635576],[-48.70174315277987,-26.92682933470466]]},"id":2749,"type":"Feature","properties":{"nome":"R. Arlindo Werner","evento":"2023-11"}},{"geometry":{"type":"LineString","coordinates":[[-48.70174315277987,-26.92682933470466],[-48.702754896451175,-26.925834114678615]]},"id":2750,"type":"Feature","properties":{"nome":"R. Arlindo Werner","evento":"2023-11"}},{"geometry":{"type":"LineString","coordinates":[[-48.70084972782238,-26.926077437866937],[-48.699627314313595,-26.927240682009042]]},"id":2751,"type":"Feature","properties":{"nome":"R. Francisco Nicoletti","evento":"2023-11"}},{"geometry":{"type":"LineString","coordinates":[[-48.68383099217109,-26.910605098311265],[-48.68374429951246,-26.911103805421885]]},"id":2827,"type":"Feature","properties":{"nome":"R. São Francisco de Assis","evento":"2023-11"}},{"geometry":{"type":"LineString","coordinates":[[-48.68374429951246,-26.911103805421885],[-48.68365029848435,-26.911648119610874]]},"id":2828,"type":"Feature","properties":{"nome":"R. São Francisco de Assis","evento":"2023-11"}},{"geometry":{"type":"LineString","coordinates":[[-48.68365029848435,-26.911648119610874],[-48.683585059551454,-26.91203286390406]]},"id":2829,"type":"Feature","properties":{"nome":"R. São Francisco de Assis","evento":"2023-11"}},{"geometry":{"type":"LineString","coordinates":[[-48.683585059551454,-26.91203286390406],[-48.683435282131484,-26.912810608584426]]},"id":2830,"type":"Feature","properties":{"nome":"R. São Francisco de Assis","evento":"2023-11"}},{"geometry":{"type":"LineString","coordinates":[[-48.684227632031,-26.9121005677953],[-48.683585059551454,-26.91203286390406]]},"id":2831,"type":"Feature","properties":{"nome":"R. Santa Clara","evento":"2023-11"}},{"geometry":{"type":"LineString","coordinates":[[-48.68365029848435,-26.911648119610874],[-48.68434043878438,-26.911728034737237]]},"id":2833,"type":"Feature","properties":{"nome":"R. Abdon David Schmitt","evento":"2023-11"}},{"geometry":{"type":"LineString","coordinates":[[-48.68374429951246,-26.911103805421885],[-48.684447649956795,-26.911161073549568]]},"id":2835,"type":"Feature","properties":{"nome":"R. Antônio Adão Dias","evento":"2023-11"}},{"geometry":{"type":"LineString","coordinates":[[-48.68383099217109,-26.910605098311265],[-48.684511857234455,-26.910670570067108]]},"id":2837,"type":"Feature","properties":{"nome":"R.Bel.Clito César Rebello","evento":"2023-11"}},{"geometry":{"type":"LineString","coordinates":[[-48.67974195380654,-26.915076250747653],[-48.68266815263669,-26.914881073682917]]},"id":2861,"type":"Feature","properties":{"nome":"R. Gervásio Vieira","evento":"2023-11"}},{"geometry":{"type":"LineString","coordinates":[[-48.6798559101118,-26.917141516321067],[-48.68362114313075,-26.91690811712095]]},"id":2879,"type":"Feature","properties":{"nome":"R. Antônio Manoel Correia","evento":"2023-11"}},{"geometry":{"type":"LineString","coordinates":[[-48.67983508820326,-26.916601034184648],[-48.6833809147016,-26.916379081779393]]},"id":2882,"type":"Feature","properties":{"nome":"R. Germano Montibeller","evento":"2023-11"}},{"geometry":{"type":"LineString","coordinates":[[-48.679787424736205,-26.915814331942418],[-48.67983508820326,-26.916601034184648]]},"id":2890,"type":"Feature","properties":{"nome":"R. Ângelo Rodi","evento":"2023-11"}},{"geometry":{"type":"LineString","coordinates":[[-48.68014380497962,-26.92060000018219],[-48.681278500821875,-26.920535772877592]]},"id":2909,"type":"Feature","properties":{"nome":"R. Acari Antônio Moser","evento":"2023-11"}},{"geometry":{"type":"LineString","coordinates":[[-48.68016357534091,-26.921191906954345],[-48.68080080806835,-26.92117237434253]]},"id":2913,"type":"Feature","properties":{"nome":"R. Antero Chaves","evento":"2023-11"}},{"geometry":{"type":"LineString","coordinates":[[-48.68080080806835,-26.92117237434253],[-48.681435446144924,-26.921162799640936]]},"id":2914,"type":"Feature","properties":{"nome":"R. Antero Chaves","evento":"2023-11"}},{"geometry":{"type":"LineString","coordinates":[[-48.681435446144924,-26.921162799640936],[-48.68203833008535,-26.921146984404245]]},"id":2915,"type":"Feature","properties":{"nome":"R. Antero Chaves","evento":"2023-11"}},{"geometry":{"type":"LineString","coordinates":[[-48.68203833008535,-26.921146984404245],[-48.683020827263924,-26.921120253867954]]},"id":2916,"type":"Feature","properties":{"nome":"R. Antero Chaves","evento":"2023-11"}},{"geometry":{"type":"LineString","coordinates":[[-48.681435446144924,-26.921162799640936],[-48.681452806256324,-26.922340532867736]]},"id":2917,"type":"Feature","properties":{"nome":"R. Jorge Santos de Macedo","evento":"2023-11"}},{"geometry":{"type":"LineString","coordinates":[[-48.681452806256324,-26.922340532867736],[-48.68145728473605,-26.922589242279386],[-48.68082281399299,-26.922590245459936]]},"id":2918,"type":"Feature","properties":{"nome":"R. Jorge Santos de Macedo","evento":"2023-11"}},{"geometry":{"type":"LineString","coordinates":[[-48.68203833008535,-26.921146984404245],[-48.68206218779422,-26.922319108609827],[-48.681452806256324,-26.922340532867736]]},"id":2919,"type":"Feature","properties":{"nome":"R. São Gonçalo","evento":"2023-11"}},{"geometry":{"type":"LineString","coordinates":[[-48.68080080806835,-26.92117237434253],[-48.68082281399299,-26.922590245459936]]},"id":2920,"type":"Feature","properties":{"nome":"R. Eugênio Geraldino Franca","evento":"2023-11"}},{"geometry":{"type":"LineString","coordinates":[[-48.68082281399299,-26.922590245459936],[-48.68083109296491,-26.922964764609095]]},"id":2921,"type":"Feature","properties":{"nome":"R. Eugênio Geraldino Franca","evento":"2023-11"}},{"geometry":{"type":"LineString","coordinates":[[-48.68238309155388,-26.923737603940506],[-48.68226298889315,-26.92376421000587],[-48.68194832393846,-26.92379476391361]]},"id":2957,"type":"Feature","properties":{"nome":"R.Pres.João Goulart","evento":"2023-11"}},{"geometry":{"type":"LineString","coordinates":[[-48.68194832393846,-26.92379476391361],[-48.68115818855722,-26.9238460812471]]},"id":2958,"type":"Feature","properties":{"nome":"R.Pres.João Goulart","evento":"2023-11"}},{"geometry":{"type":"LineString","coordinates":[[-48.68115818855722,-26.9238460812471],[-48.68054178235545,-26.923898822749656]]},"id":2959,"type":"Feature","properties":{"nome":"R.Pres.João Goulart","evento":"2023-11"}},{"geometry":{"type":"LineString","coordinates":[[-48.68362295148186,-26.926836621649247],[-48.687167619398274,-26.926560406915467]]},"id":2982,"type":"Feature","properties":{"nome":"R. Paulo Hoier","evento":"2023-11"}},{"geometry":{"type":"LineString","coordinates":[[-48.68042946948297,-26.922804550546747],[-48.68083109296491,-26.922964764609095]]},"id":3001,"type":"Feature","properties":{"nome":"R. José Gall","evento":"2023-11"}},{"geometry":{"type":"LineString","coordinates":[[-48.68083109296491,-26.922964764609095],[-48.68109188351011,-26.923074077858498]]},"id":3002,"type":"Feature","properties":{"nome":"R. José Gall","evento":"2023-11"}},{"geometry":{"type":"LineString","coordinates":[[-48.68109188351011,-26.923074077858498],[-48.68210532831441,-26.923483690205565]]},"id":3003,"type":"Feature","properties":{"nome":"R. José Gall","evento":"2023-11"}},{"geometry":{"type":"LineString","coordinates":[[-48.68251798045277,-26.92365051068],[-48.682589516542805,-26.923933187249574]]},"id":3005,"type":"Feature","properties":{"nome":"R. José Gall","evento":"2023-11"}},{"geometry":{"type":"LineString","coordinates":[[-48.684141259505445,-26.92799685858611],[-48.68440360342443,-26.92818692781869]]},"id":3010,"type":"Feature","properties":{"nome":"R. José Gall","evento":"2023-11"}},{"geometry":{"type":"LineString","coordinates":[[-48.68440360342443,-26.92818692781869],[-48.684981601826216,-26.928610807090717]]},"id":3011,"type":"Feature","properties":{"nome":"R. José Gall","evento":"2023-11"}},{"geometry":{"type":"LineString","coordinates":[[-48.684981601826216,-26.928610807090717],[-48.686240161293476,-26.92955026612038],[-48.686393249470676,-26.92970424474706],[-48.68646859602577,-26.93007414813587],[-48.68649603735527,-26.930291797206245]]},"id":3012,"type":"Feature","properties":{"nome":"R. José Gall","evento":"2023-11"}},{"geometry":{"type":"LineString","coordinates":[[-48.68210532831441,-26.923483690205565],[-48.682302560161645,-26.923544088562007],[-48.682439076537925,-26.923565738825374]]},"id":3018,"type":"Feature","properties":{"nome":"R. José Gall","evento":"2023-11"}},{"geometry":{"type":"LineString","coordinates":[[-48.68231482887056,-26.923645744965537],[-48.68221146345225,-26.923555452557093],[-48.68210532831441,-26.923483690205565]]},"id":3020,"type":"Feature","properties":{"nome":"R. José Gall","evento":"2023-11"}},{"geometry":{"type":"LineString","coordinates":[[-48.68109188351011,-26.923074077858498],[-48.68115818855722,-26.9238460812471]]},"id":3022,"type":"Feature","properties":{"nome":"R. Reinaldo Pereira da Silva","evento":"2023-11"}},{"geometry":{"type":"LineString","coordinates":[[-48.67727542285323,-26.91892024674902],[-48.678102182698225,-26.91883025511123],[-48.6785635239968,-26.918797835871953],[-48.6799687676624,-26.918715206991912]]},"id":3047,"type":"Feature","properties":{"nome":"R. Jacob Ardigó","evento":"2023-11"}},{"geometry":{"type":"LineString","coordinates":[[-48.6799687676624,-26.918715206991912],[-48.68154990924493,-26.918605445751293],[-48.68196680684694,-26.91856371191386],[-48.68394599196299,-26.918437598966914],[-48.68420927029527,-26.91842477305135]]},"id":3048,"type":"Feature","properties":{"nome":"R. Jacob Ardigó","evento":"2023-11"}},{"geometry":{"type":"LineString","coordinates":[[-48.684427593680134,-26.918393703538687],[-48.686571972834535,-26.918252045911803],[-48.68715809174743,-26.9182759442831]]},"id":3052,"type":"Feature","properties":{"nome":"R. Jacob Ardigó","evento":"2023-11"}},{"geometry":{"type":"LineString","coordinates":[[-48.688980323307526,-26.91744271688306],[-48.688863563939485,-26.917579412072893]]},"id":3056,"type":"Feature","properties":{"nome":"R. Estefano José Vanolli","evento":"2023-11"}},{"geometry":{"type":"LineString","coordinates":[[-48.68715809174743,-26.9182759442831],[-48.68657395517397,-26.918389257217573],[-48.684496368341385,-26.918551836360454]]},"id":3057,"type":"Feature","properties":{"nome":"R. Jacob Ardigó","evento":"2023-11"}},{"geometry":{"type":"LineString","coordinates":[[-48.68454662400587,-26.918854457762116],[-48.68734397207877,-26.918619079152375]]},"id":3058,"type":"Feature","properties":{"nome":"R. Ernesto Polydorio Ferreira","evento":"2023-11"}},{"geometry":{"type":"LineString","coordinates":[[-48.68479715865934,-26.919355748354317],[-48.68550653377988,-26.919297708510893]]},"id":3059,"type":"Feature","properties":{"nome":"R. Francisco Bettoni","evento":"2023-11"}},{"geometry":{"type":"LineString","coordinates":[[-48.68445749143411,-26.92136069957097],[-48.68391055465548,-26.92126489589623],[-48.68292248737161,-26.921330122751865]]},"id":3060,"type":"Feature","properties":{"nome":"R. Henry Pedro Deitos","evento":"2023-11"}},{"geometry":{"type":"LineString","coordinates":[[-48.68429845502078,-26.918584849060682],[-48.68375454387934,-26.91860164271521],[-48.67997613595506,-26.918822498951613]]},"id":3061,"type":"Feature","properties":{"nome":"R. Jacob Ardigó","evento":"2023-11"}},{"geometry":{"type":"LineString","coordinates":[[-48.67997613595506,-26.918822498951613],[-48.67814301264994,-26.91893809771009],[-48.67727951466879,-26.919031771329177]]},"id":3062,"type":"Feature","properties":{"nome":"R. Jacob Ardigó","evento":"2023-11"}},{"geometry":{"type":"LineString","coordinates":[[-48.760414508463214,-26.91431241884241],[-48.760279679069875,-26.914538917456376],[-48.76054172542484,-26.921646101920754],[-48.7605612803308,-26.92180391861928],[-48.76071652494277,-26.921979131422532],[-48.760847475528266,-26.922092988336473],[-48.7609057419518,-26.922299687416626],[-48.760915718838724,-26.922655505212933],[-48.76094648086933,-26.92296338387717],[-48.761017709892286,-26.92323125882046],[-48.76103498275962,-26.923648162559104]]},"id":4150,"type":"Feature","properties":{"nome":"R. Luiz Moser","evento":"2023-11"}},{"geometry":{"type":"LineString","coordinates":[[-48.688840796559475,-26.912185921277953],[-48.6888910661288,-26.915771769586698]]},"id":4271,"type":"Feature","properties":{"nome":"R. Estefano José Vanolli","evento":"2023-11"}},{"geometry":{"type":"LineString","coordinates":[[-48.6888910661288,-26.915771769586698],[-48.68889648751941,-26.91628313590641]]},"id":4272,"type":"Feature","properties":{"nome":"R. Estefano José Vanolli","evento":"2023-11"}},{"geometry":{"type":"LineString","coordinates":[[-48.68889648751941,-26.91628313590641],[-48.68889758992877,-26.91678428629956]]},"id":4273,"type":"Feature","properties":{"nome":"R. Estefano José Vanolli","evento":"2023-11"}},{"geometry":{"type":"LineString","coordinates":[[-48.68889758992877,-26.91678428629956],[-48.688911156721694,-26.91723867364347]]},"id":4274,"type":"Feature","properties":{"nome":"R. Estefano José Vanolli","evento":"2023-11"}},{"geometry":{"type":"LineString","coordinates":[[-48.68546584096128,-26.9159418793846],[-48.6888910661288,-26.915771769586698]]},"id":4275,"type":"Feature","properties":{"nome":"R. Sidney Schulze","evento":"2023-11"}},{"geometry":{"type":"LineString","coordinates":[[-48.6888910661288,-26.915771769586698],[-48.69093660351455,-26.915681495278193]]},"id":4276,"type":"Feature","properties":{"nome":"R. Sidney Schulze","evento":"2023-11"}},{"geometry":{"type":"LineString","coordinates":[[-48.69093660351455,-26.915681495278193],[-48.69228694056914,-26.915610255716068]]},"id":4277,"type":"Feature","properties":{"nome":"R. Sidney Schulze","evento":"2023-11"}},{"geometry":{"type":"LineString","coordinates":[[-48.69228694056914,-26.915610255716068],[-48.693414975646775,-26.915563774712776]]},"id":4278,"type":"Feature","properties":{"nome":"R. Sidney Schulze","evento":"2023-11"}},{"geometry":{"type":"LineString","coordinates":[[-48.693414975646775,-26.915563774712776],[-48.69573949677889,-26.915443498130262]]},"id":4279,"type":"Feature","properties":{"nome":"R. Sidney Schulze","evento":"2023-11"}},{"geometry":{"type":"LineString","coordinates":[[-48.68567866498738,-26.91644835888017],[-48.68889648751941,-26.91628313590641]]},"id":4280,"type":"Feature","properties":{"nome":"R.Dr.Hermes Atílio Mariani","evento":"2023-11"}},{"geometry":{"type":"LineString","coordinates":[[-48.68889648751941,-26.91628313590641],[-48.69095795362129,-26.91618906345754]]},"id":4281,"type":"Feature","properties":{"nome":"R.Dr.Hermes Atílio Mariani","evento":"2023-11"}},{"geometry":{"type":"LineString","coordinates":[[-48.69345484953765,-26.91605135727245],[-48.69575617809621,-26.91595910688802]]},"id":4284,"type":"Feature","properties":{"nome":"R.Dr.Hermes Atílio Mariani","evento":"2023-11"}},{"geometry":{"type":"LineString","coordinates":[[-48.68613439985132,-26.916924526376885],[-48.68889758992877,-26.91678428629956]]},"id":4285,"type":"Feature","properties":{"nome":"R. João Marcelino Machado","evento":"2023-11"}},{"geometry":{"type":"LineString","coordinates":[[-48.68889758992877,-26.91678428629956],[-48.69100653656868,-26.91669302078581]]},"id":4286,"type":"Feature","properties":{"nome":"R. João Marcelino Machado","evento":"2023-11"}},{"geometry":{"type":"LineString","coordinates":[[-48.69100653656868,-26.91669302078581],[-48.69236593582632,-26.916621929328915]]},"id":4287,"type":"Feature","properties":{"nome":"R. João Marcelino Machado","evento":"2023-11"}},{"geometry":{"type":"LineString","coordinates":[[-48.69347629337417,-26.916554870669156],[-48.69577812778174,-26.916438280947503]]},"id":4288,"type":"Feature","properties":{"nome":"R. Das Petúnias","evento":"2023-11"}},{"geometry":{"type":"LineString","coordinates":[[-48.68548894579078,-26.91605943200534],[-48.68457256598406,-26.916116895450536]]},"id":4289,"type":"Feature","properties":{"nome":"R. Max Hoier","evento":"2023-11"}},{"geometry":{"type":"LineString","coordinates":[[-48.68933792192852,-26.917259951793643],[-48.69102846500018,-26.91717219425264]]},"id":4290,"type":"Feature","properties":{"nome":"R. Dos Jasmins","evento":"2023-11"}},{"geometry":{"type":"LineString","coordinates":[[-48.69102846500018,-26.91717219425264],[-48.692410412291814,-26.91710552984777]]},"id":4291,"type":"Feature","properties":{"nome":"R. Dos Jasmins","evento":"2023-11"}},{"geometry":{"type":"LineString","coordinates":[[-48.69102846500018,-26.91717219425264],[-48.69100653656868,-26.91669302078581]]},"id":4292,"type":"Feature","properties":{"nome":"R. Dos Girassóis","evento":"2023-11"}},{"geometry":{"type":"LineString","coordinates":[[-48.69100653656868,-26.91669302078581],[-48.69095795362129,-26.91618906345754]]},"id":4293,"type":"Feature","properties":{"nome":"R. Dos Girassóis","evento":"2023-11"}},{"geometry":{"type":"LineString","coordinates":[[-48.69095795362129,-26.91618906345754],[-48.69093660351455,-26.915681495278193]]},"id":4294,"type":"Feature","properties":{"nome":"R. Dos Girassóis","evento":"2023-11"}},{"geometry":{"type":"LineString","coordinates":[[-48.69228694056914,-26.915610255716068],[-48.69232631429282,-26.916122176982615]]},"id":4295,"type":"Feature","properties":{"nome":"R. Das Hortências","evento":"2023-11"}},{"geometry":{"type":"LineString","coordinates":[[-48.69236593582632,-26.916621929328915],[-48.692410412291814,-26.91710552984777]]},"id":4297,"type":"Feature","properties":{"nome":"R. Das Hortências","evento":"2023-11"}},{"geometry":{"type":"LineString","coordinates":[[-48.68980436490689,-26.917759146767086],[-48.69081377053649,-26.91771242032965]]},"id":4298,"type":"Feature","properties":{"nome":"R. Das Papoulas","evento":"2023-11"}},{"geometry":{"type":"LineString","coordinates":[[-48.69081377053649,-26.91771242032965],[-48.69245389838785,-26.917637807738085]]},"id":4299,"type":"Feature","properties":{"nome":"R. Das Papoulas","evento":"2023-11"}},{"geometry":{"type":"LineString","coordinates":[[-48.692410412291814,-26.91710552984777],[-48.69245389838785,-26.917637807738085]]},"id":4300,"type":"Feature","properties":{"nome":"R. Das Hortências","evento":"2023-11"}},{"geometry":{"type":"LineString","coordinates":[[-48.69245389838785,-26.917637807738085],[-48.692484471282555,-26.91813741203597]]},"id":4301,"type":"Feature","properties":{"nome":"R. Das Hortências","evento":"2023-11"}},{"geometry":{"type":"LineString","coordinates":[[-48.692484471282555,-26.91813741203597],[-48.69251463052358,-26.918657298088817]]},"id":4302,"type":"Feature","properties":{"nome":"R. Das Hortências","evento":"2023-11"}},{"geometry":{"type":"LineString","coordinates":[[-48.690857744749,-26.918220359541124],[-48.692484471282555,-26.91813741203597]]},"id":4307,"type":"Feature","properties":{"nome":"R. Das Violetas","evento":"2023-11"}},{"geometry":{"type":"LineString","coordinates":[[-48.692484471282555,-26.91813741203597],[-48.69303955407709,-26.918104939330377]]},"id":4308,"type":"Feature","properties":{"nome":"R. Das Violetas","evento":"2023-11"}},{"geometry":{"type":"LineString","coordinates":[[-48.69303955407709,-26.918104939330377],[-48.69359495550908,-26.918079657528054]]},"id":4309,"type":"Feature","properties":{"nome":"R. Das Violetas","evento":"2023-11"}},{"geometry":{"type":"LineString","coordinates":[[-48.69359495550908,-26.918079657528054],[-48.69415636349771,-26.91805924105114]]},"id":4310,"type":"Feature","properties":{"nome":"R. Das Violetas","evento":"2023-11"}},{"geometry":{"type":"LineString","coordinates":[[-48.69303955407709,-26.918104939330377],[-48.693109781096524,-26.91899570810318]]},"id":4319,"type":"Feature","properties":{"nome":"R. Dos Hibiscos","evento":"2023-11"}},{"geometry":{"type":"LineString","coordinates":[[-48.693414975646775,-26.915563774712776],[-48.69345484953765,-26.91605135727245]]},"id":4323,"type":"Feature","properties":{"nome":"R. Agílio Cunha","evento":"2023-11"}},{"geometry":{"type":"LineString","coordinates":[[-48.69345484953765,-26.91605135727245],[-48.69347629337417,-26.916554870669156]]},"id":4324,"type":"Feature","properties":{"nome":"R. Agílio Cunha","evento":"2023-11"}},{"geometry":{"type":"LineString","coordinates":[[-48.69347629337417,-26.916554870669156],[-48.69351369899238,-26.917052557115667]]},"id":4325,"type":"Feature","properties":{"nome":"R. Agílio Cunha","evento":"2023-11"}},{"geometry":{"type":"LineString","coordinates":[[-48.69351369899238,-26.917052557115667],[-48.69355299575185,-26.917568535231865]]},"id":4326,"type":"Feature","properties":{"nome":"R. Agílio Cunha","evento":"2023-11"}},{"geometry":{"type":"LineString","coordinates":[[-48.69355299575185,-26.917568535231865],[-48.69359495550908,-26.918079657528054]]},"id":4327,"type":"Feature","properties":{"nome":"R. Agílio Cunha","evento":"2023-11"}},{"geometry":{"type":"LineString","coordinates":[[-48.69359495550908,-26.918079657528054],[-48.693758414221044,-26.9195985831685]]},"id":4328,"type":"Feature","properties":{"nome":"R. Agílio Cunha","evento":"2023-11"}},{"geometry":{"type":"LineString","coordinates":[[-48.693758414221044,-26.9195985831685],[-48.69380358735627,-26.9200422954277]]},"id":4329,"type":"Feature","properties":{"nome":"R. Agílio Cunha","evento":"2023-11"}},{"geometry":{"type":"LineString","coordinates":[[-48.69380358735627,-26.9200422954277],[-48.69399117855475,-26.921791536700233]]},"id":4330,"type":"Feature","properties":{"nome":"R. Agílio Cunha","evento":"2023-11"}},{"geometry":{"type":"LineString","coordinates":[[-48.69399117855475,-26.921791536700233],[-48.694035074349294,-26.922298102439246]]},"id":4331,"type":"Feature","properties":{"nome":"R. Agílio Cunha","evento":"2023-11"}},{"geometry":{"type":"LineString","coordinates":[[-48.694035074349294,-26.922298102439246],[-48.69409259015805,-26.922762021477645]]},"id":4333,"type":"Feature","properties":{"nome":"R. Agílio Cunha","evento":"2023-11"}},{"geometry":{"type":"LineString","coordinates":[[-48.69409259015805,-26.922762021477645],[-48.69414013862227,-26.923245783670783]]},"id":4334,"type":"Feature","properties":{"nome":"R. Agílio Cunha","evento":"2023-11"}},{"geometry":{"type":"LineString","coordinates":[[-48.694238298565956,-26.92416392355452],[-48.694280701264894,-26.92464273474498]]},"id":4337,"type":"Feature","properties":{"nome":"R. Agílio Cunha","evento":"2023-11"}},{"geometry":{"type":"LineString","coordinates":[[-48.694280701264894,-26.92464273474498],[-48.69432986316593,-26.92521996313071]]},"id":4338,"type":"Feature","properties":{"nome":"R. Agílio Cunha","evento":"2023-11"}},{"geometry":{"type":"LineString","coordinates":[[-48.69395434994419,-26.925425123471076],[-48.69352615371601,-26.925656197574675]]},"id":4341,"type":"Feature","properties":{"nome":"R. Mario Ferrari","evento":"2023-11"}},{"geometry":{"type":"LineString","coordinates":[[-48.69352615371601,-26.925656197574675],[-48.69310401487661,-26.92590669406867]]},"id":4342,"type":"Feature","properties":{"nome":"R. Mario Ferrari","evento":"2023-11"}},{"geometry":{"type":"LineString","coordinates":[[-48.694420571052675,-26.925702724943278],[-48.693366325955836,-26.92628926655105]]},"id":4351,"type":"Feature","properties":{"nome":"R. Carlos Otto Priess","evento":"2023-11"}},{"geometry":{"type":"LineString","coordinates":[[-48.693366325955836,-26.92628926655105],[-48.692938350990914,-26.926527005824617]]},"id":4352,"type":"Feature","properties":{"nome":"R. Carlos Otto Priess","evento":"2023-11"}},{"geometry":{"type":"LineString","coordinates":[[-48.692938350990914,-26.926527005824617],[-48.69250312764995,-26.92676280944878]]},"id":4353,"type":"Feature","properties":{"nome":"R. Carlos Otto Priess","evento":"2023-11"}},{"geometry":{"type":"LineString","coordinates":[[-48.69250312764995,-26.92676280944878],[-48.692090039830134,-26.9270075468903]]},"id":4354,"type":"Feature","properties":{"nome":"R. Carlos Otto Priess","evento":"2023-11"}},{"geometry":{"type":"LineString","coordinates":[[-48.692090039830134,-26.9270075468903],[-48.69165805861019,-26.927240541848143]]},"id":4355,"type":"Feature","properties":{"nome":"R. Carlos Otto Priess","evento":"2023-11"}},{"geometry":{"type":"LineString","coordinates":[[-48.69165805861019,-26.927240541848143],[-48.69123250768439,-26.927470782621363]]},"id":4356,"type":"Feature","properties":{"nome":"R. Carlos Otto Priess","evento":"2023-11"}},{"geometry":{"type":"LineString","coordinates":[[-48.69516991263209,-26.92635310546555],[-48.69508630299499,-26.926357875115784],[-48.694375894891344,-26.926740345386694]]},"id":4358,"type":"Feature","properties":{"nome":"R. Manoel Cardozo","evento":"2023-11"}},{"geometry":{"type":"LineString","coordinates":[[-48.696286853795065,-26.927267625583525],[-48.69467359091242,-26.928172273971093]]},"id":4363,"type":"Feature","properties":{"nome":"R. João Ascendino Lamim","evento":"2023-11"}},{"geometry":{"type":"LineString","coordinates":[[-48.69467359091242,-26.928172273971093],[-48.69423073568161,-26.92842397084069]]},"id":4364,"type":"Feature","properties":{"nome":"R. João Ascendino Lamim","evento":"2023-11"}},{"geometry":{"type":"LineString","coordinates":[[-48.69423073568161,-26.92842397084069],[-48.69429651371289,-26.928528519126097],[-48.694753895062725,-26.928910322272746]]},"id":4368,"type":"Feature","properties":{"nome":"R. Anastácio José Mendes","evento":"2023-11"}},{"geometry":{"type":"LineString","coordinates":[[-48.694868253171634,-26.92879654491031],[-48.69673578428716,-26.93034870890757]]},"id":4369,"type":"Feature","properties":{"nome":"R. Vilmar José Pinto","evento":"2023-11"}},{"geometry":{"type":"LineString","coordinates":[[-48.69673578428716,-26.93034870890757],[-48.69828921335995,-26.931654288408847]]},"id":4370,"type":"Feature","properties":{"nome":"R. Vilmar José Pinto","evento":"2023-11"}},{"geometry":{"type":"LineString","coordinates":[[-48.695246767231474,-26.928437531338894],[-48.69711187100233,-26.929997766321552]]},"id":4371,"type":"Feature","properties":{"nome":"R. Alcides Bento Gonçalves","evento":"2023-11"}},{"geometry":{"type":"LineString","coordinates":[[-48.69711187100233,-26.929997766321552],[-48.69864271267197,-26.931300944516607]]},"id":4372,"type":"Feature","properties":{"nome":"R. Alcides Bento Gonçalves","evento":"2023-11"}},{"geometry":{"type":"LineString","coordinates":[[-48.695616310339965,-26.928074311828762],[-48.697481826052595,-26.929614260106057]]},"id":4373,"type":"Feature","properties":{"nome":"R. Minelvino Manoel Gonçalves","evento":"2023-11"}},{"geometry":{"type":"LineString","coordinates":[[-48.697481826052595,-26.929614260106057],[-48.69904401797619,-26.93093417689864]]},"id":4374,"type":"Feature","properties":{"nome":"R. Minelvino Manoel Gonçalves","evento":"2023-11"}},{"geometry":{"type":"LineString","coordinates":[[-48.69914088492506,-26.931012854787454],[-48.70047302835117,-26.932126116120152]]},"id":4375,"type":"Feature","properties":{"nome":"R. Minelvino Manoel Gonçalves","evento":"2023-11"}},{"geometry":{"type":"LineString","coordinates":[[-48.69874620360041,-26.931387846352113],[-48.69957357793569,-26.932054641725305]]},"id":4376,"type":"Feature","properties":{"nome":"R. Alcides Bento Gonçalves","evento":"2023-11"}},{"geometry":{"type":"LineString","coordinates":[[-48.69828921335995,-26.931654288408847],[-48.69837916798261,-26.93173894095528]]},"id":4379,"type":"Feature","properties":{"nome":"R. Vilmar José Pinto","evento":"2023-11"}},{"geometry":{"type":"LineString","coordinates":[[-48.69828921335995,-26.931654288408847],[-48.69864271267197,-26.931300944516607]]},"id":4380,"type":"Feature","properties":{"nome":"Av. Maria Marques Werner","evento":"2023-11"}},{"geometry":{"type":"LineString","coordinates":[[-48.69864271267197,-26.931300944516607],[-48.69904401797619,-26.93093417689864]]},"id":4381,"type":"Feature","properties":{"nome":"Av. Maria Marques Werner","evento":"2023-11"}},{"geometry":{"type":"LineString","coordinates":[[-48.69904401797619,-26.93093417689864],[-48.69943966325207,-26.93056731659098]]},"id":4382,"type":"Feature","properties":{"nome":"Av. Maria Marques Werner","evento":"2023-11"}},{"geometry":{"type":"LineString","coordinates":[[-48.69943966325207,-26.93056731659098],[-48.69984330825901,-26.93019652631937]]},"id":4383,"type":"Feature","properties":{"nome":"Av. Maria Marques Werner","evento":"2023-11"}},{"geometry":{"type":"LineString","coordinates":[[-48.69984330825901,-26.93019652631937],[-48.70023571815844,-26.929821495129996]]},"id":4384,"type":"Feature","properties":{"nome":"Av. Maria Marques Werner","evento":"2023-11"}},{"geometry":{"type":"LineString","coordinates":[[-48.70023571815844,-26.929821495129996],[-48.70060525217248,-26.929458261893643]]},"id":4385,"type":"Feature","properties":{"nome":"Av. Maria Marques Werner","evento":"2023-11"}},{"geometry":{"type":"LineString","coordinates":[[-48.70060525217248,-26.929458261893643],[-48.70099086936585,-26.92908311760462]]},"id":4386,"type":"Feature","properties":{"nome":"Av. Maria Marques Werner","evento":"2023-11"}},{"geometry":{"type":"LineString","coordinates":[[-48.70099086936585,-26.92908311760462],[-48.70136533390359,-26.928699673874036]]},"id":4387,"type":"Feature","properties":{"nome":"Av. Maria Marques Werner","evento":"2023-11"}},{"geometry":{"type":"LineString","coordinates":[[-48.70136533390359,-26.928699673874036],[-48.70166541507267,-26.928412403681172]]},"id":4388,"type":"Feature","properties":{"nome":"Av. Maria Marques Werner","evento":"2023-11"}},{"geometry":{"type":"LineString","coordinates":[[-48.70166541507267,-26.928412403681172],[-48.70259932688215,-26.927532035179865]]},"id":4389,"type":"Feature","properties":{"nome":"Av. Maria Marques Werner","evento":"2023-11"}},{"geometry":{"type":"LineString","coordinates":[[-48.70259932688215,-26.927532035179865],[-48.70265776238947,-26.927584552109504]]},"id":4390,"type":"Feature","properties":{"nome":"R. Otília Damasceno","evento":"2023-11"}},{"geometry":{"type":"LineString","coordinates":[[-48.70259932688215,-26.927532035179865],[-48.70374248775444,-26.92644168965639],[-48.70391471580858,-26.92602732806956]]},"id":4391,"type":"Feature","properties":{"nome":"Av. Maria Marques Werner","evento":"2023-11"}},{"geometry":{"type":"LineString","coordinates":[[-48.70265776238947,-26.927584552109504],[-48.7023548066973,-26.927902210755573]]},"id":4392,"type":"Feature","properties":{"nome":"Av. Maria Marques Werner","evento":"2023-11"}},{"geometry":{"type":"LineString","coordinates":[[-48.7023548066973,-26.927902210755573],[-48.7020547697503,-26.92818745371964]]},"id":4393,"type":"Feature","properties":{"nome":"Av. Maria Marques Werner","evento":"2023-11"}},{"geometry":{"type":"LineString","coordinates":[[-48.7020547697503,-26.92818745371964],[-48.70176370112322,-26.928476900333827]]},"id":4394,"type":"Feature","properties":{"nome":"Av. Maria Marques Werner","evento":"2023-11"}},{"geometry":{"type":"LineString","coordinates":[[-48.70176370112322,-26.928476900333827],[-48.70144535323678,-26.928771988717806]]},"id":4395,"type":"Feature","properties":{"nome":"Av. Maria Marques Werner","evento":"2023-11"}},{"geometry":{"type":"LineString","coordinates":[[-48.70144535323678,-26.928771988717806],[-48.701075496054806,-26.929151449485445]]},"id":4396,"type":"Feature","properties":{"nome":"Av. Maria Marques Werner","evento":"2023-11"}},{"geometry":{"type":"LineString","coordinates":[[-48.701075496054806,-26.929151449485445],[-48.70067642605019,-26.929520288693094]]},"id":4397,"type":"Feature","properties":{"nome":"Av. Maria Marques Werner","evento":"2023-11"}},{"geometry":{"type":"LineString","coordinates":[[-48.70067642605019,-26.929520288693094],[-48.700295351933974,-26.929894492610224]]},"id":4399,"type":"Feature","properties":{"nome":"Av. Maria Marques Werner","evento":"2023-11"}},{"geometry":{"type":"LineString","coordinates":[[-48.700295351933974,-26.929894492610224],[-48.69991668293749,-26.930261632401965]]},"id":4401,"type":"Feature","properties":{"nome":"Av. Maria Marques Werner","evento":"2023-11"}},{"geometry":{"type":"LineString","coordinates":[[-48.69991668293749,-26.930261632401965],[-48.69951505445433,-26.930644628731628]]},"id":4403,"type":"Feature","properties":{"nome":"Av. Maria Marques Werner","evento":"2023-11"}},{"geometry":{"type":"LineString","coordinates":[[-48.69951505445433,-26.930644628731628],[-48.69914088492506,-26.931012854787454]]},"id":4405,"type":"Feature","properties":{"nome":"Av. Maria Marques Werner","evento":"2023-11"}},{"geometry":{"type":"LineString","coordinates":[[-48.69914088492506,-26.931012854787454],[-48.69874620360041,-26.931387846352113]]},"id":4406,"type":"Feature","properties":{"nome":"Av. Maria Marques Werner","evento":"2023-11"}},{"geometry":{"type":"LineString","coordinates":[[-48.69874620360041,-26.931387846352113],[-48.69837916798261,-26.93173894095528]]},"id":4407,"type":"Feature","properties":{"nome":"Av. Maria Marques Werner","evento":"2023-11"}},{"geometry":{"type":"LineString","coordinates":[[-48.69785210746746,-26.929270321798757],[-48.69943966325207,-26.93056731659098]]},"id":4409,"type":"Feature","properties":{"nome":"R. Francisco Delvan","evento":"2023-11"}},{"geometry":{"type":"LineString","coordinates":[[-48.69951505445433,-26.930644628731628],[-48.700843802906206,-26.931757831204795]]},"id":4410,"type":"Feature","properties":{"nome":"R. Francisco Delvan","evento":"2023-11"}},{"geometry":{"type":"LineString","coordinates":[[-48.694760416526975,-26.926023665120248],[-48.69362748673886,-26.92666116385831]]},"id":4415,"type":"Feature","properties":{"nome":"R. Augusto Fiorenzano Júnior","evento":"2023-11"}},{"geometry":{"type":"LineString","coordinates":[[-48.69639052384386,-26.92734540101599],[-48.6982560406768,-26.92888533911573]]},"id":4420,"type":"Feature","properties":{"nome":"R. Agílio Cunha","evento":"2023-11"}},{"geometry":{"type":"LineString","coordinates":[[-48.6982560406768,-26.92888533911573],[-48.69984330825901,-26.93019652631937]]},"id":4421,"type":"Feature","properties":{"nome":"R. Agílio Cunha","evento":"2023-11"}},{"geometry":{"type":"LineString","coordinates":[[-48.69991668293749,-26.930261632401965],[-48.701216303879384,-26.93136015477834]]},"id":4422,"type":"Feature","properties":{"nome":"R. Agílio Cunha","evento":"2023-11"}},{"geometry":{"type":"LineString","coordinates":[[-48.69677882097135,-26.92695002278879],[-48.69866219244913,-26.92850242089866]]},"id":4423,"type":"Feature","properties":{"nome":"R. Ema Fornari Conte","evento":"2023-11"}},{"geometry":{"type":"LineString","coordinates":[[-48.69866219244913,-26.92850242089866],[-48.70023571815844,-26.929821495129996]]},"id":4424,"type":"Feature","properties":{"nome":"R. Ema Fornari Conte","evento":"2023-11"}},{"geometry":{"type":"LineString","coordinates":[[-48.700295351933974,-26.929894492610224],[-48.70157769300399,-26.93095215187266]]},"id":4425,"type":"Feature","properties":{"nome":"R. Ema Fornari Conte","evento":"2023-11"}},{"geometry":{"type":"LineString","coordinates":[[-48.69719186193672,-26.926585958384756],[-48.69902843587826,-26.928128305251594]]},"id":4426,"type":"Feature","properties":{"nome":"R. Manoel Olívio Theodoro","evento":"2023-11"}},{"geometry":{"type":"LineString","coordinates":[[-48.69902843587826,-26.928128305251594],[-48.70060525217248,-26.929458261893643]]},"id":4427,"type":"Feature","properties":{"nome":"R. Manoel Olívio Theodoro","evento":"2023-11"}},{"geometry":{"type":"LineString","coordinates":[[-48.70067642605019,-26.929520288693094],[-48.701866858820615,-26.93051277391228]]},"id":4429,"type":"Feature","properties":{"nome":"R. Manoel Olívio Theodoro","evento":"2023-11"}},{"geometry":{"type":"LineString","coordinates":[[-48.69756053180981,-26.926222787442878],[-48.699414901583864,-26.92777837331749]]},"id":4430,"type":"Feature","properties":{"nome":"R. Francisco Molleri","evento":"2023-11"}},{"geometry":{"type":"LineString","coordinates":[[-48.699414901583864,-26.92777837331749],[-48.70099086936585,-26.92908311760462]]},"id":4431,"type":"Feature","properties":{"nome":"R. Francisco Molleri","evento":"2023-11"}},{"geometry":{"type":"LineString","coordinates":[[-48.701075496054806,-26.929151449485445],[-48.702165259904696,-26.9300512906594]]},"id":4432,"type":"Feature","properties":{"nome":"R. Francisco Molleri","evento":"2023-11"}},{"geometry":{"type":"LineString","coordinates":[[-48.697952656088425,-26.925842011674384],[-48.69837028063946,-26.926200377020116]]},"id":4433,"type":"Feature","properties":{"nome":"R. Maria Alves Mafra","evento":"2023-11"}},{"geometry":{"type":"LineString","coordinates":[[-48.69837028063946,-26.926200377020116],[-48.69889981723675,-26.926633258867724]]},"id":4434,"type":"Feature","properties":{"nome":"R. Maria Alves Mafra","evento":"2023-11"}},{"geometry":{"type":"LineString","coordinates":[[-48.69889981723675,-26.926633258867724],[-48.699269391823236,-26.926937228773333]]},"id":4435,"type":"Feature","properties":{"nome":"R. Maria Alves Mafra","evento":"2023-11"}},{"geometry":{"type":"LineString","coordinates":[[-48.699269391823236,-26.926937228773333],[-48.699627314313595,-26.927240682009042]]},"id":4436,"type":"Feature","properties":{"nome":"R. Maria Alves Mafra","evento":"2023-11"}},{"geometry":{"type":"LineString","coordinates":[[-48.699627314313595,-26.927240682009042],[-48.699791383565206,-26.927386176928255]]},"id":4437,"type":"Feature","properties":{"nome":"R. Maria Alves Mafra","evento":"2023-11"}},{"geometry":{"type":"LineString","coordinates":[[-48.699791383565206,-26.927386176928255],[-48.700109694149596,-26.92766580136382]]},"id":4438,"type":"Feature","properties":{"nome":"R. Maria Alves Mafra","evento":"2023-11"}},{"geometry":{"type":"LineString","coordinates":[[-48.700109694149596,-26.92766580136382],[-48.700530127546905,-26.928001313635576]]},"id":4439,"type":"Feature","properties":{"nome":"R. Maria Alves Mafra","evento":"2023-11"}},{"geometry":{"type":"LineString","coordinates":[[-48.700530127546905,-26.928001313635576],[-48.70093769773399,-26.92834233115474]]},"id":4440,"type":"Feature","properties":{"nome":"R. Maria Alves Mafra","evento":"2023-11"}},{"geometry":{"type":"LineString","coordinates":[[-48.70093769773399,-26.92834233115474],[-48.70136533390359,-26.928699673874036]]},"id":4441,"type":"Feature","properties":{"nome":"R. Maria Alves Mafra","evento":"2023-11"}},{"geometry":{"type":"LineString","coordinates":[[-48.70144535323678,-26.928771988717806],[-48.702413241048816,-26.929581699145608]]},"id":4442,"type":"Feature","properties":{"nome":"R. Maria Alves Mafra","evento":"2023-11"}},{"geometry":{"type":"LineString","coordinates":[[-48.70176370112322,-26.928476900333827],[-48.7026340181082,-26.929206389305243]]},"id":4443,"type":"Feature","properties":{"nome":"R. Rivo Lafaiéte de Oliveira","evento":"2023-11"}},{"geometry":{"type":"LineString","coordinates":[[-48.7020547697503,-26.92818745371964],[-48.702800878143364,-26.92881724744116]]},"id":4444,"type":"Feature","properties":{"nome":"R. Olivia Benedita Batistoti","evento":"2023-11"}},{"geometry":{"type":"LineString","coordinates":[[-48.7023548066973,-26.927902210755573],[-48.70296077601614,-26.928415038348426]]},"id":4445,"type":"Feature","properties":{"nome":"R.Exp.Rosendo José Cândido","evento":"2023-11"}},{"geometry":{"type":"LineString","coordinates":[[-48.699791383565206,-26.927386176928255],[-48.699414901583864,-26.92777837331749]]},"id":4446,"type":"Feature","properties":{"nome":"R. Alcides Esperidião Pereira","evento":"2023-11"}},{"geometry":{"type":"LineString","coordinates":[[-48.699414901583864,-26.92777837331749],[-48.69902843587826,-26.928128305251594]]},"id":4447,"type":"Feature","properties":{"nome":"R. Alcides Esperidião Pereira","evento":"2023-11"}},{"geometry":{"type":"LineString","coordinates":[[-48.69902843587826,-26.928128305251594],[-48.69866219244913,-26.92850242089866]]},"id":4448,"type":"Feature","properties":{"nome":"R. Alcides Esperidião Pereira","evento":"2023-11"}},{"geometry":{"type":"LineString","coordinates":[[-48.69866219244913,-26.92850242089866],[-48.6982560406768,-26.92888533911573]]},"id":4449,"type":"Feature","properties":{"nome":"R. Alcides Esperidião Pereira","evento":"2023-11"}},{"geometry":{"type":"LineString","coordinates":[[-48.6982560406768,-26.92888533911573],[-48.69785210746746,-26.929270321798757]]},"id":4450,"type":"Feature","properties":{"nome":"R. Alcides Esperidião Pereira","evento":"2023-11"}},{"geometry":{"type":"LineString","coordinates":[[-48.69785210746746,-26.929270321798757],[-48.697481826052595,-26.929614260106057]]},"id":4451,"type":"Feature","properties":{"nome":"R. Alcides Esperidião Pereira","evento":"2023-11"}},{"geometry":{"type":"LineString","coordinates":[[-48.69728167327752,-26.929812159387563],[-48.69711187100233,-26.929997766321552]]},"id":4452,"type":"Feature","properties":{"nome":"R. Virgínio Zermiani","evento":"2023-11"}},{"geometry":{"type":"LineString","coordinates":[[-48.69711187100233,-26.929997766321552],[-48.69673578428716,-26.93034870890757]]},"id":4453,"type":"Feature","properties":{"nome":"R. Virgínio Zermiani","evento":"2023-11"}},{"geometry":{"type":"LineString","coordinates":[[-48.693102006789935,-26.930482056629163],[-48.692796960837995,-26.930208555613532]]},"id":4459,"type":"Feature","properties":{"nome":"R.P.Gilberto Mafra","evento":"2023-11"}},{"geometry":{"type":"LineString","coordinates":[[-48.692796960837995,-26.930208555613532],[-48.692495692938635,-26.930102384601792]]},"id":4460,"type":"Feature","properties":{"nome":"R.P.Gilberto Mafra","evento":"2023-11"}},{"geometry":{"type":"LineString","coordinates":[[-48.692495692938635,-26.930102384601792],[-48.69219869575817,-26.93003862141705]]},"id":4461,"type":"Feature","properties":{"nome":"R.P.Gilberto Mafra","evento":"2023-11"}},{"geometry":{"type":"LineString","coordinates":[[-48.692495692938635,-26.930102384601792],[-48.69241393886861,-26.930304207619642],[-48.69231378313873,-26.930432108993212]]},"id":4462,"type":"Feature","properties":{"nome":"R. Carlos Bernardes","evento":"2023-11"}},{"geometry":{"type":"LineString","coordinates":[[-48.692796960837995,-26.930208555613532],[-48.693138176937914,-26.929869141950906]]},"id":4463,"type":"Feature","properties":{"nome":"R. Benta Evarista da Silva","evento":"2023-11"}},{"geometry":{"type":"LineString","coordinates":[[-48.69347565665438,-26.93012777433557],[-48.693138176937914,-26.929869141950906]]},"id":4464,"type":"Feature","properties":{"nome":"R.Diác.Antônio João Vicente","evento":"2023-11"}},{"geometry":{"type":"LineString","coordinates":[[-48.693138176937914,-26.929869141950906],[-48.692868028080284,-26.929650983246493]]},"id":4465,"type":"Feature","properties":{"nome":"R.Diác.Antônio João Vicente","evento":"2023-11"}},{"geometry":{"type":"LineString","coordinates":[[-48.69248054009836,-26.931086159438305],[-48.69187763658142,-26.930824926239804]]},"id":4469,"type":"Feature","properties":{"nome":"R. Hercílio Trainotti","evento":"2023-11"}},{"geometry":{"type":"LineString","coordinates":[[-48.69218460203215,-26.931364299466285],[-48.692114851505366,-26.9313069240307],[-48.691507859037465,-26.931010751415396]]},"id":4470,"type":"Feature","properties":{"nome":"R. Mônica Gizele Elisio","evento":"2023-11"}},{"geometry":{"type":"LineString","coordinates":[[-48.69188951988211,-26.931660651270462],[-48.69184056348989,-26.931615368342932],[-48.6915464232138,-26.931385979873784],[-48.691430776154206,-26.931300149195028]]},"id":4473,"type":"Feature","properties":{"nome":"R. Antônia Araujo","evento":"2023-11"}},{"geometry":{"type":"LineString","coordinates":[[-48.69188951988211,-26.931660651270462],[-48.69189535870895,-26.931728755090685],[-48.69151167781894,-26.932117572441413]]},"id":4474,"type":"Feature","properties":{"nome":"Av.Min.Luiz Gallotti","evento":"2023-11"}},{"geometry":{"type":"LineString","coordinates":[[-48.70047670308852,-26.925762703845088],[-48.699269391823236,-26.926937228773333]]},"id":4480,"type":"Feature","properties":{"nome":"R. João Cirilo da Cunha","evento":"2023-11"}},{"geometry":{"type":"LineString","coordinates":[[-48.697952656088425,-26.925842011674384],[-48.69772562515998,-26.926054650607114]]},"id":4529,"type":"Feature","properties":{"nome":"Av.Min.Luiz Gallotti","evento":"2023-11"}},{"geometry":{"type":"LineString","coordinates":[[-48.69772562515998,-26.926054650607114],[-48.69756053180981,-26.926222787442878]]},"id":4530,"type":"Feature","properties":{"nome":"Av.Min.Luiz Gallotti","evento":"2023-11"}},{"geometry":{"type":"LineString","coordinates":[[-48.69756053180981,-26.926222787442878],[-48.697371780938106,-26.92639944316073]]},"id":4531,"type":"Feature","properties":{"nome":"Av.Min.Luiz Gallotti","evento":"2023-11"}},{"geometry":{"type":"LineString","coordinates":[[-48.697371780938106,-26.92639944316073],[-48.69719186193672,-26.926585958384756]]},"id":4532,"type":"Feature","properties":{"nome":"Av.Min.Luiz Gallotti","evento":"2023-11"}},{"geometry":{"type":"LineString","coordinates":[[-48.69719186193672,-26.926585958384756],[-48.69700022230815,-26.92672694363619]]},"id":4533,"type":"Feature","properties":{"nome":"Av.Min.Luiz Gallotti","evento":"2023-11"}},{"geometry":{"type":"LineString","coordinates":[[-48.69700022230815,-26.92672694363619],[-48.69677882097135,-26.92695002278879]]},"id":4534,"type":"Feature","properties":{"nome":"Av.Min.Luiz Gallotti","evento":"2023-11"}},{"geometry":{"type":"LineString","coordinates":[[-48.69677882097135,-26.92695002278879],[-48.69665278329974,-26.92708187109315]]},"id":4535,"type":"Feature","properties":{"nome":"Av.Min.Luiz Gallotti","evento":"2023-11"}},{"geometry":{"type":"LineString","coordinates":[[-48.69665278329974,-26.92708187109315],[-48.69639052384386,-26.92734540101599]]},"id":4536,"type":"Feature","properties":{"nome":"Av.Min.Luiz Gallotti","evento":"2023-11"}},{"geometry":{"type":"LineString","coordinates":[[-48.69639052384386,-26.92734540101599],[-48.69599588898624,-26.927718357290775]]},"id":4537,"type":"Feature","properties":{"nome":"Av.Min.Luiz Gallotti","evento":"2023-11"}},{"geometry":{"type":"LineString","coordinates":[[-48.69599588898624,-26.927718357290775],[-48.695616310339965,-26.928074311828762]]},"id":4538,"type":"Feature","properties":{"nome":"Av.Min.Luiz Gallotti","evento":"2023-11"}},{"geometry":{"type":"LineString","coordinates":[[-48.695616310339965,-26.928074311828762],[-48.695246767231474,-26.928437531338894]]},"id":4539,"type":"Feature","properties":{"nome":"Av.Min.Luiz Gallotti","evento":"2023-11"}},{"geometry":{"type":"LineString","coordinates":[[-48.695246767231474,-26.928437531338894],[-48.694868253171634,-26.92879654491031]]},"id":4540,"type":"Feature","properties":{"nome":"Av.Min.Luiz Gallotti","evento":"2023-11"}},{"geometry":{"type":"LineString","coordinates":[[-48.694753895062725,-26.928910322272746],[-48.69448575834205,-26.929162511411434]]},"id":4542,"type":"Feature","properties":{"nome":"Av.Min.Luiz Gallotti","evento":"2023-11"}},{"geometry":{"type":"LineString","coordinates":[[-48.69448575834205,-26.929162511411434],[-48.69411559341024,-26.92952159327815]]},"id":4543,"type":"Feature","properties":{"nome":"Av.Min.Luiz Gallotti","evento":"2023-11"}},{"geometry":{"type":"LineString","coordinates":[[-48.69411559341024,-26.92952159327815],[-48.693730502314125,-26.92987572562437]]},"id":4544,"type":"Feature","properties":{"nome":"Av.Min.Luiz Gallotti","evento":"2023-11"}},{"geometry":{"type":"LineString","coordinates":[[-48.693730502314125,-26.92987572562437],[-48.69347565665438,-26.93012777433557]]},"id":4545,"type":"Feature","properties":{"nome":"Av.Min.Luiz Gallotti","evento":"2023-11"}},{"geometry":{"type":"LineString","coordinates":[[-48.69347565665438,-26.93012777433557],[-48.69336154878766,-26.930242178995503]]},"id":4546,"type":"Feature","properties":{"nome":"Av.Min.Luiz Gallotti","evento":"2023-11"}},{"geometry":{"type":"LineString","coordinates":[[-48.69336154878766,-26.930242178995503],[-48.693102006789935,-26.930482056629163]]},"id":4547,"type":"Feature","properties":{"nome":"Av.Min.Luiz Gallotti","evento":"2023-11"}},{"geometry":{"type":"LineString","coordinates":[[-48.693102006789935,-26.930482056629163],[-48.69296573233777,-26.930609367801242]]},"id":4548,"type":"Feature","properties":{"nome":"Av.Min.Luiz Gallotti","evento":"2023-11"}},{"geometry":{"type":"LineString","coordinates":[[-48.69296573233777,-26.930609367801242],[-48.69259257821237,-26.930984438825067]]},"id":4549,"type":"Feature","properties":{"nome":"Av.Min.Luiz Gallotti","evento":"2023-11"}},{"geometry":{"type":"LineString","coordinates":[[-48.69248054009836,-26.931086159438305],[-48.69218460203215,-26.931364299466285]]},"id":4551,"type":"Feature","properties":{"nome":"Av.Min.Luiz Gallotti","evento":"2023-11"}},{"geometry":{"type":"LineString","coordinates":[[-48.69218460203215,-26.931364299466285],[-48.69188951988211,-26.931660651270462]]},"id":4552,"type":"Feature","properties":{"nome":"Av.Min.Luiz Gallotti","evento":"2023-11"}},{"geometry":{"type":"LineString","coordinates":[[-48.69175215208577,-26.930400250705553],[-48.6910928893064,-26.929507782223503]]},"id":4559,"type":"Feature","properties":{"nome":"R. Marcelino Ponciano","evento":"2023-11"}},{"geometry":{"type":"LineString","coordinates":[[-48.696123688093756,-26.921026162790604],[-48.69600802535639,-26.91950101340496]]},"id":4585,"type":"Feature","properties":{"nome":"R. Conegunda Tomazina Bosco","evento":"2023-11"}},{"geometry":{"type":"LineString","coordinates":[[-48.69584923639361,-26.917463248060734],[-48.69580562363665,-26.91694275601277]]},"id":4589,"type":"Feature","properties":{"nome":"R. Lino do Amaral","evento":"2023-11"}},{"geometry":{"type":"LineString","coordinates":[[-48.69580562363665,-26.91694275601277],[-48.69577812778174,-26.916438280947503]]},"id":4590,"type":"Feature","properties":{"nome":"R. Lino do Amaral","evento":"2023-11"}},{"geometry":{"type":"LineString","coordinates":[[-48.69577812778174,-26.916438280947503],[-48.69575617809621,-26.91595910688802]]},"id":4591,"type":"Feature","properties":{"nome":"R. Lino do Amaral","evento":"2023-11"}},{"geometry":{"type":"LineString","coordinates":[[-48.69575617809621,-26.91595910688802],[-48.69573949677889,-26.915443498130262]]},"id":4592,"type":"Feature","properties":{"nome":"R. Lino do Amaral","evento":"2023-11"}},{"geometry":{"type":"LineString","coordinates":[[-48.69351369899238,-26.917052557115667],[-48.69580562363665,-26.91694275601277]]},"id":4593,"type":"Feature","properties":{"nome":"R. Camélias, das","evento":"2023-11"}},{"geometry":{"type":"LineString","coordinates":[[-48.69355299575185,-26.917568535231865],[-48.69584923639361,-26.917463248060734]]},"id":4594,"type":"Feature","properties":{"nome":"R. dos Crisântemos","evento":"2023-11"}},{"geometry":{"type":"LineString","coordinates":[[-48.690140707205366,-26.918776348424693],[-48.69088121263858,-26.918737346657473]]},"id":4595,"type":"Feature","properties":{"nome":"R. Das Acácias","evento":"2023-11"}},{"geometry":{"type":"LineString","coordinates":[[-48.69088121263858,-26.918737346657473],[-48.69251463052358,-26.918657298088817]]},"id":4596,"type":"Feature","properties":{"nome":"R. Das Acácias","evento":"2023-11"}},{"geometry":{"type":"LineString","coordinates":[[-48.69091379225687,-26.91900019762582],[-48.69088121263858,-26.918737346657473]]},"id":4597,"type":"Feature","properties":{"nome":"R. Das Orquídeas","evento":"2023-11"}},{"geometry":{"type":"LineString","coordinates":[[-48.69088121263858,-26.918737346657473],[-48.690857744749,-26.918220359541124]]},"id":4598,"type":"Feature","properties":{"nome":"R. Das Orquídeas","evento":"2023-11"}},{"geometry":{"type":"LineString","coordinates":[[-48.690857744749,-26.918220359541124],[-48.69081377053649,-26.91771242032965]]},"id":4599,"type":"Feature","properties":{"nome":"R. Das Orquídeas","evento":"2023-11"}},{"geometry":{"type":"LineString","coordinates":[[-48.69511690207463,-26.937992524568003],[-48.689287909353595,-26.939624332879163]]},"id":5575,"type":"Feature","properties":{"nome":"R. Álvaro Beraldi","evento":"2023-11"}},{"geometry":{"type":"LineString","coordinates":[[-48.69511690207463,-26.937992524568003],[-48.69509998050193,-26.938350640601826],[-48.69490257826398,-26.938818075008246],[-48.69434069427006,-26.93967680545137],[-48.69422403543921,-26.939964202935556],[-48.69293300612415,-26.941376659147114],[-48.69273481692566,-26.941645449582936],[-48.69189672346986,-26.942344202392263],[-48.69179564725003,-26.942575718412563],[-48.691654963288386,-26.943095891260416],[-48.6915790239916,-26.943276003591592]]},"id":5576,"type":"Feature","properties":{"nome":"R. João Dalmolin","evento":"2023-11"}},{"geometry":{"type":"LineString","coordinates":[[-48.68756569057888,-26.93218213940735],[-48.68717598873368,-26.932629137092636]]},"id":5597,"type":"Feature","properties":{"nome":"R. Francisco Rodrigues Pereira","evento":"2023-11"}},{"geometry":{"type":"LineString","coordinates":[[-48.68717598873368,-26.932629137092636],[-48.68649973610076,-26.93342550900987]]},"id":5598,"type":"Feature","properties":{"nome":"R. Francisco Rodrigues Pereira","evento":"2023-11"}},{"geometry":{"type":"LineString","coordinates":[[-48.68669663652144,-26.93227583829768],[-48.68598176745832,-26.933075891594623]]},"id":5599,"type":"Feature","properties":{"nome":"Trav. Arvoredo","evento":"2023-11"}},{"geometry":{"type":"LineString","coordinates":[[-48.68604086401566,-26.931833284936396],[-48.68669663652144,-26.93227583829768]]},"id":5600,"type":"Feature","properties":{"nome":"R. Olga Gern Pereira","evento":"2023-11"}},{"geometry":{"type":"LineString","coordinates":[[-48.68669663652144,-26.93227583829768],[-48.68717598873368,-26.932629137092636]]},"id":5601,"type":"Feature","properties":{"nome":"R. Olga Gern Pereira","evento":"2023-11"}},{"geometry":{"type":"LineString","coordinates":[[-48.68717598873368,-26.932629137092636],[-48.68765569731242,-26.932965168585728]]},"id":5602,"type":"Feature","properties":{"nome":"R. Olga Gern Pereira","evento":"2023-11"}},{"geometry":{"type":"LineString","coordinates":[[-48.68765569731242,-26.932965168585728],[-48.688183302285495,-26.933314937104747]]},"id":5603,"type":"Feature","properties":{"nome":"R. Olga Gern Pereira","evento":"2023-11"}},{"geometry":{"type":"LineString","coordinates":[[-48.686068884302586,-26.93116877555914],[-48.68756569057888,-26.93218213940735]]},"id":5605,"type":"Feature","properties":{"nome":"R. Otávio Müller","evento":"2023-11"}},{"geometry":{"type":"LineString","coordinates":[[-48.68756569057888,-26.93218213940735],[-48.688069565893635,-26.932514246624965]]},"id":5606,"type":"Feature","properties":{"nome":"R. Otávio Müller","evento":"2023-11"}},{"geometry":{"type":"LineString","coordinates":[[-48.688069565893635,-26.932514246624965],[-48.688573267103045,-26.93285498648902]]},"id":5607,"type":"Feature","properties":{"nome":"R. Otávio Müller","evento":"2023-11"}},{"geometry":{"type":"LineString","coordinates":[[-48.686068884302586,-26.93116877555914],[-48.68604086401566,-26.931833284936396]]},"id":5614,"type":"Feature","properties":{"nome":"R.Sol.Abelardo Mendonça Sobrinho","evento":"2023-11"}},{"geometry":{"type":"LineString","coordinates":[[-48.68604086401566,-26.931833284936396],[-48.68598176745832,-26.933075891594623]]},"id":5615,"type":"Feature","properties":{"nome":"R.Sol.Abelardo Mendonça Sobrinho","evento":"2023-11"}},{"geometry":{"type":"LineString","coordinates":[[-48.70964492302271,-26.943433312644455],[-48.70926689549317,-26.94345901478642]]},"id":5988,"type":"Feature","properties":{"nome":"R. Arlindo Mafra","evento":"2023-11"}},{"geometry":{"type":"LineString","coordinates":[[-48.70964492302271,-26.943433312644455],[-48.70960711964832,-26.942447552247078]]},"id":6008,"type":"Feature","properties":{"nome":"R. Doutel de Andrade","evento":"2023-11"}},{"geometry":{"type":"LineString","coordinates":[[-48.69589774506974,-26.934718239559583],[-48.69752612268799,-26.933696002061875]]},"id":6053,"type":"Feature","properties":{"nome":"R. Erna Hoier Corrêa","evento":"2023-11"}},{"geometry":{"type":"LineString","coordinates":[[-48.69752612268799,-26.933696002061875],[-48.697674794275095,-26.93391934053494],[-48.6976943977218,-26.93426595290743]]},"id":6054,"type":"Feature","properties":{"nome":"R. Sem denominação oficial","evento":"2023-11"}},{"geometry":{"type":"LineString","coordinates":[[-48.70253299593055,-26.93381545895282],[-48.70294784003888,-26.933943617684918],[-48.70334533307049,-26.934161050599965],[-48.70542488851238,-26.935526335397267],[-48.70647327996886,-26.936168308812704],[-48.706950089969354,-26.93630741426009],[-48.707650085029044,-26.936390439545644],[-48.70899502033094,-26.936424234596895],[-48.70979293001852,-26.936496898710075],[-48.71006665264834,-26.936576970307733],[-48.71035176531362,-26.936752756762974]]},"id":6067,"type":"Feature","properties":{"nome":"Av. Itaipava","evento":"2023-11"}},{"geometry":{"type":"LineString","coordinates":[[-48.71035176531362,-26.936752756762974],[-48.7108803737873,-26.93454823755405]]},"id":6068,"type":"Feature","properties":{"nome":"R. Francisco Pigoretti","evento":"2023-11"}},{"geometry":{"type":"LineString","coordinates":[[-48.71035176531362,-26.936752756762974],[-48.71151524453095,-26.937635385355364],[-48.713816262653665,-26.939368353731826],[-48.71469263658004,-26.93995573489515],[-48.7155635099422,-26.940375845540895],[-48.71727056150575,-26.941175685003085]]},"id":6069,"type":"Feature","properties":{"nome":"Av. Itaipava","evento":"2023-11"}},{"geometry":{"type":"LineString","coordinates":[[-48.71641241401623,-26.94254697159241],[-48.7167157353157,-26.94226131409362],[-48.71712456825213,-26.9420291090503],[-48.71723029142379,-26.941851702044648],[-48.717209316758044,-26.941349831411053],[-48.71727056150575,-26.941175685003085]]},"id":6073,"type":"Feature","properties":{"nome":"R. Pedro Wanzuita","evento":"2023-11"}},{"geometry":{"type":"LineString","coordinates":[[-48.71727056150575,-26.941175685003085],[-48.71945997145841,-26.942062915141133]]},"id":6074,"type":"Feature","properties":{"nome":"Av. Itaipava","evento":"2023-11"}},{"geometry":{"type":"LineString","coordinates":[[-48.71945997145841,-26.942062915141133],[-48.71966736060412,-26.942129955100214],[-48.72032872808162,-26.942148609375487],[-48.721207690135216,-26.941947873433072]]},"id":6075,"type":"Feature","properties":{"nome":"Av. Itaipava","evento":"2023-11"}},{"geometry":{"type":"LineString","coordinates":[[-48.727226201476036,-26.938816878500635],[-48.7271498118314,-26.937975779039412],[-48.7270015909906,-26.937173325159716],[-48.726702218357765,-26.936157473808734]]},"id":6081,"type":"Feature","properties":{"nome":"R. Ari Zermiani","evento":"2023-11"}},{"geometry":{"type":"LineString","coordinates":[[-48.726702218357765,-26.936157473808734],[-48.72638336712388,-26.936112530072005],[-48.72558804488246,-26.93613154993585],[-48.724544542035424,-26.935903756914698],[-48.72412474602779,-26.936020376790736],[-48.7238262929838,-26.935844402919024],[-48.722694324961964,-26.935157420968174],[-48.72155820946422,-26.934677344478803]]},"id":6082,"type":"Feature","properties":{"nome":"r. Geral Tatu","evento":"2023-11"}},{"geometry":{"type":"LineString","coordinates":[[-48.726702218357765,-26.936157473808734],[-48.72670664025418,-26.935715718396494],[-48.726970600668615,-26.935397558382583],[-48.727338234330944,-26.93522436323144],[-48.727653122593416,-26.935245358525286],[-48.72784758478403,-26.935292276215797],[-48.72897001951326,-26.9357919848138],[-48.72965581429475,-26.936141361954213],[-48.73002238713094,-26.936242791602666],[-48.73035955630333,-26.93626015979716],[-48.73151516909501,-26.935769255338556],[-48.73392742251179,-26.93506369176462],[-48.736024601811984,-26.934345067097745],[-48.736433993034815,-26.93430387276931],[-48.73723215599298,-26.93436444433201],[-48.738013532463185,-26.934561158389766],[-48.73870867453256,-26.934437921621925],[-48.73900774739353,-26.93421029979378],[-48.739124946694986,-26.933653236545833],[-48.739357686714534,-26.93331076777187],[-48.7397372174914,-26.933096778252068],[-48.74029615923103,-26.93244642805631]]},"id":6083,"type":"Feature","properties":{"nome":"R. Ari Zermiani","evento":"2023-11"}},{"geometry":{"type":"LineString","coordinates":[[-48.7900643689311,-26.973460135173323],[-48.79028381251973,-26.973171195895166],[-48.790603545710056,-26.97249554300121],[-48.79108504783943,-26.97218067040716],[-48.79156499275035,-26.9719453817369],[-48.79166985826588,-26.971807706972793],[-48.79223274088236,-26.970964698111285],[-48.79270915230649,-26.970454694127028],[-48.79300106975454,-26.970065196055938],[-48.79346065842169,-26.969734049070258],[-48.79458776422281,-26.968887920102418],[-48.79527265366102,-26.968393111072302],[-48.79567736506819,-26.96791381856559],[-48.795987903649355,-26.967707708156528],[-48.79710249825309,-26.967502224846754],[-48.798120857846484,-26.96721960037045],[-48.79899911376999,-26.96683128612973],[-48.799807515298156,-26.966151296775482],[-48.801244415072276,-26.96650410498899],[-48.80337137896169,-26.967237843814246],[-48.804867350923175,-26.96752386771309],[-48.80568211839066,-26.96811771382834],[-48.80602775025053,-26.968162900172803],[-48.80836267635363,-26.9682549565448]]},"id":6185,"type":"Feature","properties":{"nome":"R. Vergílio Cadore","evento":"2023-11"}},{"geometry":{"type":"LineString","coordinates":[[-48.69679163666607,-26.877798750745693],[-48.6980811707097,-26.877694139435285]]},"id":6498,"type":"Feature","properties":{"nome":"Serv. José Felismino de Oliveira","evento":"2023-11"}},{"geometry":{"type":"LineString","coordinates":[[-48.687167619398274,-26.926560406915467],[-48.68771409416588,-26.925995553419142],[-48.688013360637235,-26.925346241535685],[-48.68816028934924,-26.92515415253143]]},"id":6535,"type":"Feature","properties":{"nome":"R. Paulo Hoier","evento":"2023-11"}},{"geometry":{"type":"LineString","coordinates":[[-48.68851015926213,-26.92565054797006],[-48.68886935053543,-26.926173617860066]]},"id":6537,"type":"Feature","properties":{"nome":"R. Damásio Francisco Nunes","evento":"2023-11"}},{"geometry":{"type":"LineString","coordinates":[[-48.68851015926213,-26.92565054797006],[-48.68986515288552,-26.924496918809936]]},"id":6538,"type":"Feature","properties":{"nome":"Serv. Alfredo Hoier","evento":"2023-11"}},{"geometry":{"type":"LineString","coordinates":[[-48.69106527196133,-26.92049764373343],[-48.691010548003895,-26.920053773921946]]},"id":6548,"type":"Feature","properties":{"nome":"R. Das Orquídeas","evento":"2023-11"}},{"geometry":{"type":"LineString","coordinates":[[-48.86125776816408,-27.03409546559548],[-48.860331814125296,-27.034088460309825]]},"id":6613,"type":"Feature","properties":{"nome":"R. Pedro Veshoscki","evento":"2023-11"}},{"geometry":{"type":"LineString","coordinates":[[-48.8612795922173,-27.03377751123874],[-48.86044397595483,-27.03379663595222]]},"id":6615,"type":"Feature","properties":{"nome":"R. Juventino Aparecido Flora","evento":"2023-11"}},{"geometry":{"type":"LineString","coordinates":[[-48.693906658842096,-26.922341729947664],[-48.693708560961745,-26.921892660124264]]},"id":6626,"type":"Feature","properties":{"nome":"R. João Laurentino das Neves","evento":"2023-11"}},{"geometry":{"type":"LineString","coordinates":[[-48.6824012443143,-26.91432915536312],[-48.68089920790051,-26.914434389492715]]},"id":6736,"type":"Feature","properties":{"nome":null,"evento":"2023-11"}},{"geometry":{"type":"LineString","coordinates":[[-48.70407349359897,-26.878018754140626],[-48.70412177361512,-26.87899008544811]]},"id":6739,"type":"Feature","properties":{"nome":null,"evento":"2023-11"}},{"geometry":{"type":"LineString","coordinates":[[-48.68509954732323,-26.909896082291024],[-48.68556625165308,-26.909886515364878]]},"id":6740,"type":"Feature","properties":{"nome":null,"evento":"2023-11"}},{"geometry":{"type":"LineString","coordinates":[[-48.71684617272882,-26.911005861509615],[-48.728433315437954,-26.917970434903342]]},"id":6744,"type":"Feature","properties":{"nome":null,"evento":"2023-11"}},{"geometry":{"type":"LineString","coordinates":[[-48.719457303540615,-26.942064494588063],[-48.719274913251525,-26.94269574175048]]},"id":6745,"type":"Feature","properties":{"nome":null,"evento":"2023-11"}},{"geometry":{"type":"LineString","coordinates":[[-48.730356460221074,-26.91182862161913],[-48.729820017670924,-26.90662408299013]]},"id":6746,"type":"Feature","properties":{"nome":null,"evento":"2023-11"}},{"geometry":{"type":"LineString","coordinates":[[-48.69511491580181,-26.937988798444835],[-48.69508541115954,-26.937823806166467],[-48.694956665430794,-26.93757512280008],[-48.6948735166196,-26.937443607582118]]},"id":6747,"type":"Feature","properties":{"nome":null,"evento":"2023-11"}},{"geometry":{"type":"LineString","coordinates":[[-48.694143955939126,-26.935533026951493],[-48.69436926126197,-26.935533027387464],[-48.69464821085662,-26.935494767538597],[-48.69501835611166,-26.935317816109546],[-48.695474331551516,-26.93501173705873],[-48.69557625526232,-26.93492086944362],[-48.69610733311871,-26.934590876977335]]},"id":6748,"type":"Feature","properties":{"nome":null,"evento":"2023-11"}},{"geometry":{"type":"LineString","coordinates":[[-48.685660129127236,-26.926673156251],[-48.687172894203584,-26.92655836726301]]},"id":6749,"type":"Feature","properties":{"nome":null,"evento":"2023-11"}},{"geometry":{"type":"LineString","coordinates":[[-48.68765837414399,-26.932962421247865],[-48.68732578012214,-26.933361765785936]]},"id":6750,"type":"Feature","properties":{"nome":null,"evento":"2023-11"}},{"geometry":{"type":"LineString","coordinates":[[-48.698387210580876,-26.92616378148283],[-48.699181144068795,-26.92542721773177]]},"id":6752,"type":"Feature","properties":{"nome":null,"evento":"2023-11"}},{"geometry":{"type":"LineString","coordinates":[[-48.698923652660966,-26.92661337080499],[-48.69969612872476,-26.92586724391338]]},"id":6753,"type":"Feature","properties":{"nome":null,"evento":"2023-11"}},{"geometry":{"type":"LineString","coordinates":[[-48.693454031713216,-26.916049694252422],[-48.6932099504731,-26.916064044607865]]},"id":6754,"type":"Feature","properties":{"nome":null,"evento":"2023-11"}},{"geometry":{"type":"LineString","coordinates":[[-48.69205868717015,-26.91612888468996],[-48.69096166307531,-26.916188675646247]]},"id":6755,"type":"Feature","properties":{"nome":null,"evento":"2023-11"}},{"geometry":{"type":"LineString","coordinates":[[-48.69580632967472,-26.930235789545474],[-48.69547373584645,-26.929967958055588]]},"id":6756,"type":"Feature","properties":{"nome":null,"evento":"2023-11"}},{"geometry":{"type":"LineString","coordinates":[[-48.69540399790522,-26.930604055930818],[-48.69507676915539,-26.93032187762061]]},"id":6757,"type":"Feature","properties":{"nome":null,"evento":"2023-11"}},{"geometry":{"type":"LineString","coordinates":[[-48.69504994668931,-26.930937249010714],[-48.6949158367879,-26.93084159600463]]},"id":6758,"type":"Feature","properties":{"nome":null,"evento":"2023-11"}},{"geometry":{"type":"LineString","coordinates":[[-48.69428223933384,-26.92463883699702],[-48.69407839157139,-26.924705797786864]]},"id":6759,"type":"Feature","properties":{"nome":null,"evento":"2023-11"}},{"geometry":{"type":"LineString","coordinates":[[-48.69424766844094,-26.924160011219126],[-48.69403845590733,-26.92423175566058]]},"id":6760,"type":"Feature","properties":{"nome":null,"evento":"2023-11"}},{"geometry":{"type":"LineString","coordinates":[[-48.69143790553686,-26.91998229197324],[-48.69018799615093,-26.920178399508906]]},"id":6761,"type":"Feature","properties":{"nome":null,"evento":"2023-11"}},{"geometry":{"type":"LineString","coordinates":[[-48.69403666828622,-26.922296505009648],[-48.694278066677974,-26.92220801827896]]},"id":6762,"type":"Feature","properties":{"nome":null,"evento":"2023-11"}},{"geometry":{"type":"LineString","coordinates":[[-48.692269092039,-26.924388263258322],[-48.692510491796625,-26.924302170427165]]},"id":6763,"type":"Feature","properties":{"nome":null,"evento":"2023-11"}},{"geometry":{"type":"LineString","coordinates":[[-48.69342288686934,-26.915551165244473],[-48.69340679348888,-26.91531199949584]]},"id":6764,"type":"Feature","properties":{"nome":null,"evento":"2023-11"}},{"geometry":{"type":"LineString","coordinates":[[-48.6820389973755,-26.91808523137557],[-48.67983958569349,-26.91824786026373]]},"id":6765,"type":"Feature","properties":{"nome":null,"evento":"2023-11"}},{"geometry":{"type":"LineString","coordinates":[[-48.70943359143393,-26.94236856067888],[-48.70943627323539,-26.942445075096188],[-48.70960793497932,-26.942447466221246]]},"id":6767,"type":"Feature","properties":{"nome":null,"evento":"2023-11"}},{"geometry":{"type":"LineString","coordinates":[[-48.70977959604811,-26.94239008047594],[-48.70977959571779,-26.942454639144643],[-48.70960525254895,-26.942447465970805]]},"id":6768,"type":"Feature","properties":{"nome":null,"evento":"2023-11"}},{"geometry":{"type":"LineString","coordinates":[[-48.70964816788514,-26.943430198689708],[-48.709849333164954,-26.943430199025485]]},"id":6769,"type":"Feature","properties":{"nome":null,"evento":"2023-11"}},{"geometry":{"type":"LineString","coordinates":[[-48.70964369707696,-26.94343577804902],[-48.709649062109655,-26.943703577246076]]},"id":6770,"type":"Feature","properties":{"nome":null,"evento":"2023-11"}},{"geometry":{"type":"LineString","coordinates":[[-48.692940239691964,-26.92652408755624],[-48.693482046087254,-26.927298906235944]]},"id":6771,"type":"Feature","properties":{"nome":null,"evento":"2023-11"}},{"geometry":{"type":"LineString","coordinates":[[-48.69362688561648,-26.926664383843942],[-48.69385487351336,-26.9270135313418]]},"id":6772,"type":"Feature","properties":{"nome":null,"evento":"2023-11"}},{"geometry":{"type":"LineString","coordinates":[[-48.69753695101687,-26.93368060188748],[-48.69822359636184,-26.93324538939269],[-48.69848108829008,-26.93320234680368]]},"id":6773,"type":"Feature","properties":{"nome":null,"evento":"2023-11"}},{"geometry":{"type":"LineString","coordinates":[[-48.67949507136458,-26.917160873400963],[-48.67986253353578,-26.917141739834747]]},"id":6775,"type":"Feature","properties":{"nome":null,"evento":"2023-11"}},{"geometry":{"type":"LineString","coordinates":[[-48.67974563378625,-26.916605217944074],[-48.679834147070935,-26.916600733542197]]},"id":6777,"type":"Feature","properties":{"nome":null,"evento":"2023-11"}},{"geometry":{"type":"LineString","coordinates":[[-48.6798348173711,-26.91660133114328],[-48.67983615865744,-26.916638999886125]]},"id":6778,"type":"Feature","properties":{"nome":null,"evento":"2023-11"}},{"geometry":{"type":"LineString","coordinates":[[-48.688802336666576,-26.932578320158626],[-48.68848717716432,-26.932954949484483]]},"id":6779,"type":"Feature","properties":{"nome":null,"evento":"2023-11"}},{"geometry":{"type":"LineString","coordinates":[[-48.68857345515701,-26.932853319169112],[-48.688993220486026,-26.933157012624463]]},"id":6780,"type":"Feature","properties":{"nome":null,"evento":"2023-11"}},{"geometry":{"type":"LineString","coordinates":[[-48.6878957497509,-26.93177623693466],[-48.68756852011027,-26.932177976853396]]},"id":6781,"type":"Feature","properties":{"nome":null,"evento":"2023-11"}},{"geometry":{"type":"LineString","coordinates":[[-48.686070058860025,-26.931169041190525],[-48.6861102924178,-26.930583164189315]]},"id":6782,"type":"Feature","properties":{"nome":null,"evento":"2023-11"}},{"geometry":{"type":"LineString","coordinates":[[-48.692264845649305,-26.924392215045565],[-48.69230574885237,-26.924486678616205]]},"id":6783,"type":"Feature","properties":{"nome":null,"evento":"2023-11"}},{"geometry":{"type":"LineString","coordinates":[[-48.85830590248524,-27.035681906326772],[-48.858422579082124,-27.03580613927472],[-48.85849768046852,-27.03588497981477],[-48.85855668912395,-27.035937539666335],[-48.858603627689014,-27.035979349523316],[-48.85864922531047,-27.03598890589542]]},"id":6785,"type":"Feature","properties":{"nome":null,"evento":"2023-11"}},{"geometry":{"type":"LineString","coordinates":[[-48.861292071728435,-27.033600991937853],[-48.86124379163029,-27.03443958038044],[-48.861050672879216,-27.03523038152439]]},"id":6787,"type":"Feature","properties":{"nome":null,"evento":"2023-11"}},{"geometry":{"type":"LineString","coordinates":[[-48.86101205954185,-27.036109203072677],[-48.86102144722233,-27.036474136722052]]},"id":6789,"type":"Feature","properties":{"nome":null,"evento":"2023-11"}},{"geometry":{"type":"LineString","coordinates":[[-48.858589577588305,-27.035960879361873],[-48.85851715791971,-27.035903540715182],[-48.858305262927075,-27.03568135419945],[-48.85820870352134,-27.035559509431245],[-48.857959257821676,-27.03532776569719],[-48.857685672592744,-27.035201142436346],[-48.8569212430759,-27.03497178703767]]},"id":6790,"type":"Feature","properties":{"nome":null,"evento":"2023-11"}},{"geometry":{"type":"LineString","coordinates":[[-48.68365063534842,-26.911647792142343],[-48.68318963016357,-26.91160533858857]]},"id":6794,"type":"Feature","properties":{"nome":null,"evento":"2023-11"}},{"geometry":{"type":"LineString","coordinates":[[-48.68321888498594,-26.911061069231316],[-48.6837432575162,-26.91110292469243]]},"id":6797,"type":"Feature","properties":{"nome":null,"evento":"2023-11"}},{"geometry":{"type":"LineString","coordinates":[[-48.68332006383578,-26.910549764145053],[-48.68382968411074,-26.910604775431562]]},"id":6798,"type":"Feature","properties":{"nome":null,"evento":"2023-11"}},{"geometry":{"type":"LineString","coordinates":[[-48.683445488650015,-26.905022012203254],[-48.68616524808635,-26.90515595707519]]},"id":6799,"type":"Feature","properties":{"nome":null,"evento":"2023-11"}},{"geometry":{"type":"LineString","coordinates":[[-48.68446204590418,-26.90463452654878],[-48.68622157449832,-26.904713458596948]]},"id":6800,"type":"Feature","properties":{"nome":null,"evento":"2023-11"}},{"geometry":{"type":"LineString","coordinates":[[-48.6854687543016,-26.91593783373528],[-48.68542852070133,-26.915708235687262],[-48.685431202794526,-26.915526469286302]]},"id":6801,"type":"Feature","properties":{"nome":null,"evento":"2023-11"}},{"geometry":{"type":"LineString","coordinates":[[-48.72742873913081,-26.94027000266212],[-48.72734290804375,-26.939303979946608],[-48.72732145061729,-26.939208334088708]]},"id":6802,"type":"Feature","properties":{"nome":null,"evento":"2023-11"}},{"geometry":{"type":"LineString","coordinates":[[-48.68150727028319,-26.917593114719107],[-48.68353502080558,-26.917459184688223]]},"id":6804,"type":"Feature","properties":{"nome":null,"evento":"2023-11"}},{"geometry":{"type":"LineString","coordinates":[[-48.68071601889709,-26.917643338523675],[-48.67990599172249,-26.917695954618498]]},"id":6806,"type":"Feature","properties":{"nome":null,"evento":"2023-11"}},{"geometry":{"type":"LineString","coordinates":[[-48.68354405595223,-26.893213877423854],[-48.683495106135275,-26.893195337887892]]},"id":6807,"type":"Feature","properties":{"nome":null,"evento":"2023-11"}},{"geometry":{"type":"LineString","coordinates":[[-48.69962494130218,-26.879841095553196],[-48.699685187475474,-26.881164617785583]]},"id":6819,"type":"Feature","properties":{"nome":null,"evento":"2023-11"}},{"geometry":{"type":"LineString","coordinates":[[-48.705406768555044,-26.876114930052008],[-48.705476506130196,-26.87720111682813]]},"id":6821,"type":"Feature","properties":{"nome":null,"evento":"2023-11"}},{"geometry":{"type":"LineString","coordinates":[[-48.67364704032657,-26.918967448041073],[-48.67365240474738,-26.919045622660377]]},"id":6830,"type":"Feature","properties":{"nome":null,"evento":"2023-11"}}]}