{"type":"FeatureCollection","_meta":{"origem":"public.asthon.com.br/public/panel?city_id=4214805 (campo rivers)","extraido_em":"2026-09-03T15:03:37.979Z","total":10},"features":[{"type":"Feature","properties":{"river_id":223,"nome":"Ribeirão do Tigre","classe":null,"fonte":"Defesa Civil de Rio do Sul / API Asthon"},"geometry":{"type":"LineString","coordinates":[[-49.6761596,-27.2893721],[-49.676326,-27.289152],[-49.6764455,-27.289],[-49.6765155,-27.2889003],[-49.6765497,-27.2888047],[-49.6765619,-27.2887467],[-49.6765761,-27.288643],[-49.6765785,-27.2885213],[-49.6765358,-27.2882566],[-49.6764046,-27.2875771],[-49.6763824,-27.2872422],[-49.6763675,-27.2870928],[-49.6763439,-27.2870117],[-49.6763261,-27.2869507],[-49.6762862,-27.2868812],[-49.6762117,-27.2867955],[-49.6761188,-27.2867196],[-49.6759785,-27.2866241],[-49.6757105,-27.2864511],[-49.675398,-27.2862463],[-49.6750446,-27.2859802],[-49.6749118,-27.2858218],[-49.6748046,-27.2856814],[-49.6747556,-27.2856063],[-49.674678,-27.2854609],[-49.6746338,-27.2853641],[-49.6746203,-27.285299],[-49.6746195,-27.2852729],[-49.6746054,-27.2852098],[-49.6745826,-27.2851812],[-49.6745639,-27.285172],[-49.6745092,-27.2851476],[-49.6744715,-27.2851366],[-49.6744276,-27.2851159],[-49.6743867,-27.2850893],[-49.6743382,-27.2850449],[-49.6743068,-27.2850057],[-49.6742914,-27.2849572],[-49.6742792,-27.2847279],[-49.6742879,-27.2846547],[-49.6742901,-27.2846358],[-49.6742989,-27.2845656],[-49.6743345,-27.2844608],[-49.6743679,-27.2843966],[-49.674446,-27.2843113],[-49.6745229,-27.2842514],[-49.6746151,-27.2841907],[-49.6746655,-27.28414],[-49.6746894,-27.2840919],[-49.6746919,-27.2840798],[-49.674701,-27.2840352],[-49.6747013,-27.2839735],[-49.6746893,-27.2839059],[-49.6746745,-27.2838348],[-49.6746305,-27.2837257],[-49.6745517,-27.2835649],[-49.6745022,-27.2834042],[-49.6744285,-27.2831513],[-49.6744111,-27.2830904],[-49.6744023,-27.2830533],[-49.6743954,-27.2829839],[-49.6744009,-27.282932],[-49.6744099,-27.2829101],[-49.6744313,-27.282858],[-49.6745482,-27.2826343],[-49.6745772,-27.2825606],[-49.6745922,-27.2825108],[-49.6745996,-27.2824758],[-49.6746147,-27.2824068],[-49.6746282,-27.2823693],[-49.6746696,-27.2822991],[-49.6746955,-27.2822634],[-49.6747411,-27.2822115],[-49.6747789,-27.282183],[-49.6748374,-27.2821427],[-49.6748857,-27.2821232],[-49.6749508,-27.2820828],[-49.675014,-27.2820382],[-49.6750671,-27.2819966],[-49.6751415,-27.2819269],[-49.6751789,-27.2818822],[-49.6751852,-27.2818744],[-49.6752504,-27.2817937],[-49.6753246,-27.2816633],[-49.6753484,-27.2816034],[-49.6753944,-27.2815038],[-49.6754147,-27.2814667],[-49.6754547,-27.281421],[-49.6754888,-27.2813928],[-49.6755208,-27.2813718],[-49.6755609,-27.2813455],[-49.6756964,-27.2812586],[-49.6757359,-27.2812249],[-49.6757581,-27.2811941],[-49.6757594,-27.2811923],[-49.6757914,-27.281148],[-49.6758074,-27.2810936],[-49.675811,-27.281056],[-49.6758572,-27.280924],[-49.6758751,-27.2808728],[-49.6758922,-27.2808064],[-49.6759069,-27.2807486],[-49.6759144,-27.2806723],[-49.6759354,-27.2806089],[-49.6759664,-27.2805485],[-49.675992,-27.280498],[-49.6760505,-27.2804193],[-49.6760924,-27.2803671],[-49.676134,-27.2803094],[-49.6762097,-27.2802363],[-49.676306,-27.2801607],[-49.6765363,-27.2799829],[-49.6767276,-27.2798085],[-49.6768946,-27.2796488],[-49.6770166,-27.2795234],[-49.6770561,-27.2794724],[-49.6770849,-27.2794056],[-49.6770935,-27.279345],[-49.6771879,-27.2788509],[-49.6772288,-27.278636],[-49.6773392,-27.2781177],[-49.6773554,-27.2780904],[-49.6774106,-27.2780564],[-49.6774466,-27.2780419],[-49.6774727,-27.2780314],[-49.6775349,-27.2780128],[-49.6776213,-27.278007],[-49.6776773,-27.278004],[-49.6777575,-27.2779996],[-49.6779789,-27.2779846],[-49.6781264,-27.2779746],[-49.6783304,-27.2779689],[-49.6784105,-27.2779666],[-49.6785462,-27.2779735],[-49.6786393,-27.2779802],[-49.6787144,-27.2779909],[-49.6787936,-27.2780111],[-49.6788398,-27.2780294],[-49.6789074,-27.2780653],[-49.6789702,-27.2781042],[-49.6790306,-27.2781414],[-49.6790756,-27.2781562],[-49.6791156,-27.2781694],[-49.6791864,-27.2781737],[-49.6792692,-27.2781722],[-49.6798008,-27.2782049],[-49.6799452,-27.2781533],[-49.6799837,-27.2781214],[-49.6800182,-27.2780788],[-49.6803387,-27.2777549],[-49.6804236,-27.2777006],[-49.6805202,-27.2776462],[-49.6805919,-27.2776123],[-49.6810148,-27.2774122],[-49.681528,-27.277117],[-49.6816626,-27.2770496],[-49.6817067,-27.2770228],[-49.681793,-27.2769922],[-49.6819569,-27.2769902],[-49.6820212,-27.2770061],[-49.6821539,-27.2769108],[-49.6822489,-27.2768596],[-49.6823014,-27.2768493],[-49.6823443,-27.2768464],[-49.6823998,-27.276846],[-49.6824431,-27.2768418],[-49.6824815,-27.2768315],[-49.682509,-27.2768035],[-49.6825417,-27.2767554],[-49.6825652,-27.2767156],[-49.6826353,-27.2766612],[-49.6828568,-27.2765913],[-49.6829928,-27.2765416],[-49.6831077,-27.2764904],[-49.6831935,-27.2764428],[-49.6832877,-27.2763727],[-49.683371,-27.276305],[-49.6833809,-27.2762968],[-49.6834514,-27.2762189],[-49.6834652,-27.2762036],[-49.6835484,-27.2760946],[-49.6836675,-27.2759452],[-49.6837857,-27.2757092],[-49.6838019,-27.2756644],[-49.6838769,-27.2755128],[-49.6839535,-27.2754301],[-49.6841828,-27.2751312],[-49.6842221,-27.2750427],[-49.6842603,-27.2749419],[-49.6843035,-27.2748454],[-49.6844027,-27.2745536],[-49.6844412,-27.2744808],[-49.6844906,-27.2744263],[-49.6845548,-27.274383],[-49.684619,-27.2743458],[-49.6846619,-27.2743254],[-49.6847057,-27.2742989],[-49.6847367,-27.2742585],[-49.6847577,-27.2742006],[-49.684891,-27.2739022],[-49.6849544,-27.2737604],[-49.6849775,-27.2736584],[-49.6849811,-27.273614],[-49.6849782,-27.2735684],[-49.684966,-27.273521],[-49.6849425,-27.2734808],[-49.6849054,-27.2734464],[-49.6848515,-27.2734099],[-49.6846914,-27.27336],[-49.6846444,-27.2733313],[-49.6846038,-27.273293],[-49.6845853,-27.2732536],[-49.6845795,-27.2732079],[-49.6845811,-27.2731728],[-49.6846052,-27.2731151],[-49.6848772,-27.2727656],[-49.6852174,-27.2723284],[-49.6852812,-27.2722229],[-49.6852953,-27.2721749],[-49.6853153,-27.2721265],[-49.6853352,-27.2720754],[-49.6853484,-27.2720349],[-49.6853831,-27.2719906],[-49.6854032,-27.2719575],[-49.6854145,-27.271921],[-49.6854198,-27.2718736],[-49.685417,-27.2718395],[-49.6854093,-27.2718115],[-49.6853988,-27.2717937],[-49.685376,-27.2717694],[-49.68534,-27.2717492],[-49.6853003,-27.2717427],[-49.6852509,-27.2717398],[-49.6852117,-27.271739],[-49.6851789,-27.2717363],[-49.6851509,-27.2717239],[-49.6851426,-27.2717111],[-49.6851314,-27.2716939],[-49.6851286,-27.2716593],[-49.6851448,-27.2716249],[-49.6852025,-27.2715817],[-49.6853118,-27.2715598],[-49.6854198,-27.2715493],[-49.6855809,-27.2715184],[-49.6856213,-27.2715074],[-49.6856485,-27.2714917],[-49.685679,-27.2714607],[-49.6858694,-27.2712412],[-49.6858983,-27.2712103],[-49.6859119,-27.2711946],[-49.6859228,-27.2711788],[-49.685933,-27.2711586],[-49.6859365,-27.271142],[-49.6859332,-27.2711272],[-49.6859224,-27.2711147],[-49.6859109,-27.271107],[-49.6858895,-27.2710979],[-49.6858684,-27.2710895],[-49.6858396,-27.2710789],[-49.6856649,-27.2710227],[-49.6856403,-27.2710046],[-49.6856142,-27.2709821],[-49.6855922,-27.2709596],[-49.6855669,-27.2709344],[-49.6855379,-27.2709081],[-49.6855032,-27.270882],[-49.685467,-27.2708637],[-49.6854413,-27.2708553],[-49.6854138,-27.270849],[-49.685391,-27.2708442],[-49.685377,-27.2708386],[-49.6853619,-27.2708209],[-49.6853618,-27.2708205],[-49.6853618,-27.2708199],[-49.6853576,-27.2708039],[-49.6853589,-27.2707961],[-49.6853604,-27.270785],[-49.68536,-27.2707735],[-49.6853555,-27.2707649],[-49.685341,-27.2707487],[-49.6853242,-27.2707376],[-49.6852903,-27.2707203],[-49.6852626,-27.2707056],[-49.6852358,-27.2706874],[-49.6852163,-27.2706696],[-49.6852054,-27.2706532],[-49.6851976,-27.2706354],[-49.6851985,-27.2706051],[-49.6852039,-27.2705754],[-49.6852118,-27.270556],[-49.6852276,-27.2705313],[-49.6852495,-27.2705069],[-49.6852714,-27.2704893],[-49.6852846,-27.2704809],[-49.6853348,-27.2704637],[-49.6853811,-27.2704565],[-49.685451,-27.2704539],[-49.6855231,-27.2704577],[-49.6855807,-27.2704667],[-49.6856933,-27.270502],[-49.6856959,-27.2705028],[-49.6857254,-27.270518],[-49.6857514,-27.2705316],[-49.6857768,-27.2705419],[-49.6857976,-27.2705379],[-49.6858131,-27.2705255],[-49.6858266,-27.2705067],[-49.6858515,-27.2704717],[-49.6859432,-27.2703617],[-49.6859886,-27.270319],[-49.686042,-27.2702792],[-49.6860995,-27.2702544],[-49.6861479,-27.2702412],[-49.686192,-27.2702265],[-49.6862031,-27.2702175],[-49.6862165,-27.2702067],[-49.6862268,-27.2701755],[-49.6862273,-27.2701623],[-49.6862269,-27.2701506],[-49.686218,-27.2701188],[-49.6862063,-27.2700891],[-49.6862023,-27.2700779],[-49.6861843,-27.2700302],[-49.6860781,-27.2697881],[-49.6859883,-27.2695858],[-49.6859765,-27.2695654],[-49.6859675,-27.2695498],[-49.6859497,-27.2695216],[-49.6859371,-27.2695027],[-49.6859269,-27.2694807],[-49.6859237,-27.2694575],[-49.6859251,-27.2694347],[-49.6859316,-27.2694094],[-49.6859467,-27.2693821],[-49.6859693,-27.2693528],[-49.6859964,-27.2693183],[-49.6860242,-27.2692918],[-49.6860461,-27.2692784],[-49.6860615,-27.2692763],[-49.6860758,-27.2692773],[-49.6860786,-27.2692788],[-49.6861189,-27.2693071],[-49.6861399,-27.2693225],[-49.6861581,-27.2693322],[-49.6861778,-27.2693397],[-49.6861946,-27.2693386],[-49.686204,-27.2693329],[-49.6862102,-27.2693291],[-49.6862238,-27.269309],[-49.6862285,-27.2692891],[-49.6862294,-27.2692542],[-49.6861941,-27.2690847],[-49.6861136,-27.26883],[-49.6860824,-27.2687893],[-49.6860588,-27.2687633],[-49.6860411,-27.268747],[-49.6860375,-27.2687436],[-49.686011,-27.2687203],[-49.6859972,-27.2687023],[-49.6859922,-27.2686861],[-49.6859908,-27.2686718],[-49.685991,-27.2686668],[-49.6860062,-27.2686149],[-49.6860078,-27.2685897],[-49.6860062,-27.2685689],[-49.6859992,-27.2685435],[-49.6859959,-27.2685217],[-49.6859956,-27.2684899],[-49.6860022,-27.2684726],[-49.6860163,-27.2684585],[-49.6860368,-27.2684468],[-49.6860575,-27.2684366],[-49.6860777,-27.2684237],[-49.6860951,-27.2684056],[-49.6861095,-27.2683808],[-49.6861234,-27.2683471],[-49.6861411,-27.2682736],[-49.6861438,-27.2682495],[-49.6861472,-27.268228],[-49.6861537,-27.2682019],[-49.6861589,-27.2681871],[-49.6861672,-27.2681698],[-49.6862327,-27.2680317],[-49.6862375,-27.2680122],[-49.6862378,-27.2679856],[-49.6862337,-27.2679575],[-49.6862295,-27.2679267],[-49.6862283,-27.267895],[-49.6862278,-27.2678503],[-49.6862323,-27.2678141],[-49.6862409,-27.2677919],[-49.6862447,-27.267785],[-49.6862624,-27.2677617],[-49.6862887,-27.2677432],[-49.6863277,-27.2677152],[-49.68669,-27.267376],[-49.6866956,-27.2673729],[-49.6867359,-27.2673637],[-49.6867719,-27.2673644],[-49.6867924,-27.26737],[-49.6868371,-27.2673932],[-49.6868902,-27.2674296],[-49.6869257,-27.2674433],[-49.6869487,-27.2674464],[-49.6869809,-27.2674434],[-49.6869954,-27.2674401],[-49.6870083,-27.2674328],[-49.6870212,-27.2674149],[-49.6870431,-27.2673797],[-49.6870494,-27.2673554],[-49.687042,-27.2673125],[-49.6870167,-27.2672659],[-49.6869703,-27.2672174],[-49.686907,-27.2671591],[-49.6864847,-27.2668002],[-49.686453,-27.2667548],[-49.6864081,-27.2666895],[-49.6864055,-27.2666682],[-49.6864049,-27.2666633],[-49.6864087,-27.2666257],[-49.6864202,-27.2665957],[-49.6864427,-27.2665693],[-49.686478,-27.2665529],[-49.6865265,-27.2665415],[-49.686586,-27.2665323],[-49.6866412,-27.26652],[-49.6866913,-27.2665076],[-49.6867488,-27.2664923],[-49.6867999,-27.2664774],[-49.6868421,-27.2664664],[-49.6868778,-27.2664588],[-49.6869149,-27.2664572],[-49.6869446,-27.266461],[-49.6869702,-27.2664697],[-49.6869978,-27.2664836],[-49.6870136,-27.2664901],[-49.6870319,-27.2664944],[-49.6870485,-27.2664957],[-49.6870698,-27.2664869],[-49.6870944,-27.2664699],[-49.6871226,-27.2664387],[-49.687152,-27.2663966],[-49.6871676,-27.2663661],[-49.6871746,-27.2663319],[-49.6871754,-27.2662992],[-49.6871709,-27.2662583],[-49.6871655,-27.2662373],[-49.6871611,-27.2662223],[-49.6871529,-27.2662001],[-49.6871236,-27.2661448],[-49.6870959,-27.2660995],[-49.6869102,-27.2658429],[-49.6868711,-27.2657692],[-49.686859,-27.2657351],[-49.6868564,-27.2656973],[-49.6868561,-27.265694],[-49.686863,-27.2656466],[-49.6868861,-27.2656004],[-49.6869225,-27.2655724],[-49.6869802,-27.265561],[-49.68701,-27.2655607],[-49.6870582,-27.2655603],[-49.6871484,-27.2655544],[-49.687219,-27.2655438],[-49.6874323,-27.2655224],[-49.6875001,-27.2654992],[-49.6877696,-27.2653377],[-49.6878613,-27.2652579],[-49.6879147,-27.2652113],[-49.6881679,-27.2649983],[-49.6882167,-27.264947],[-49.6882468,-27.2649063],[-49.688268,-27.2648531],[-49.6882727,-27.2648048],[-49.6882722,-27.2648003],[-49.6882588,-27.2646812],[-49.6882543,-27.2646483],[-49.6882545,-27.2646156],[-49.6882611,-27.2645858],[-49.6882717,-27.2645629],[-49.6882829,-27.2645321],[-49.6882848,-27.2645049],[-49.6882799,-27.2644775],[-49.6882709,-27.2644528],[-49.6882657,-27.2644224],[-49.6882657,-27.2643858],[-49.688271,-27.2643485],[-49.6882866,-27.2643063],[-49.6883065,-27.2642661],[-49.688333,-27.2642194],[-49.688364,-27.2641789],[-49.6883917,-27.264153],[-49.6884266,-27.2641327],[-49.6884532,-27.2641205],[-49.6884831,-27.264102],[-49.6884968,-27.2640875],[-49.6885016,-27.2640733],[-49.6885021,-27.2640595],[-49.6885025,-27.2640395],[-49.6885043,-27.2639946],[-49.688511,-27.2639511],[-49.6885258,-27.2639154],[-49.688549,-27.2638844],[-49.68862,-27.2638185],[-49.6887382,-27.2637228],[-49.688777,-27.2637056],[-49.6888179,-27.2636973],[-49.6888676,-27.2636962],[-49.6889147,-27.2636988],[-49.688964,-27.2637069],[-49.6890062,-27.2637157],[-49.6890415,-27.2637189],[-49.6890798,-27.2637176],[-49.6891096,-27.2637102],[-49.6891436,-27.2636973],[-49.6891744,-27.263681],[-49.6891976,-27.2636607],[-49.6892151,-27.2636345],[-49.6892238,-27.2636113],[-49.6892314,-27.2635912],[-49.6892301,-27.263557],[-49.6892112,-27.2635155],[-49.6891868,-27.2634785],[-49.6891514,-27.2634427],[-49.689121,-27.2634127],[-49.6890786,-27.2633813],[-49.6890523,-27.2633564],[-49.689042,-27.2633154],[-49.6890391,-27.2632658],[-49.6890123,-27.2630653],[-49.6890219,-27.263029],[-49.6890417,-27.2629987],[-49.689078,-27.2629738],[-49.6891209,-27.2629617],[-49.6891905,-27.2629467],[-49.6892546,-27.2629351],[-49.6893012,-27.2629262],[-49.6893456,-27.262915],[-49.6893827,-27.2629022],[-49.6894051,-27.2628853],[-49.6894134,-27.262879],[-49.6894451,-27.2628361],[-49.6894634,-27.2627857],[-49.6894657,-27.2626633],[-49.6894661,-27.2626514],[-49.6894667,-27.2624973],[-49.689475,-27.2624733],[-49.6894976,-27.2624249],[-49.6895447,-27.2623538],[-49.6896348,-27.2622397],[-49.6897013,-27.2621419],[-49.6897094,-27.2621299],[-49.6897353,-27.262075],[-49.6898236,-27.2618635],[-49.6899592,-27.2615984],[-49.6900268,-27.2614871],[-49.6901261,-27.2613224],[-49.690157,-27.2612937],[-49.6901872,-27.2612752],[-49.6902729,-27.2612546],[-49.6906771,-27.2611231],[-49.6906792,-27.2611224],[-49.690683,-27.2611208],[-49.6906937,-27.2611049],[-49.6907023,-27.2610864],[-49.6907007,-27.261069],[-49.690685,-27.261043],[-49.6906619,-27.2610237],[-49.6905918,-27.2609841],[-49.6905569,-27.2609596],[-49.6905248,-27.2609252],[-49.6905006,-27.2608846],[-49.6904758,-27.2608339],[-49.6904498,-27.2607727],[-49.6904259,-27.2607052],[-49.6904161,-27.2606769],[-49.6903977,-27.2605949],[-49.6903823,-27.2604209],[-49.6903817,-27.2603766],[-49.6903738,-27.2603367],[-49.6903625,-27.260307],[-49.6903187,-27.2602437],[-49.6902892,-27.2602228],[-49.6902717,-27.2602147],[-49.6902471,-27.2602033],[-49.6898381,-27.2599793],[-49.6898134,-27.2599523],[-49.6898079,-27.259943],[-49.6897959,-27.2599229],[-49.6897919,-27.259897],[-49.6898009,-27.2598578],[-49.689815,-27.259826],[-49.6898559,-27.2597541],[-49.6899236,-27.2596387],[-49.68995,-27.259597],[-49.6900003,-27.25954],[-49.6901179,-27.2594456],[-49.6902329,-27.2593242],[-49.6903287,-27.2592067],[-49.6903462,-27.2591821],[-49.6903627,-27.2591506],[-49.690368,-27.2591315],[-49.6903695,-27.2591211],[-49.6903694,-27.2590792],[-49.6903564,-27.2590365],[-49.6903238,-27.2589974],[-49.6901332,-27.2588213],[-49.6899911,-27.2586707],[-49.6899589,-27.2586371],[-49.6899421,-27.2586267],[-49.6899304,-27.2586237],[-49.6899228,-27.2586232],[-49.6899136,-27.2586218],[-49.6899035,-27.2586172],[-49.6898838,-27.2585988],[-49.6898507,-27.2585575],[-49.6897286,-27.2583886],[-49.6897163,-27.2583619],[-49.6897161,-27.2583612],[-49.6897099,-27.2583397],[-49.6897129,-27.2583068],[-49.6897276,-27.2582733],[-49.6897483,-27.2582441],[-49.68977,-27.2582141],[-49.6897929,-27.2581754],[-49.6898113,-27.2581313],[-49.6898242,-27.2580777],[-49.6898566,-27.2578878],[-49.6898531,-27.2577845],[-49.6898508,-27.257714],[-49.6898645,-27.2576722],[-49.6898892,-27.2576363],[-49.6899445,-27.2575868],[-49.6899677,-27.2575574],[-49.6899831,-27.2575295],[-49.6899917,-27.2574832],[-49.6900541,-27.2570916],[-49.6900699,-27.2569449],[-49.6900832,-27.2568214],[-49.690105,-27.256619],[-49.6901495,-27.2561435],[-49.6901712,-27.2559861],[-49.6901988,-27.2559082],[-49.6902281,-27.2558423],[-49.6903967,-27.2554529],[-49.6904662,-27.255256],[-49.6904861,-27.2551979],[-49.690519,-27.2550626],[-49.6905383,-27.2548847],[-49.6905452,-27.2548669],[-49.6905471,-27.2548619],[-49.6905684,-27.2548352],[-49.6906027,-27.2548033],[-49.6906908,-27.2547057],[-49.6908813,-27.254531],[-49.6908961,-27.2545033],[-49.6909054,-27.254473],[-49.6909109,-27.2544307],[-49.6909099,-27.2543784],[-49.6908925,-27.2543367],[-49.6908639,-27.254309],[-49.6908308,-27.2542932],[-49.6907935,-27.2542868],[-49.6902003,-27.2543068],[-49.6901495,-27.2543036],[-49.6901229,-27.2542905],[-49.6900773,-27.2542541],[-49.6900541,-27.2542197],[-49.6900392,-27.2541612],[-49.6900345,-27.2540912],[-49.6900337,-27.254024],[-49.6900398,-27.2539713],[-49.6900593,-27.2539391],[-49.6900973,-27.2539205],[-49.6901389,-27.2539202],[-49.6901811,-27.2539279],[-49.6902206,-27.2539262],[-49.6902523,-27.2539092],[-49.6902673,-27.2538765],[-49.6902686,-27.2538394],[-49.690255,-27.2533682],[-49.6902266,-27.2532731],[-49.6902198,-27.2532503],[-49.6901624,-27.2530576],[-49.6900738,-27.2527437],[-49.6900713,-27.2526991],[-49.6900802,-27.2526729],[-49.6901091,-27.2526409],[-49.6903768,-27.252406],[-49.6904054,-27.2523723],[-49.6904258,-27.2523324],[-49.6904468,-27.2522947],[-49.6904675,-27.2522564],[-49.6904949,-27.252212],[-49.6905313,-27.2521747],[-49.690585,-27.252153],[-49.6906566,-27.2521342],[-49.6908111,-27.2521014],[-49.6908799,-27.252082],[-49.6909415,-27.2520527],[-49.6910624,-27.2519786],[-49.6911213,-27.2519207],[-49.6912002,-27.2518265],[-49.691218,-27.2517969],[-49.6912291,-27.2517535],[-49.6912335,-27.2516493],[-49.6912104,-27.2513954],[-49.6911986,-27.2513742],[-49.6911848,-27.2513488],[-49.6910902,-27.2512],[-49.6910434,-27.2510949],[-49.6910163,-27.2510212],[-49.6910141,-27.2509323],[-49.6910233,-27.2508894],[-49.6910413,-27.2508173],[-49.6910753,-27.2507583],[-49.6910987,-27.250722],[-49.6911369,-27.250663],[-49.6911822,-27.250605],[-49.6912194,-27.2505451],[-49.6912633,-27.2505055],[-49.691306,-27.2504722],[-49.691364,-27.2504446],[-49.6914094,-27.2504288],[-49.6914559,-27.2504121],[-49.691498,-27.2503614],[-49.6915364,-27.2502951],[-49.6915517,-27.2502514],[-49.6915724,-27.2501921],[-49.6915991,-27.2501458],[-49.6916434,-27.2500887],[-49.6916705,-27.2500681],[-49.6917024,-27.2500603],[-49.6919141,-27.2500009],[-49.6924892,-27.2498396],[-49.6925122,-27.2498216],[-49.6925334,-27.2497871],[-49.692541,-27.2497231],[-49.6925739,-27.2492543],[-49.6925998,-27.2483988],[-49.6926737,-27.2481175],[-49.692706,-27.2479567],[-49.6927827,-27.2477323],[-49.6928353,-27.2475772],[-49.6928926,-27.2474918],[-49.6929582,-27.247401],[-49.6929939,-27.247363],[-49.693106,-27.2473004],[-49.6932801,-27.247222],[-49.6936105,-27.2471117],[-49.6936468,-27.2470961],[-49.6936882,-27.2470806],[-49.69374,-27.2470585],[-49.6939054,-27.2469523],[-49.6940158,-27.2468709],[-49.6941179,-27.2467731]]}},{"type":"Feature","properties":{"river_id":133,"nome":"Ribeirão Fundo do Canoas","classe":"Ribeirão","fonte":"Defesa Civil de Rio do Sul / API Asthon"},"geometry":{"type":"LineString","coordinates":[[-49.6685988,-27.1574483],[-49.669345,-27.1576745],[-49.6703413,-27.1569735],[-49.6723187,-27.1570603],[-49.6735509,-27.1565459],[-49.6772568,-27.1562614],[-49.67781,-27.1559046],[-49.6784644,-27.1559786],[-49.6788627,-27.1555149],[-49.6795339,-27.1557725],[-49.6808017,-27.1555809],[-49.6824294,-27.1558313],[-49.6840029,-27.1555825],[-49.6853629,-27.156171],[-49.6859036,-27.1560742],[-49.6864071,-27.1565005],[-49.6870609,-27.1562493],[-49.6872973,-27.1558221],[-49.6877039,-27.155906],[-49.6884352,-27.1554864],[-49.6897449,-27.1553585],[-49.6903323,-27.1556351],[-49.6910186,-27.1553656],[-49.6920111,-27.15602],[-49.6928514,-27.1560806],[-49.6928875,-27.1567803],[-49.6939773,-27.1568933],[-49.694026,-27.157424],[-49.6952181,-27.158224],[-49.6955654,-27.1587415],[-49.6955136,-27.1595908],[-49.6959811,-27.1599291],[-49.695966,-27.1604657],[-49.69639,-27.1609787],[-49.6948096,-27.166419],[-49.6948766,-27.1683954],[-49.6946219,-27.1692579],[-49.6951809,-27.1695016],[-49.6947367,-27.1705534],[-49.6935599,-27.1705383],[-49.6930926,-27.1712656],[-49.6932566,-27.1725554],[-49.6924523,-27.172757],[-49.6922207,-27.1741184],[-49.6924829,-27.1745787],[-49.6911613,-27.1774491],[-49.6914095,-27.1777397],[-49.6912709,-27.1785999],[-49.6909089,-27.1788269],[-49.6909228,-27.1792815],[-49.6897176,-27.1814424],[-49.6903976,-27.1818581],[-49.6900673,-27.1832283],[-49.6902922,-27.1840505],[-49.6906899,-27.1841011],[-49.6909437,-27.1845877],[-49.6904286,-27.1843921],[-49.6894751,-27.1847785],[-49.6886175,-27.1854602],[-49.6884602,-27.1861766],[-49.6873119,-27.1868669],[-49.6864583,-27.1882517],[-49.6859733,-27.1898164],[-49.6853126,-27.1903072],[-49.6857677,-27.1902255],[-49.6856648,-27.191091],[-49.6853457,-27.1912636],[-49.6845173,-27.1910615],[-49.6839368,-27.1913488],[-49.6834287,-27.1919434],[-49.6836552,-27.1922749],[-49.6834929,-27.1926538],[-49.6824833,-27.1930296],[-49.6808093,-27.19306],[-49.6805076,-27.1935792],[-49.6793662,-27.1932962],[-49.6782297,-27.1937258],[-49.6786861,-27.1942462],[-49.6778076,-27.1951859],[-49.67655,-27.1953747],[-49.6767163,-27.1957996],[-49.6761502,-27.1957992],[-49.6753204,-27.1965178],[-49.6740879,-27.1965615],[-49.6731351,-27.197708],[-49.6716744,-27.1978799],[-49.6717468,-27.1982187],[-49.6713226,-27.198332],[-49.670208,-27.1995133],[-49.6695103,-27.199639],[-49.6689376,-27.2004899],[-49.6672794,-27.2008645],[-49.6666625,-27.2013237],[-49.6661672,-27.2013036],[-49.6658668,-27.2006615],[-49.6631812,-27.2012907],[-49.6618846,-27.2011484],[-49.6616724,-27.2013314],[-49.6621595,-27.2020809],[-49.6615252,-27.2027313],[-49.6600662,-27.2026196],[-49.6592917,-27.2030333],[-49.6579286,-27.2026676],[-49.657404,-27.2033449],[-49.6570694,-27.2029924],[-49.655172,-27.2030928],[-49.654804,-27.2037016],[-49.6532399,-27.2032888],[-49.6529962,-27.2035996],[-49.6540431,-27.2054921],[-49.6533217,-27.2067889],[-49.6527599,-27.2068586],[-49.6519766,-27.206508],[-49.6512693,-27.2074087],[-49.6508016,-27.2074169],[-49.6507298,-27.2079456],[-49.6493938,-27.2095957],[-49.6480294,-27.2088942],[-49.6454982,-27.2096775]]}},{"type":"Feature","properties":{"river_id":132,"nome":"Ribeirão Matador","classe":"Ribeirão","fonte":"Defesa Civil de Rio do Sul / API Asthon"},"geometry":{"type":"LineString","coordinates":[[-49.5282607,-27.2712874],[-49.529023,-27.272238],[-49.5312195,-27.2727586],[-49.5351118,-27.2719595],[-49.5395811,-27.2725261],[-49.5413061,-27.2714768],[-49.5433321,-27.2693105],[-49.5444955,-27.2677852],[-49.5448469,-27.2665627],[-49.5457444,-27.2663577],[-49.5455004,-27.2648314],[-49.5462099,-27.264627],[-49.5470255,-27.2638474],[-49.5478675,-27.2626913],[-49.5485111,-27.2609242],[-49.5499227,-27.261426],[-49.5520858,-27.2608202],[-49.5548152,-27.2591056],[-49.5564515,-27.2586608],[-49.5565455,-27.2580671],[-49.5572735,-27.2578286],[-49.5575801,-27.2573547],[-49.5581786,-27.2571987],[-49.5602802,-27.2556513],[-49.5616438,-27.2551384],[-49.5622273,-27.2545229],[-49.5626987,-27.2544727],[-49.5622938,-27.2540965],[-49.5625729,-27.2537996],[-49.5623629,-27.2533051],[-49.5632923,-27.2520028],[-49.5624234,-27.2514384],[-49.5623608,-27.2505024],[-49.5626399,-27.2505369],[-49.5630364,-27.2492779],[-49.5620758,-27.2487247],[-49.562209,-27.2483745],[-49.5625894,-27.248058],[-49.5637503,-27.2480556],[-49.564269,-27.2460576],[-49.5648976,-27.2457377],[-49.5662852,-27.2442413],[-49.5672152,-27.243915],[-49.570964,-27.2400965],[-49.5718973,-27.2387288],[-49.571985,-27.2381186],[-49.5729065,-27.2374879],[-49.5731185,-27.2363297],[-49.5736438,-27.2362955],[-49.5742467,-27.2356575],[-49.5746917,-27.2361229],[-49.5752144,-27.2358316],[-49.5763908,-27.2335156],[-49.5771955,-27.2308449],[-49.5780558,-27.2303161],[-49.5790148,-27.2289595],[-49.5803076,-27.2279528],[-49.5810107,-27.2269811],[-49.5813308,-27.2254233],[-49.5807667,-27.2233594],[-49.5787286,-27.2210916],[-49.5780125,-27.2206928],[-49.5779107,-27.2201132],[-49.5781238,-27.2200397],[-49.5783045,-27.2204683],[-49.5790988,-27.2201821],[-49.5792307,-27.2189525],[-49.5789379,-27.2176566],[-49.579855,-27.2172934],[-49.5803937,-27.2160533],[-49.5804394,-27.2151597],[-49.5808876,-27.2147181],[-49.5815084,-27.2149456],[-49.5815579,-27.2140749],[-49.5824987,-27.2138325],[-49.5828787,-27.2127008],[-49.5821848,-27.2106029],[-49.5825045,-27.2102131],[-49.583191,-27.2102493],[-49.5831516,-27.2097912],[-49.5826017,-27.2096576],[-49.582469,-27.2093571],[-49.5832101,-27.2077182],[-49.5825903,-27.2060658],[-49.5810102,-27.2049694],[-49.5818032,-27.2043647],[-49.5829113,-27.2020097],[-49.5836777,-27.1969054],[-49.5850595,-27.1932843],[-49.5877473,-27.1901906],[-49.58984,-27.189922],[-49.590387,-27.1892167],[-49.5902912,-27.1885397],[-49.5890953,-27.187861],[-49.5887597,-27.186873],[-49.5867574,-27.1840798],[-49.5867061,-27.1837074],[-49.587302,-27.1834135],[-49.5871821,-27.1830068],[-49.5861622,-27.1832611],[-49.5855932,-27.1818392],[-49.5841178,-27.1823081]]}},{"type":"Feature","properties":{"river_id":134,"nome":"Ribeirão Taboão","classe":"Ribeirão","fonte":"Defesa Civil de Rio do Sul / API Asthon"},"geometry":{"type":"LineString","coordinates":[[-49.5787582,-27.2591821],[-49.5797023,-27.2582712],[-49.5816531,-27.2572607],[-49.5821529,-27.2565369],[-49.584798,-27.2546125],[-49.5859541,-27.2532415],[-49.5866098,-27.2530052],[-49.5871008,-27.2530643],[-49.5888002,-27.2523372],[-49.5902141,-27.2528709],[-49.5920779,-27.2527156],[-49.5930251,-27.2530767],[-49.5934099,-27.2537578],[-49.5944182,-27.2532878],[-49.5962132,-27.253626],[-49.5966905,-27.2532744],[-49.59759,-27.2536309],[-49.5981137,-27.2531594],[-49.5991079,-27.2533194],[-49.5993244,-27.2529663],[-49.5999662,-27.2532195],[-49.6003269,-27.2526696],[-49.6016259,-27.2530426],[-49.6025113,-27.2526467],[-49.6031998,-27.2528763],[-49.6048536,-27.2507345],[-49.6053386,-27.2509436],[-49.6055694,-27.2506623],[-49.6072178,-27.2503507],[-49.6070117,-27.2491619],[-49.6073954,-27.2477386],[-49.6069246,-27.2465139],[-49.6075912,-27.2444948],[-49.6079705,-27.24419],[-49.6083057,-27.2427303],[-49.6094439,-27.2408353],[-49.6098974,-27.2391843],[-49.6106394,-27.2382783],[-49.614119,-27.2361656],[-49.6138248,-27.2350523],[-49.6126717,-27.2345372],[-49.6128938,-27.2334083],[-49.6125298,-27.2332012],[-49.613534,-27.232128],[-49.6137844,-27.2307578],[-49.613385,-27.2298784],[-49.6129244,-27.2295495],[-49.6130473,-27.2282878],[-49.6117223,-27.2251473],[-49.6118041,-27.2243529],[-49.611312,-27.2238571],[-49.6117484,-27.2231524],[-49.6110094,-27.2223869],[-49.6110862,-27.2212955],[-49.6100694,-27.2202609],[-49.611628,-27.2190029],[-49.6119967,-27.2180508],[-49.6119147,-27.2172682],[-49.6131289,-27.2156191],[-49.612764,-27.2136207],[-49.6142767,-27.2129231],[-49.6136593,-27.2126272],[-49.613546,-27.212288],[-49.6142667,-27.2091023],[-49.6137528,-27.2086883],[-49.6146616,-27.2077912],[-49.6140197,-27.2066997],[-49.6139349,-27.2057107],[-49.6144574,-27.2039336],[-49.615133,-27.2030682],[-49.6150881,-27.2025231],[-49.6143667,-27.2016568],[-49.6144163,-27.2011267],[-49.6156203,-27.2001307],[-49.6161834,-27.198734],[-49.619428,-27.1967885],[-49.6192264,-27.1956193]]}},{"type":"Feature","properties":{"river_id":130,"nome":"Rio das Cobras","classe":"Rio","fonte":"Defesa Civil de Rio do Sul / API Asthon"},"geometry":{"type":"LineString","coordinates":[[-49.5872886,-27.0872322],[-49.5907074,-27.0915711],[-49.5912997,-27.0934798],[-49.5918498,-27.0940348],[-49.5947335,-27.0941227],[-49.5961804,-27.0937939],[-49.5992178,-27.0948082],[-49.6006474,-27.0949094],[-49.6022143,-27.0955934],[-49.6041663,-27.0954417],[-49.6051412,-27.0956379],[-49.6070293,-27.0952909],[-49.6087976,-27.096346],[-49.6110078,-27.096783],[-49.6118161,-27.0966733],[-49.6130559,-27.0975948],[-49.6142127,-27.0978693],[-49.6151626,-27.0980495],[-49.6157136,-27.0975862],[-49.6177575,-27.0978909],[-49.6184034,-27.0976091],[-49.6212066,-27.099123],[-49.6219947,-27.0986106],[-49.6225068,-27.0986118],[-49.6237786,-27.1001723],[-49.6235574,-27.101032],[-49.623749,-27.1018875],[-49.624339,-27.1028016],[-49.6243734,-27.1037844],[-49.6248098,-27.1040981],[-49.6245937,-27.1052653],[-49.6256864,-27.1060292],[-49.6252476,-27.1069057],[-49.6255927,-27.1072433],[-49.6247702,-27.1091439],[-49.6247331,-27.1127447],[-49.6242382,-27.1139656],[-49.6249324,-27.1151662],[-49.6252807,-27.1165175],[-49.6247357,-27.1175951],[-49.6248448,-27.1185842],[-49.6244849,-27.1193335],[-49.6245016,-27.1198428],[-49.6249906,-27.1204566],[-49.6246425,-27.1212646],[-49.6249415,-27.122578],[-49.6230357,-27.1268876],[-49.6236583,-27.1274144],[-49.6234012,-27.1276476],[-49.6234232,-27.1283776],[-49.6236767,-27.1285721],[-49.6235767,-27.1300337],[-49.6240019,-27.1303457],[-49.6245646,-27.1301777],[-49.6248027,-27.1310124],[-49.6236725,-27.1323438],[-49.6239521,-27.1324801],[-49.6245571,-27.1319942],[-49.6246987,-27.1323058],[-49.6239047,-27.1336132],[-49.6239006,-27.134659],[-49.6232274,-27.134915],[-49.6236249,-27.1363732],[-49.6232712,-27.1369963],[-49.6235978,-27.1380533],[-49.6222785,-27.139145],[-49.6218732,-27.1391948],[-49.6218978,-27.1400259],[-49.6208502,-27.1406967],[-49.6203635,-27.1415626],[-49.6204155,-27.1426507],[-49.620706,-27.1430493],[-49.6204163,-27.1436122],[-49.6215551,-27.1457899],[-49.621486,-27.1462723],[-49.6197151,-27.1464205],[-49.6185577,-27.147251],[-49.6181907,-27.149924],[-49.6166853,-27.1498005],[-49.617529,-27.150992],[-49.616869,-27.1510829],[-49.6164608,-27.1520708],[-49.617055,-27.1528446],[-49.6170029,-27.1532793],[-49.6165671,-27.1536039],[-49.6150628,-27.1534398],[-49.614754,-27.1542481],[-49.6153921,-27.155171],[-49.6152095,-27.1560495],[-49.6148403,-27.1564261],[-49.6137153,-27.1563326],[-49.6144089,-27.1566591],[-49.6144737,-27.1570026],[-49.6136633,-27.1571775],[-49.612884,-27.1569627],[-49.612836,-27.1583649],[-49.6125517,-27.1585192],[-49.6116421,-27.1581974],[-49.6111883,-27.1577215],[-49.6097772,-27.157947],[-49.6094485,-27.1584968],[-49.6092591,-27.1599639],[-49.6085276,-27.1602893],[-49.6099992,-27.161016],[-49.6100184,-27.1612583],[-49.6089233,-27.1609825],[-49.6090041,-27.1620379],[-49.6082514,-27.1621323],[-49.608126,-27.1612451],[-49.6062276,-27.1605945],[-49.6062799,-27.1619343],[-49.6039982,-27.163578],[-49.603885,-27.1642678],[-49.6045353,-27.1647197],[-49.6037682,-27.1650526],[-49.6034227,-27.1658047],[-49.6019869,-27.1659392],[-49.6015315,-27.166953],[-49.600788,-27.1671512],[-49.6008558,-27.167463],[-49.6016839,-27.1675275],[-49.6019238,-27.1679431],[-49.6010686,-27.1689802],[-49.6010967,-27.1695888],[-49.6016179,-27.1703714],[-49.6009539,-27.1715833],[-49.6036083,-27.1727449],[-49.602987,-27.1736392],[-49.5989325,-27.1747815],[-49.5985135,-27.1758154],[-49.5979634,-27.1762086],[-49.5960776,-27.1764187],[-49.5949545,-27.1757504],[-49.5943209,-27.176149],[-49.5923658,-27.1762589],[-49.5908259,-27.1765912],[-49.5901261,-27.1771126],[-49.5893968,-27.177062]]}},{"type":"Feature","properties":{"river_id":285,"nome":"Rio Itajaí do Oeste","classe":null,"fonte":"Defesa Civil de Rio do Sul / API Asthon"},"geometry":{"type":"LineString","coordinates":[[-49.717737163,-27.22845333],[-49.7173279,-27.2286434],[-49.7172514,-27.2286978],[-49.7164968,-27.2292348],[-49.7163962,-27.2293064],[-49.7152981,-27.2298882],[-49.7149221,-27.2300182],[-49.7140505,-27.2299685],[-49.712844,-27.2299739],[-49.7116379,-27.2298044],[-49.7102583,-27.2298676],[-49.7090835,-27.2302235],[-49.7089271,-27.2302696],[-49.7079251,-27.2305648],[-49.7071867,-27.2310915],[-49.706838,-27.2316875],[-49.7066912,-27.2319385],[-49.7064397,-27.2327014],[-49.7061441,-27.2344352],[-49.7060646,-27.2358899],[-49.706055,-27.2360658],[-49.7058903,-27.2365663],[-49.7056769,-27.2372148],[-49.7052565,-27.2376652],[-49.7050283,-27.2377888],[-49.7047752,-27.2379259],[-49.703003,-27.2385163],[-49.7006602,-27.2391969],[-49.6997391,-27.2394332],[-49.6987295,-27.239447],[-49.698211,-27.2395119],[-49.6969809,-27.239666],[-49.6959523,-27.2397976],[-49.6957275,-27.2398264],[-49.6950077,-27.240109],[-49.6943578,-27.240659],[-49.6935499,-27.2416923],[-49.6934832,-27.2417722],[-49.6927514,-27.2426491],[-49.6913453,-27.2443339],[-49.6908427,-27.2448909],[-49.6891401,-27.2467778],[-49.6875058,-27.2482233],[-49.687504,-27.2482244],[-49.6875026,-27.2482251],[-49.6875016,-27.2482255],[-49.6875,-27.2482255],[-49.6869338,-27.2482441],[-49.6861299,-27.2474911],[-49.6853911,-27.2467992],[-49.6841339,-27.2451049],[-49.6827797,-27.2426433],[-49.6819468,-27.240008],[-49.6815843,-27.2392359],[-49.6808961,-27.2377697],[-49.6808325,-27.2376343],[-49.6801341,-27.2368525],[-49.6789828,-27.236219],[-49.6762852,-27.2351119],[-49.6751731,-27.2346555],[-49.6719058,-27.2334929],[-49.670064,-27.232601],[-49.6695641,-27.2322751],[-49.6695341,-27.2322556],[-49.6682831,-27.23144],[-49.6659471,-27.229787],[-49.6654137,-27.2290316],[-49.6652437,-27.2285746],[-49.6649663,-27.2278287],[-49.6645235,-27.2270473],[-49.6637536,-27.2256889],[-49.663412,-27.2249412],[-49.6633041,-27.2245792],[-49.6629514,-27.2233958],[-49.6625199,-27.2229291],[-49.6614384,-27.2223117],[-49.6612509,-27.2222843],[-49.6606384,-27.2221951],[-49.6605165,-27.2222163],[-49.659919,-27.2223204],[-49.6592283,-27.2225317],[-49.65881,-27.2225511],[-49.6580694,-27.2225595],[-49.6571914,-27.222411],[-49.6550141,-27.2219539],[-49.653271,-27.2217258],[-49.6515571,-27.2215459],[-49.6510932,-27.2214003],[-49.6505924,-27.2210297],[-49.6499168,-27.2203522],[-49.6494061,-27.2195877],[-49.6487228,-27.2178573],[-49.6484416,-27.2169461],[-49.6483395,-27.2166153],[-49.6483391,-27.2160314]]}},{"type":"Feature","properties":{"river_id":128,"nome":"Rio Itajaí do Sul","classe":"Rio","fonte":"Defesa Civil de Rio do Sul / API Asthon"},"geometry":{"type":"LineString","coordinates":[[-49.646926208,-27.297438051],[-49.6482898,-27.2961419],[-49.6494636,-27.2940772],[-49.6507381,-27.2904844],[-49.6501945,-27.2863964],[-49.6485622,-27.2835932],[-49.6482711,-27.2793056],[-49.6502342,-27.2774773],[-49.6527403,-27.2762162],[-49.6548304,-27.2739038],[-49.6552498,-27.272878],[-49.6548698,-27.271001],[-49.6541918,-27.2693813],[-49.6542006,-27.2678118],[-49.6570466,-27.2630508],[-49.6567648,-27.262513],[-49.6549694,-27.2617923],[-49.654524,-27.2612802],[-49.6544065,-27.2565499],[-49.6513205,-27.251001],[-49.6514487,-27.2460312],[-49.6511871,-27.2448947],[-49.6503661,-27.2444734],[-49.6474844,-27.2446234],[-49.6456443,-27.2444011],[-49.6432667,-27.2425156],[-49.642789,-27.241284],[-49.6434664,-27.2395294],[-49.6455893,-27.2375744],[-49.6469072,-27.2329246],[-49.6472293,-27.228606],[-49.6465375,-27.2223076],[-49.6465729,-27.2193824],[-49.6470822,-27.2179507],[-49.6483391,-27.2160314]]}},{"type":"Feature","properties":{"river_id":286,"nome":"Rio Itajaí-Açu","classe":null,"fonte":"Defesa Civil de Rio do Sul / API Asthon"},"geometry":{"type":"LineString","coordinates":[[-49.6483391,-27.2160314],[-49.6483389,-27.2156512],[-49.6483052,-27.2148914],[-49.6479228,-27.2135999],[-49.6468354,-27.2118922],[-49.6460597,-27.2106632],[-49.6454982,-27.2096775],[-49.6454266,-27.2095519],[-49.6448581,-27.2088258],[-49.6442854,-27.2083363],[-49.6436111,-27.208033],[-49.6428489,-27.2078193],[-49.6416729,-27.2078273],[-49.6403614,-27.2077049],[-49.6396993,-27.2075695],[-49.6377702,-27.2074079],[-49.6359244,-27.207319],[-49.6334172,-27.2072687],[-49.6325949,-27.2072607],[-49.6324011,-27.2072573],[-49.6323172,-27.2072558],[-49.6317726,-27.2072462],[-49.6315949,-27.2072729],[-49.6304824,-27.20744],[-49.6291466,-27.2075365],[-49.6275199,-27.2075983],[-49.6266403,-27.207551],[-49.6259712,-27.2074026],[-49.625,-27.2069547],[-49.6239176,-27.2062799],[-49.6231878,-27.2056301],[-49.6219235,-27.2040192],[-49.6214972,-27.203211],[-49.6214122,-27.2027333],[-49.621427,-27.2024561],[-49.6215168,-27.2022304],[-49.6221287,-27.2017404],[-49.6230019,-27.2011876],[-49.6238929,-27.2008566],[-49.6250001,-27.2006894],[-49.6263726,-27.2005251],[-49.6274642,-27.2002997],[-49.6279859,-27.2001307],[-49.6283368,-27.1999416],[-49.6287078,-27.1995984],[-49.6287794,-27.1993363],[-49.6287457,-27.1990182],[-49.6285424,-27.1985945],[-49.6282315,-27.1982963],[-49.6281041,-27.1982132],[-49.6276414,-27.1979116],[-49.6266456,-27.1975798],[-49.6255477,-27.1973551],[-49.6250001,-27.1971662],[-49.624615,-27.1970014],[-49.6244165,-27.1969068],[-49.6241618,-27.1968614],[-49.6237774,-27.1968444],[-49.6234373,-27.1968377],[-49.622976,-27.1967539],[-49.6208154,-27.1960671],[-49.6192264,-27.1956193],[-49.6189035,-27.1955283],[-49.6183195,-27.1951985],[-49.6178307,-27.1944947],[-49.6173499,-27.1929713],[-49.6164209,-27.1915025],[-49.616083,-27.1910815],[-49.6150972,-27.1898532],[-49.6145957,-27.1895792],[-49.6140578,-27.1894603],[-49.6137186,-27.1894268],[-49.6133967,-27.1895079],[-49.6131678,-27.1895655],[-49.6124811,-27.1899482],[-49.6119192,-27.1902045],[-49.6102894,-27.1909478],[-49.60958,-27.1912738],[-49.6082974,-27.1918634],[-49.6071152,-27.1923868],[-49.6070368,-27.1924063],[-49.6068282,-27.1924581],[-49.6063504,-27.1925275],[-49.6058778,-27.1925153],[-49.6049069,-27.1922276],[-49.6033793,-27.1914408],[-49.6031454,-27.1912974],[-49.6023992,-27.19084],[-49.601447,-27.1902562],[-49.5990377,-27.1887249],[-49.5975496,-27.1875371],[-49.5963015,-27.1864946],[-49.5962218,-27.1864281],[-49.5950746,-27.1852434],[-49.5937549,-27.1835524],[-49.5928643,-27.1825305],[-49.591578,-27.1811229],[-49.5907388,-27.1797895],[-49.5901874,-27.1787268],[-49.5896481,-27.1774334],[-49.5893968,-27.177062],[-49.5889739,-27.1764369],[-49.5888093,-27.1762974],[-49.588107,-27.1757016],[-49.5877685,-27.1755709],[-49.5875126,-27.1755761],[-49.5874353,-27.175615],[-49.5869903,-27.1758391],[-49.5865702,-27.1761857],[-49.5861213,-27.17674],[-49.5856782,-27.1779174],[-49.5849128,-27.1795389],[-49.5843156,-27.1811886],[-49.5841178,-27.1823081],[-49.5839516,-27.183249],[-49.5836871,-27.1848368],[-49.5834541,-27.18623],[-49.5831381,-27.1872871],[-49.5827338,-27.1877561],[-49.5823101,-27.1880028],[-49.5819276,-27.1881263],[-49.5817318,-27.1881304],[-49.5815903,-27.1881333],[-49.5809637,-27.1880178],[-49.5801343,-27.1876886],[-49.5795066,-27.187204],[-49.5791029,-27.1866399],[-49.5790102,-27.1861335],[-49.5791293,-27.1856798],[-49.5793708,-27.1854379],[-49.5794097,-27.1854041],[-49.5805338,-27.1844271],[-49.5810044,-27.1836474],[-49.5816016,-27.1821796],[-49.5817769,-27.1816159],[-49.5817042,-27.1812991],[-49.5812793,-27.1807849],[-49.5807054,-27.1802006],[-49.5797812,-27.1796677],[-49.5792485,-27.1793605],[-49.5776767,-27.1780224],[-49.5768005,-27.1773296],[-49.5766145,-27.1771825],[-49.5760637,-27.1765069],[-49.5755083,-27.175548],[-49.575498,-27.1755144],[-49.5748512,-27.1734185],[-49.5743427,-27.1719694],[-49.5738715,-27.1712824],[-49.5736784,-27.1711349],[-49.573542,-27.1710307],[-49.5734947,-27.1710191],[-49.573276,-27.1709659],[-49.5728264,-27.1709646],[-49.5711703,-27.1709892],[-49.5705532,-27.1710662],[-49.5697277,-27.1711692],[-49.5688023,-27.171339],[-49.5687334,-27.1713516],[-49.567237,-27.1713761],[-49.5663325,-27.1713712],[-49.565869,-27.1713686],[-49.5645665,-27.1714905],[-49.563909,-27.1717115],[-49.5633483,-27.1720632],[-49.5625,-27.1724838],[-49.5611585,-27.1731039],[-49.5603929,-27.1734498],[-49.5592238,-27.173978],[-49.5590202,-27.17407],[-49.5574281,-27.1746967],[-49.5560341,-27.1753162],[-49.5557651,-27.1754653],[-49.5552681,-27.1757184],[-49.5548808,-27.1758542],[-49.5544524,-27.175943],[-49.5539411,-27.1759936],[-49.5535039,-27.1759518],[-49.5529629,-27.175881],[-49.5521823,-27.1757984],[-49.5515173,-27.1756517],[-49.5512407,-27.1755744],[-49.5509981,-27.1755065],[-49.5504899,-27.1753149],[-49.5499399,-27.1751321],[-49.549381,-27.1748374],[-49.5484809,-27.1743248],[-49.5482148,-27.1741344],[-49.5477272,-27.1737857],[-49.5474788,-27.1735783],[-49.5469024,-27.1730968],[-49.5462749,-27.1724658],[-49.546245,-27.172433],[-49.546212,-27.1723969],[-49.5456995,-27.1718353],[-49.5453413,-27.1713283],[-49.5451497,-27.1708324],[-49.5448887,-27.1700654],[-49.5447307,-27.1693927],[-49.544634,-27.1688138],[-49.5446934,-27.1682552],[-49.5447299,-27.1678454],[-49.5448487,-27.1675298],[-49.5450089,-27.1672239],[-49.5451586,-27.1670071],[-49.5453915,-27.1666694],[-49.5462838,-27.1657411],[-49.5478714,-27.1638306],[-49.5484231,-27.162961],[-49.5495202,-27.1611303],[-49.5498132,-27.1605902],[-49.5500664,-27.1601234],[-49.5510172,-27.1583108],[-49.5515168,-27.157506],[-49.5518315,-27.1569926],[-49.5519346,-27.1568244],[-49.5528469,-27.1557299],[-49.5535486,-27.15511],[-49.5539917,-27.1547227],[-49.5544843,-27.1543049],[-49.5547374,-27.1540902],[-49.5548563,-27.15397],[-49.5551148,-27.1537087],[-49.555471,-27.1532616],[-49.5555768,-27.1529819],[-49.5556337,-27.1525317],[-49.5556416,-27.1519178],[-49.5556163,-27.1510487],[-49.555611,-27.1510093],[-49.5555497,-27.1505516],[-49.5554388,-27.1500867],[-49.555182,-27.1496137],[-49.5548648,-27.1493035],[-49.5545966,-27.1491439],[-49.5545409,-27.1491219],[-49.5543424,-27.1490433],[-49.5539789,-27.1489155],[-49.5533521,-27.1488241],[-49.552646055,-27.148832752]]}},{"type":"Feature","properties":{"river_id":131,"nome":"Rio Itoupava","classe":"Rio","fonte":"Defesa Civil de Rio do Sul / API Asthon"},"geometry":{"type":"LineString","coordinates":[[-49.7158865,-27.1451087],[-49.7158487,-27.1462896],[-49.7153782,-27.1469741],[-49.7144551,-27.1472581],[-49.7131948,-27.1471617],[-49.7114538,-27.1452089],[-49.7096945,-27.1437688],[-49.707561,-27.1402468],[-49.7059826,-27.1387902],[-49.7044139,-27.1379198],[-49.7043318,-27.1372124],[-49.7035027,-27.1371061],[-49.7033849,-27.1359932],[-49.7037873,-27.135282],[-49.7020606,-27.134681],[-49.7010228,-27.133724],[-49.6985115,-27.1334114],[-49.69627,-27.1315699],[-49.6958955,-27.1308529],[-49.69595,-27.1301929],[-49.6952639,-27.1297269],[-49.693951,-27.1298559],[-49.6911118,-27.1312904],[-49.6905374,-27.1311804],[-49.6896911,-27.1315522],[-49.6891518,-27.1314708],[-49.687741,-27.1304742],[-49.6879609,-27.1315215],[-49.6876413,-27.1327564],[-49.6864371,-27.1323477],[-49.6857895,-27.1331247],[-49.6848165,-27.1330534],[-49.6834525,-27.134332],[-49.6822656,-27.1339897],[-49.6817939,-27.1343127],[-49.6809131,-27.1342435],[-49.6792238,-27.1347901],[-49.6779653,-27.1347484],[-49.6773056,-27.1344015],[-49.6765726,-27.1348109],[-49.6760905,-27.1346474],[-49.6734744,-27.1358387],[-49.6734891,-27.1353497],[-49.6714502,-27.1357994],[-49.6702931,-27.1353959],[-49.6700407,-27.1358518],[-49.6692141,-27.1356139],[-49.6694082,-27.1361216],[-49.668042,-27.1362824],[-49.6676919,-27.1369223],[-49.6663392,-27.1364564],[-49.6655287,-27.1377959],[-49.6639945,-27.1390296],[-49.6642158,-27.139468],[-49.6627435,-27.1394274],[-49.6620145,-27.1408515],[-49.6601334,-27.1406868],[-49.6595018,-27.1415985],[-49.6582546,-27.1422518],[-49.6583087,-27.1428645],[-49.6577558,-27.1429255],[-49.6575267,-27.1433483],[-49.6577108,-27.1435628],[-49.6554414,-27.1451755],[-49.6562107,-27.1453474],[-49.6565653,-27.1462195],[-49.6549626,-27.1466475],[-49.6550838,-27.1474752],[-49.6535199,-27.1490336],[-49.6518022,-27.149142],[-49.6506112,-27.1503501],[-49.651327,-27.1511771],[-49.6508675,-27.1513974],[-49.6501631,-27.1511774],[-49.6500296,-27.15203],[-49.6495015,-27.1521415],[-49.6489563,-27.1528932],[-49.6481748,-27.1529833],[-49.6465174,-27.1546373],[-49.6470527,-27.1551357],[-49.6469879,-27.1553668],[-49.6452104,-27.1560317],[-49.6450622,-27.1563856],[-49.645601,-27.1567548],[-49.6453508,-27.1573412],[-49.645648,-27.1579011],[-49.645045,-27.1584585],[-49.6441852,-27.1580083],[-49.644075,-27.1587465],[-49.6442468,-27.1589698],[-49.6447069,-27.1588168],[-49.6452734,-27.1600019],[-49.6461969,-27.1600493],[-49.6466021,-27.1612351],[-49.6464041,-27.1616805],[-49.6458123,-27.1615125],[-49.6458752,-27.1625731],[-49.6462524,-27.1633041],[-49.6459947,-27.1637238],[-49.6457147,-27.1631197],[-49.6453981,-27.1632125],[-49.6451618,-27.1641894],[-49.645305,-27.1656635],[-49.6443332,-27.1657624],[-49.6437667,-27.1662843],[-49.6436485,-27.1657643],[-49.6432388,-27.1658041],[-49.6420393,-27.1664283],[-49.6412304,-27.1673306],[-49.6403135,-27.1674764],[-49.6394742,-27.1685783],[-49.6397366,-27.1691821],[-49.638405,-27.1689741],[-49.6379718,-27.1691818],[-49.6370981,-27.1703502],[-49.6362843,-27.1705314],[-49.6353868,-27.1713505],[-49.6352598,-27.1725438],[-49.6342633,-27.1738705],[-49.6307921,-27.1758898],[-49.6280737,-27.1789543],[-49.6280479,-27.1796743],[-49.6289143,-27.181038],[-49.6280885,-27.1814526],[-49.6284672,-27.1819488],[-49.6278063,-27.1820462],[-49.6275611,-27.1814095],[-49.6269619,-27.1819044],[-49.6277536,-27.1822173],[-49.6277178,-27.1826745],[-49.6272044,-27.1830212],[-49.6264248,-27.1828826],[-49.6267083,-27.1839077],[-49.626077,-27.184782],[-49.6256864,-27.186236],[-49.6251881,-27.1863863],[-49.6243753,-27.1860488],[-49.6237784,-27.1862569],[-49.6228144,-27.1876727],[-49.6216132,-27.1882228],[-49.6206656,-27.189559],[-49.6200616,-27.1895244],[-49.6194651,-27.1902322],[-49.6188367,-27.1903177],[-49.6181998,-27.1898349],[-49.6166221,-27.1895776],[-49.6150972,-27.1898532]]}},{"type":"Feature","properties":{"river_id":129,"nome":"Rio Trombudo","classe":"Rio","fonte":"Defesa Civil de Rio do Sul / API Asthon"},"geometry":{"type":"LineString","coordinates":[[-49.717040376,-27.260104966],[-49.7146454,-27.25958],[-49.7139194,-27.2583282],[-49.7126981,-27.258389],[-49.7117216,-27.2575586],[-49.7115691,-27.2570005],[-49.7109486,-27.2567431],[-49.7096879,-27.2566103],[-49.7087906,-27.2568686],[-49.7073621,-27.2556516],[-49.7060922,-27.2558587],[-49.705027,-27.2554092],[-49.7026152,-27.2555476],[-49.7023673,-27.2550733],[-49.7029387,-27.2539748],[-49.7022865,-27.2529486],[-49.6986826,-27.2534577],[-49.6980418,-27.253286],[-49.697281,-27.2522061],[-49.6977078,-27.2519304],[-49.6992002,-27.251832],[-49.6994511,-27.2513812],[-49.6991097,-27.2503264],[-49.6966135,-27.2482054],[-49.6942667,-27.2470352],[-49.6928141,-27.2454725],[-49.6908427,-27.2448909]]}}]}