{"type": "Feature", "properties": {"rio": "benedito", "fonte": "© OpenStreetMap contributors, ODbL (openstreetmap.org/copyright)", "trechos": 12, "cobertura": "RECORTADO na caixa do mapa (extensão do tronco e das réguas do cadastro), para não mudar o enquadramento do Monitor. Baixado por scripts/baixar_tracados_afluentes.py."}, "geometry": {"type": "MultiLineString", "coordinates": [[[-49.4699267, -26.7419306], [-49.4690823, -26.7429617], [-49.4671695, -26.7439774], [-49.4654797, -26.7441297], [-49.4649616, -26.7442184], [-49.4644091, -26.7443865], [-49.4642301, -26.7444719], [-49.4641411, -26.7445227], [-49.4640839, -26.7445925], [-49.463713, -26.745079], [-49.4634058, -26.7455781], [-49.4633789, -26.746147], [-49.4632399, -26.7466993], [-49.4629245, -26.7477871], [-49.4631012, -26.74881], [-49.4633144, -26.749686], [-49.4598969, -26.7543654], [-49.4590697, -26.7554272], [-49.458323, -26.7562117], [-49.4581909, -26.7563505], [-49.4573723, -26.7568313], [-49.4567519, -26.7571314], [-49.4549381, -26.757543], [-49.4542144, -26.7575276], [-49.4537103, -26.7576277], [-49.4529305, -26.7579162], [-49.452672, -26.7577738], [-49.4518319, -26.7572314], [-49.4512546, -26.7571006], [-49.4507721, -26.7571429], [-49.4499578, -26.7575392], [-49.4491651, -26.7582855], [-49.4484198, -26.7585355], [-49.4478597, -26.7586432], [-49.4474547, -26.7587817], [-49.4468085, -26.7587279], [-49.4461623, -26.7591279], [-49.4454859, -26.7599319], [-49.4447104, -26.7603243], [-49.443978, -26.7602781], [-49.4427286, -26.7605513], [-49.4420177, -26.7604512], [-49.4415955, -26.760532], [-49.4412035, -26.7610013], [-49.4412337, -26.7614783], [-49.4415051, -26.7619015], [-49.4413844, -26.7624746], [-49.4408718, -26.7631978], [-49.4404883, -26.7635056], [-49.4401764, -26.7640112], [-49.4394666, -26.7642886], [-49.4386532, -26.7644981], [-49.4381536, -26.7649305], [-49.4381304, -26.7659761], [-49.4371825, -26.7668608], [-49.4363857, -26.7674565], [-49.4360531, -26.7676313], [-49.4357264, -26.7676994], [-49.4347355, -26.7678609], [-49.434425, -26.7680193], [-49.4342529, -26.7682763], [-49.4341085, -26.7684838], [-49.4340334, -26.7687497], [-49.4341582, -26.7690918], [-49.4343633, -26.769777], [-49.4345108, -26.770129], [-49.434483, -26.770556], [-49.4338824, -26.7717843], [-49.4330122, -26.7729921], [-49.4328743, -26.7735537], [-49.432478, -26.7741229], [-49.4317052, -26.7741742], [-49.431215, -26.7743259], [-49.4309495, -26.7742971], [-49.4306367, -26.7743149], [-49.4301774, -26.7744229], [-49.4277475, -26.7747845], [-49.4267166, -26.7744406], [-49.426317, -26.7742826], [-49.4259122, -26.7742922], [-49.4254935, -26.774376], [-49.4251712, -26.7745383], [-49.4248471, -26.7747232], [-49.424568, -26.775123], [-49.4242751, -26.7761769], [-49.4245939, -26.7766923], [-49.4265141, -26.7779547], [-49.4272564, -26.7786308], [-49.4272893, -26.7788155], [-49.4270479, -26.7789832], [-49.4269548, -26.7793308], [-49.4267911, -26.7798231], [-49.4267904, -26.780032], [-49.4277748, -26.7805518], [-49.4282091, -26.7805119], [-49.4288156, -26.7804323], [-49.4296137, -26.780358], [-49.4296926, -26.7802671], [-49.4297228, -26.7796202], [-49.4299061, -26.7793654], [-49.4300368, -26.7790677], [-49.4301512, -26.7789216], [-49.4308059, -26.7785852], [-49.431377, -26.778351], [-49.4315991, -26.7783615], [-49.4321068, -26.7787099], [-49.4323667, -26.7790215], [-49.4323801, -26.7793926], [-49.4326675, -26.7796538], [-49.4340978, -26.7814154], [-49.4351146, -26.7825077], [-49.4353214, -26.7830461], [-49.4353061, -26.783279], [-49.4351639, -26.7834202], [-49.4348819, -26.7834769], [-49.4335205, -26.7834538], [-49.43315, -26.784123], [-49.433331, -26.784723], [-49.4333532, -26.785433], [-49.4333654, -26.7858229], [-49.4327968, -26.7861152], [-49.4321813, -26.7863199], [-49.4315287, -26.7866104], [-49.4314732, -26.7869472], [-49.4312372, -26.7872305], [-49.430926, -26.7874261], [-49.4305909, -26.7874767], [-49.430357, -26.7874329], [-49.429601, -26.7869472], [-49.4290616, -26.7866265], [-49.4283832, -26.7865295], [-49.4281871, -26.7864851], [-49.4276507, -26.7861403], [-49.4272607, -26.7859458], [-49.4270031, -26.7858388], [-49.4267066, -26.7857476], [-49.4260057, -26.7856714], [-49.4258109, -26.7856299], [-49.4255948, -26.785677], [-49.4252689, -26.7858721], [-49.4247003, -26.7862169], [-49.4240673, -26.7863318], [-49.4234128, -26.7861116], [-49.4231017, -26.7857285], [-49.4228656, -26.7853741], [-49.4226618, -26.7849814], [-49.4224365, -26.7847036], [-49.4220932, -26.7845121], [-49.4217391, -26.784196], [-49.4213743, -26.7841194], [-49.4206984, -26.7840045], [-49.4199688, -26.7840141], [-49.4187672, -26.7840811], [-49.4181342, -26.7842152], [-49.4172424, -26.7842881], [-49.416938, -26.7842283], [-49.4163319, -26.7839], [-49.415995, -26.7836683], [-49.4158075, -26.7833498], [-49.4158214, -26.7829747], [-49.4158507, -26.7826697], [-49.415885, -26.7825511], [-49.4160099, -26.7818111], [-49.4159777, -26.7810449], [-49.4154413, -26.7803266], [-49.4149909, -26.7794262], [-49.4149587, -26.7791006], [-49.4147227, -26.7782864], [-49.4145038, -26.7780695], [-49.4141648, -26.7778841], [-49.4139245, -26.7778013], [-49.4137314, -26.7777055], [-49.4136176, -26.7776351], [-49.4134953, -26.7776001], [-49.413328, -26.7776543], [-49.4130597, -26.7777788], [-49.4127808, -26.7778554], [-49.412283, -26.7779354], [-49.411532, -26.7779641], [-49.4110492, -26.7780216], [-49.4105985, -26.7779833], [-49.4098904, -26.7775714], [-49.4098046, -26.7773415], [-49.4098046, -26.7770542], [-49.4097939, -26.776786], [-49.409751, -26.7767189], [-49.4095364, -26.7763645], [-49.4095042, -26.7761347], [-49.4093004, -26.775809], [-49.4088605, -26.7757036], [-49.4084528, -26.7758186], [-49.4081309, -26.7761155], [-49.4074657, -26.7764891], [-49.4066074, -26.7766817], [-49.4057062, -26.7765848], [-49.4046011, -26.7764795], [-49.4039038, -26.7768913], [-49.4035712, -26.7771212], [-49.4034853, -26.7774182], [-49.4036355, -26.7776193], [-49.4039252, -26.7777055], [-49.4043007, -26.7778013], [-49.404687, -26.7779641], [-49.4048479, -26.7781748], [-49.4048801, -26.7784813], [-49.4046333, -26.7789507], [-49.4042471, -26.7796307], [-49.4037965, -26.7798127], [-49.4034317, -26.7799468], [-49.4019565, -26.78101], [-49.4015112, -26.7812111], [-49.4008675, -26.7814027], [-49.4003525, -26.7818911], [-49.3997839, -26.7824275], [-49.3993976, -26.7830213], [-49.3990865, -26.7838067], [-49.3987325, -26.7840845], [-49.3983355, -26.7841802], [-49.3978312, -26.7842473], [-49.3972197, -26.7839695], [-49.3969086, -26.7835481], [-49.3968335, -26.7830118], [-49.3969407, -26.7826095], [-49.39693, -26.7820923], [-49.3966618, -26.7813644], [-49.3964365, -26.7806268], [-49.3962005, -26.7803012], [-49.3955996, -26.7799851], [-49.3949988, -26.7798798], [-49.3930462, -26.779851], [-49.3923917, -26.7798606], [-49.391469, -26.7800234], [-49.3908682, -26.7800043], [-49.3897739, -26.7796978], [-49.3889048, -26.7791135], [-49.3883148, -26.778625], [-49.3874886, -26.778261], [-49.3870488, -26.7780407], [-49.3864657, -26.7780675], [-49.3862119, -26.7780791], [-49.3856218, -26.7781844], [-49.3851176, -26.7784335], [-49.3848815, -26.7785771], [-49.3846777, -26.7787974], [-49.3845811, -26.7790943], [-49.3844953, -26.7793434], [-49.3842593, -26.7795733], [-49.3834009, -26.7798606], [-49.3820491, -26.7797744], [-49.38059, -26.7796211], [-49.3801394, -26.7794775], [-49.3799141, -26.7794487], [-49.3797317, -26.7795158], [-49.379442, -26.7799181], [-49.3792596, -26.7806364], [-49.3791416, -26.7813452], [-49.3790236, -26.781757], [-49.378809, -26.7822359], [-49.3781975, -26.782552], [-49.3773499, -26.7828489], [-49.3762985, -26.7831937], [-49.3760195, -26.7835194], [-49.3758908, -26.7843814], [-49.3757406, -26.7846304], [-49.3752792, -26.7846304], [-49.3746355, -26.784391], [-49.3743351, -26.7840845], [-49.3739596, -26.7838929], [-49.3734231, -26.7837109], [-49.3725005, -26.7833087], [-49.372082, -26.7830213], [-49.3719426, -26.7827532], [-49.3718996, -26.7821402], [-49.3718353, -26.781757], [-49.3718031, -26.7812207], [-49.3719104, -26.7805406], [-49.3722322, -26.7798223], [-49.3724146, -26.7787495], [-49.3723824, -26.7781174], [-49.3723288, -26.7777055], [-49.3720928, -26.7769297], [-49.3718567, -26.7764412], [-49.3717494, -26.7761347], [-49.3714061, -26.7759144], [-49.370816, -26.7758569], [-49.3704727, -26.7758569], [-49.3699577, -26.7761059], [-49.3692496, -26.7760963], [-49.3680587, -26.7760293], [-49.3676939, -26.7759335], [-49.3674794, -26.775876], [-49.3670717, -26.7758665], [-49.3667283, -26.7758856], [-49.3664923, -26.7760868], [-49.3664065, -26.7763837], [-49.3664494, -26.7768339], [-49.3669, -26.777581], [-49.3671253, -26.7782132], [-49.3671789, -26.778625], [-49.3668571, -26.7794775], [-49.3661704, -26.7811057], [-49.3654194, -26.7824467], [-49.3651834, -26.7828968], [-49.3650225, -26.7834906], [-49.3652156, -26.7844772], [-49.3654838, -26.7856361], [-49.3657198, -26.7863352], [-49.3656662, -26.7868907], [-49.3650546, -26.7880113], [-49.3633595, -26.7894479], [-49.3617609, -26.7912005], [-49.3606236, -26.7925509], [-49.3605056, -26.7928669], [-49.3606451, -26.7931734], [-49.3608275, -26.7932979], [-49.3611279, -26.793432], [-49.3616107, -26.7936331], [-49.3619111, -26.7938342], [-49.3619325, -26.7941407], [-49.3617931, -26.7952803], [-49.3617502, -26.7966689], [-49.3616965, -26.7972531], [-49.3613854, -26.7974542], [-49.3606129, -26.7980671], [-49.3600765, -26.7986704], [-49.3596795, -26.7995611], [-49.3595507, -26.8003559], [-49.3594756, -26.8016391], [-49.3592396, -26.8030277], [-49.3584028, -26.8040332], [-49.3581131, -26.8043204], [-49.3577805, -26.8044928], [-49.3569651, -26.8046652], [-49.3566218, -26.8047035], [-49.3562141, -26.8047418], [-49.3557849, -26.804828], [-49.3554952, -26.8049046], [-49.355345, -26.8049908], [-49.355227, -26.8052206], [-49.3551519, -26.8054217], [-49.3551948, -26.8062069], [-49.3551894, -26.8063199], [-49.3551519, -26.807107], [-49.3550661, -26.8074996], [-49.3548622, -26.8077678], [-49.3543258, -26.8079114], [-49.3540039, -26.8080838], [-49.3537464, -26.808304], [-49.3535426, -26.8087062], [-49.353328, -26.8090796], [-49.3527379, -26.8098553], [-49.3523517, -26.8105256], [-49.3520084, -26.8111097], [-49.3515363, -26.8117512], [-49.3507424, -26.8123257], [-49.3501845, -26.8125938], [-49.3499592, -26.8126609], [-49.3496695, -26.8128237], [-49.3494871, -26.8130247], [-49.3494442, -26.8132928], [-49.3492618, -26.8136663], [-49.349015, -26.8138386], [-49.3488541, -26.8140684], [-49.3485644, -26.8142695], [-49.3482962, -26.8146813], [-49.3481889, -26.8149398], [-49.3479899, -26.8151375], [-49.347947, -26.8153673], [-49.3479574, -26.8155867], [-49.3471359, -26.8162685], [-49.3468155, -26.8167378], [-49.3466717, -26.8171043], [-49.3466348, -26.8179035], [-49.3444495, -26.8207445], [-49.3426709, -26.8223611], [-49.3424121, -26.8224784], [-49.3421739, -26.8224857], [-49.3398531, -26.8219982], [-49.3392944, -26.8215693], [-49.3389576, -26.8214556], [-49.3382373, -26.8216164], [-49.3374099, -26.8216098], [-49.33676, -26.8216572], [-49.3365094, -26.8217746], [-49.335614, -26.822746], [-49.3354045, -26.8231235], [-49.3353881, -26.8235231], [-49.336148, -26.8261293], [-49.3360905, -26.8263859], [-49.3357865, -26.8268624], [-49.3356386, -26.8272803], [-49.3356058, -26.8275736], [-49.3358933, -26.8281637], [-49.336148, -26.8295163], [-49.3360905, -26.8299415], [-49.3356551, -26.8306635], [-49.3353223, -26.8307992], [-49.3348993, -26.8308175], [-49.3343283, -26.8305609], [-49.3340695, -26.8305316], [-49.3337327, -26.8305866], [-49.3333791, -26.8311827], [-49.3331594, -26.831591], [-49.3327519, -26.8318427], [-49.3323742, -26.8317936], [-49.3318376, -26.8318108], [-49.3305739, -26.8317009], [-49.3299167, -26.8317705], [-49.328097, -26.8324523], [-49.327103, -26.8330351], [-49.3267045, -26.833156], [-49.3264663, -26.8330864], [-49.3263923, -26.8329434], [-49.3261705, -26.8321993], [-49.3256085, -26.8315033], [-49.3251436, -26.8309275], [-49.3248725, -26.8308468], [-49.3242728, -26.8308688], [-49.3238662, -26.8308212], [-49.3234472, -26.8307039], [-49.3218781, -26.8298425], [-49.3206047, -26.8293513], [-49.3204075, -26.8291021], [-49.3200912, -26.8283543], [-49.3199146, -26.8256418], [-49.3197873, -26.8253925], [-49.3193395, -26.8249673], [-49.3189288, -26.8248024], [-49.3184491, -26.8247075], [-49.3179479, -26.8246926]], [[-49.3112944, -26.8266083], [-49.3092553, -26.8263529], [-49.3087706, -26.8264189], [-49.3074397, -26.8270127], [-49.3069756, -26.8271117], [-49.3054804, -26.8272107], [-49.3042645, -26.8269248], [-49.3040016, -26.8269871], [-49.3038127, -26.8271264], [-49.3033732, -26.828138], [-49.3028228, -26.8288198], [-49.3026009, -26.8289591], [-49.302334, -26.8289188], [-49.3017548, -26.8286952], [-49.2996763, -26.8285706], [-49.2994586, -26.8284093], [-49.2990273, -26.8274233], [-49.298633, -26.8269358], [-49.2979265, -26.8262723], [-49.2974171, -26.8259974], [-49.2961889, -26.8257115], [-49.2954824, -26.8257298], [-49.2949977, -26.8256491], [-49.2935724, -26.8250333], [-49.2929973, -26.824938], [-49.2923606, -26.8250187], [-49.2919047, -26.8251726], [-49.2911407, -26.8258361], [-49.2908079, -26.8259754], [-49.2905984, -26.8259204], [-49.290315, -26.8257188], [-49.289818, -26.8248537], [-49.2892874, -26.8244435]], [[-49.3179479, -26.8246926], [-49.3179106, -26.824691], [-49.3178749, -26.8246901], [-49.3178408, -26.82469], [-49.3178087, -26.8246907], [-49.3177766, -26.8246915], [-49.3177174, -26.8246948], [-49.3176894, -26.8246972], [-49.3176365, -26.8247035], [-49.3176114, -26.8247076], [-49.317587, -26.8247122], [-49.3175634, -26.8247174], [-49.3175404, -26.8247234], [-49.317518, -26.8247301], [-49.317496, -26.8247377], [-49.3174744, -26.8247463], [-49.3174532, -26.8247559], [-49.3174323, -26.8247667], [-49.3174115, -26.8247788], [-49.3173908, -26.8247923], [-49.3173702, -26.8248072], [-49.3173497, -26.8248237], [-49.3173294, -26.8248419], [-49.3173094, -26.824862], [-49.3172899, -26.8248841], [-49.3172708, -26.8249083], [-49.3172524, -26.8249347], [-49.3172347, -26.8249634], [-49.3172177, -26.8249945], [-49.3172016, -26.8250276], [-49.3171864, -26.825062], [-49.3171721, -26.8250973], [-49.3171588, -26.8251328], [-49.3171352, -26.8252026], [-49.3171159, -26.8252669], [-49.3171012, -26.8253244], [-49.3170956, -26.8253511], [-49.3170912, -26.8253766], [-49.317088, -26.8254011], [-49.317086, -26.8254249], [-49.3170852, -26.825448], [-49.3170856, -26.8254708], [-49.3170869, -26.8254936], [-49.3170927, -26.8255641], [-49.3170941, -26.8255894], [-49.3170946, -26.825616], [-49.3170939, -26.8256443], [-49.3170917, -26.8256745], [-49.3170882, -26.8257063], [-49.3170835, -26.8257396], [-49.3170714, -26.8258091], [-49.3170347, -26.8259881], [-49.3170201, -26.8260625], [-49.3170056, -26.8261441], [-49.3169984, -26.8261889], [-49.3169842, -26.8262889], [-49.3169392, -26.8266516], [-49.3169218, -26.8267793], [-49.3169033, -26.8269038], [-49.3168351, -26.8273419], [-49.3168225, -26.8274085], [-49.3168154, -26.8274393], [-49.3168073, -26.827469], [-49.3167982, -26.827498], [-49.3167881, -26.827527], [-49.3167533, -26.8276213], [-49.3167407, -26.8276577], [-49.3167278, -26.8276978], [-49.3167148, -26.8277424], [-49.3167018, -26.827792], [-49.3166888, -26.8278463], [-49.3166758, -26.8279047], [-49.3166628, -26.8279668], [-49.3166367, -26.8280995], [-49.316584, -26.8283842], [-49.3165341, -26.8286659], [-49.3164684, -26.8290573], [-49.3164532, -26.829136], [-49.3164456, -26.8291693], [-49.3164379, -26.8291986], [-49.3164299, -26.8292242], [-49.3164215, -26.8292466], [-49.3164124, -26.8292661], [-49.3164025, -26.8292832], [-49.3163917, -26.8292983], [-49.3163798, -26.8293118], [-49.3163666, -26.8293241], [-49.3163519, -26.8293358], [-49.3163355, -26.8293469], [-49.3163169, -26.8293578], [-49.3162957, -26.8293686], [-49.3162716, -26.8293798], [-49.3162132, -26.8294037], [-49.3161389, -26.8294314], [-49.316096, -26.8294466], [-49.3160025, -26.8294784], [-49.315904, -26.8295098], [-49.3158548, -26.8295244], [-49.3158066, -26.8295379], [-49.3157603, -26.82955], [-49.3157157, -26.8295607], [-49.3156729, -26.82957], [-49.3156317, -26.8295779], [-49.3155922, -26.8295845], [-49.3155542, -26.8295897], [-49.3155177, -26.8295937], [-49.3154827, -26.8295964], [-49.315449, -26.8295978], [-49.3154166, -26.8295981], [-49.3153854, -26.8295973], [-49.3153555, -26.8295954], [-49.3153267, -26.8295926], [-49.315299, -26.8295887], [-49.3152724, -26.829584], [-49.3152468, -26.8295784], [-49.3152221, -26.8295719], [-49.3151982, -26.8295645], [-49.3151749, -26.8295558], [-49.315152, -26.8295457], [-49.3151293, -26.8295338], [-49.3151066, -26.8295201], [-49.3150838, -26.8295042], [-49.3150607, -26.8294859], [-49.3150371, -26.8294651], [-49.3150131, -26.8294421], [-49.3149888, -26.8294172], [-49.3149642, -26.8293907], [-49.3149149, -26.8293347], [-49.3147232, -26.8291058], [-49.3146503, -26.8290209], [-49.3145992, -26.828964], [-49.3145724, -26.8289354], [-49.3145444, -26.8289066], [-49.3145151, -26.8288776], [-49.3144844, -26.8288485], [-49.3144519, -26.8288192], [-49.3144273, -26.8287979], [-49.3143817, -26.8287599], [-49.314344, -26.82873], [-49.3143049, -26.8287001], [-49.3142643, -26.8286702], [-49.3142225, -26.8286404], [-49.3141796, -26.8286107], [-49.3141356, -26.8285811], [-49.3140453, -26.8285229], [-49.3139995, -26.8284945], [-49.3139081, -26.8284396], [-49.313863, -26.8284134], [-49.3137755, -26.8283641], [-49.3136927, -26.8283192], [-49.3136523, -26.8282982], [-49.3135719, -26.828258], [-49.3134891, -26.828219], [-49.313401, -26.8281797], [-49.3131497, -26.8280709], [-49.3130363, -26.8280195], [-49.3129767, -26.8279914], [-49.312898, -26.8279528], [-49.3127179, -26.8278612], [-49.3125751, -26.8277847], [-49.3125001, -26.8277433], [-49.3123191, -26.8276142], [-49.3121712, -26.8274834], [-49.3119032, -26.8272329], [-49.3116928, -26.8269992], [-49.3113613, -26.8266694], [-49.3112944, -26.8266083]], [[-49.2746502, -26.8478285], [-49.274388, -26.8484035], [-49.2722703, -26.8499223], [-49.2709951, -26.8504558], [-49.2669984, -26.8511118], [-49.2666123, -26.8513793], [-49.2663987, -26.8518411], [-49.2663781, -26.8524421], [-49.2671396, -26.8546472], [-49.2670459, -26.8549056], [-49.2669001, -26.8550695], [-49.2622481, -26.8576829], [-49.2618003, -26.8577379], [-49.2614799, -26.8576536], [-49.261328, -26.8573018], [-49.2615069, -26.8560257], [-49.2613558, -26.8557925], [-49.2609899, -26.8557096], [-49.2581318, -26.8570881], [-49.2578239, -26.8574872], [-49.2577019, -26.8580883], [-49.258219, -26.8590678], [-49.2581667, -26.8595498], [-49.2564239, -26.8618041], [-49.255814, -26.8634572], [-49.2558489, -26.8647424], [-49.2557152, -26.8653798], [-49.2549022, -26.8665195], [-49.2542024, -26.870021]], [[-49.2542024, -26.870021], [-49.2540538, -26.8704685], [-49.2531418, -26.8732356], [-49.2527759, -26.8736864], [-49.2523227, -26.87379], [-49.2501792, -26.873334], [-49.2484307, -26.8733599], [-49.2480298, -26.8734791], [-49.2476581, -26.8740232], [-49.2473095, -26.8753653], [-49.2469377, -26.8758731], [-49.2447419, -26.8769456], [-49.2436847, -26.8771218], [-49.2419942, -26.8770959], [-49.2415992, -26.8772565], [-49.2407467, -26.8786842]], [[-49.2736979, -26.8282047], [-49.2717879, -26.8304883], [-49.2710377, -26.8311351], [-49.2687063, -26.8322233], [-49.2683666, -26.8325402]], [[-49.2815642, -26.8214788], [-49.2812791, -26.8217848], [-49.2810258, -26.822245], [-49.280621, -26.8231529], [-49.2806621, -26.8235121], [-49.2808017, -26.8237613], [-49.2810236, -26.8239153], [-49.2812125, -26.8239776], [-49.2814877, -26.823941], [-49.2819847, -26.8234864], [-49.2823462, -26.8234314], [-49.2831061, -26.823655], [-49.2835539, -26.8239226], [-49.2838414, -26.8243039], [-49.2841084, -26.8253302], [-49.2850121, -26.8267378], [-49.2850655, -26.8271667], [-49.2849505, -26.8273646], [-49.2847615, -26.8274746], [-49.2844616, -26.8273866], [-49.2821942, -26.825979], [-49.2814877, -26.8257188], [-49.2805471, -26.8255612], [-49.2802431, -26.8256162], [-49.2800829, -26.8257664], [-49.2798036, -26.8267965], [-49.2794298, -26.827064], [-49.278978, -26.8271777], [-49.2786699, -26.8270714], [-49.27814, -26.8266498], [-49.2775855, -26.8264006], [-49.2771583, -26.8263236], [-49.2766695, -26.8264226], [-49.2764959, -26.8265311], [-49.2762587, -26.8267122], [-49.2760739, -26.8270274], [-49.2759757, -26.8275725], [-49.27547, -26.8279025], [-49.2752658, -26.8279775], [-49.2751353, -26.8279883], [-49.274988, -26.8279605]], [[-49.2892874, -26.8244435], [-49.2883187, -26.8240729], [-49.2873082, -26.8237577], [-49.2868218, -26.8236737], [-49.2852914, -26.8234094], [-49.2846629, -26.8230685], [-49.284092, -26.822636], [-49.2830568, -26.8215289], [-49.2826301, -26.8213016], [-49.2822072, -26.8212193], [-49.2818863, -26.8212916], [-49.2815642, -26.8214788]], [[-49.2683666, -26.8325402], [-49.2678733, -26.8331933], [-49.2676515, -26.8337505], [-49.2675981, -26.8343846], [-49.2677911, -26.8351506], [-49.2681033, -26.8353412], [-49.2684319, -26.8353339], [-49.2693931, -26.8348244], [-49.2697299, -26.8347511], [-49.2701037, -26.8348611], [-49.2702845, -26.8350846], [-49.2706665, -26.8371518], [-49.270661, -26.8409213], [-49.2706583, -26.8427375], [-49.2708646, -26.8432652]], [[-49.2708646, -26.8432652], [-49.2711322, -26.8436194], [-49.2738458, -26.8461166], [-49.2744948, -26.8472234], [-49.2746502, -26.8478285]], [[-49.2407467, -26.8786842], [-49.2398449, -26.8800908], [-49.2397635, -26.8808939], [-49.2396996, -26.8837488], [-49.2394208, -26.8851322], [-49.2387005, -26.8870596], [-49.2375679, -26.8887999], [-49.2361567, -26.8905078], [-49.2355742, -26.8913441]], [[-49.274988, -26.8279605], [-49.2748361, -26.8279327], [-49.2745111, -26.8279393], [-49.2740529, -26.8280098], [-49.2736979, -26.8282047]]]}}
