{"type": "Feature", "properties": {"rio": "guabiruba", "fonte": "© OpenStreetMap contributors, ODbL (openstreetmap.org/copyright)", "trechos": 4, "origem": [{"bruto": "tracado-guabiruba-osm.json", "base_osm": "2026-10-06T12:56:29Z"}], "cobertura": "RECORTADO na caixa do mapa (extensão do tronco e das réguas do cadastro), para não mudar o enquadramento do Monitor. Baixado por scripts/baixar_tracados_afluentes.py. Só o trecho ligado à régua de Guabiruba (DCSC-00029): o Rio Guabiruba Norte a partir de ~2 km acima da estação e o Rio Guabiruba até o Itajaí-Mirim. A cabeceira do Norte, solta no OSM por uma lacuna de ~1,8 km, fica de fora; o Rio Guabiruba Sul não é o curso da estação."}, "geometry": {"type": "MultiLineString", "coordinates": [[[-48.963256, -27.0958016], [-48.9631434, -27.096033], [-48.963022, -27.0962907], [-48.9629363, -27.0964267], [-48.9628149, -27.0966313], [-48.962662, -27.0967726], [-48.9623042, -27.0969437], [-48.9620098, -27.0971665], [-48.961663, -27.0973259], [-48.9614668, -27.0974216], [-48.9612941, -27.0974423], [-48.9610792, -27.0974299], [-48.9609018, -27.097434], [-48.9606655, -27.0974325], [-48.9603733, -27.097454], [-48.9601968, -27.0974946], [-48.9601096, -27.0976464], [-48.9600612, -27.0978913], [-48.9600233, -27.0980285], [-48.960027, -27.0981207], [-48.9599771, -27.0982988], [-48.9598102, -27.0985199], [-48.95969, -27.0986985], [-48.9595819, -27.0988443], [-48.9595521, -27.0990014], [-48.959188, -27.0994553], [-48.9590703, -27.0996607], [-48.9589964, -27.0998827], [-48.9589917, -27.1001862], [-48.9589124, -27.1005978], [-48.9588172, -27.1007097], [-48.9587022, -27.1008338], [-48.9582554, -27.1009727], [-48.9580484, -27.1010417], [-48.9577869, -27.1011174], [-48.9576468, -27.1011673], [-48.9573339, -27.1013377], [-48.9569229, -27.1014999], [-48.9566474, -27.1015872], [-48.9564092, -27.1015955], [-48.9563327, -27.1015228], [-48.9563048, -27.1014434], [-48.9563205, -27.1012712], [-48.9563587, -27.1010509], [-48.9564115, -27.1008554], [-48.9563794, -27.1006879], [-48.9563112, -27.1005354], [-48.9562516, -27.1004475], [-48.956155, -27.1003606], [-48.9560806, -27.1002413], [-48.9560184, -27.0998432], [-48.9560215, -27.0996898], [-48.9559964, -27.0994248], [-48.9559843, -27.0991178], [-48.9559889, -27.0988974], [-48.955948, -27.0987918], [-48.9557274, -27.0987103], [-48.9555583, -27.0986096], [-48.9552978, -27.0986064], [-48.9551206, -27.0985349], [-48.9548681, -27.0985856], [-48.9546253, -27.0985357], [-48.9542654, -27.098332], [-48.9539885, -27.0981859], [-48.9538173, -27.0980833], [-48.9535979, -27.0980618], [-48.9533597, -27.0980327], [-48.9530001, -27.0979495], [-48.9527947, -27.0979062], [-48.9526032, -27.0978498], [-48.952267, -27.0977666], [-48.9518233, -27.0977209], [-48.9515244, -27.0977001], [-48.9512582, -27.0976752], [-48.9508141, -27.0975734], [-48.9504796, -27.0976001], [-48.9503231, -27.0976691], [-48.9502642, -27.0977271], [-48.9502052, -27.0979163], [-48.9501748, -27.0981865], [-48.9500907, -27.0983819], [-48.950002, -27.0984983], [-48.9498432, -27.0986064], [-48.9496852, -27.0988625], [-48.9494183, -27.0991302], [-48.9492408, -27.0992009], [-48.9490542, -27.0993357], [-48.9488579, -27.0994254], [-48.948657, -27.0995834], [-48.9483909, -27.099758], [-48.9482601, -27.0998536], [-48.948134, -27.1001321], [-48.9479659, -27.1003899], [-48.9478538, -27.1004855], [-48.9477532, -27.1005559], [-48.9476092, -27.1005653], [-48.9473758, -27.100518], [-48.947228, -27.1004232], [-48.9469852, -27.1004148], [-48.9466443, -27.1004148], [-48.9463769, -27.1003382], [-48.9460045, -27.1004232], [-48.945827, -27.1004779], [-48.9456496, -27.1006185], [-48.9453273, -27.1007058], [-48.9449503, -27.1008129], [-48.9445559, -27.1009141], [-48.9443272, -27.1010168], [-48.9440203, -27.101051], [-48.9437162, -27.1010218], [-48.943464, -27.101001], [-48.9432072, -27.1008888], [-48.9429643, -27.1007522], [-48.9427471, -27.100694], [-48.9423339, -27.1006726], [-48.9419696, -27.1006476], [-48.9416567, -27.1005936], [-48.9414348, -27.1005538], [-48.9413549, -27.1005764], [-48.9412674, -27.1005551], [-48.9411057, -27.1004855], [-48.940916, -27.1004168], [-48.9408581, -27.1003899], [-48.9404204, -27.1002199], [-48.940228, -27.1001093], [-48.9400175, -27.0999492], [-48.9398027, -27.0996998], [-48.9396113, -27.0995293], [-48.939461, -27.0993334], [-48.9391449, -27.0992053], [-48.9388853, -27.0991962], [-48.9386025, -27.0992591], [-48.9382616, -27.0992841], [-48.9380421, -27.0992799], [-48.937782, -27.0992005], [-48.9375625, -27.0990841], [-48.9374023, -27.0989099], [-48.9371642, -27.0986314], [-48.93694, -27.0983694], [-48.9367626, -27.0982988], [-48.9365291, -27.0982738], [-48.9362816, -27.09812], [-48.935964, -27.0978456], [-48.9357165, -27.0976128], [-48.9354648, -27.0974419], [-48.9352401, -27.0973301], [-48.9348245, -27.0971929], [-48.934507, -27.0971389], [-48.9341707, -27.0971513], [-48.9340073, -27.0971763], [-48.9337037, -27.097168], [-48.9334282, -27.0971721], [-48.9330032, -27.0972303], [-48.9326623, -27.097222], [-48.9324615, -27.0971596], [-48.9321299, -27.0971596], [-48.9318046, -27.0971347], [-48.9313983, -27.097143], [-48.9309406, -27.0971471], [-48.9305483, -27.0973467], [-48.9302728, -27.0976003], [-48.9298327, -27.0978433]], [[-48.9921096, -27.0811761], [-48.9918135, -27.0816113], [-48.9917911, -27.0816172], [-48.9916311, -27.0816447], [-48.9913682, -27.0816781], [-48.9912931, -27.081745], [-48.9912288, -27.0818739], [-48.9911886, -27.0819696], [-48.9911718, -27.0820367], [-48.9910531, -27.0820938], [-48.9908899, -27.0821079], [-48.9907425, -27.0821254], [-48.9906627, -27.0821734], [-48.9906226, -27.0823038], [-48.9906065, -27.082428], [-48.990578, -27.0826913], [-48.9905358, -27.0827327], [-48.9904777, -27.0827862], [-48.9903559, -27.0828028], [-48.9902609, -27.0828231], [-48.9901905, -27.082905], [-48.9901621, -27.0830156], [-48.990113, -27.0831014], [-48.9900218, -27.0832208], [-48.9897589, -27.0834167], [-48.988568, -27.0840471], [-48.9884661, -27.0841235], [-48.9883749, -27.0842382], [-48.9882783, -27.0844053], [-48.9880584, -27.085117], [-48.9879887, -27.085265], [-48.9876802, -27.0856256], [-48.9876306, -27.0857809], [-48.987587, -27.0858108], [-48.9875219, -27.0858955], [-48.987361, -27.0860149], [-48.9872819, -27.0861391], [-48.9872617, -27.0862537], [-48.9872428, -27.0863276], [-48.9871996, -27.0864182], [-48.987213, -27.0866733], [-48.9872676, -27.0869315], [-48.9872054, -27.0870895], [-48.9871357, -27.0873283], [-48.9870887, -27.0874065], [-48.9869054, -27.0874725], [-48.9866709, -27.0875684], [-48.9861648, -27.0877773], [-48.9856299, -27.0881738], [-48.9855532, -27.0882214], [-48.985344, -27.0883201], [-48.9852867, -27.0883471], [-48.9852741, -27.0883531], [-48.9850168, -27.0884745], [-48.98499, -27.0884828], [-48.9845245, -27.0886356], [-48.9839534, -27.0888033], [-48.9837953, -27.0888725], [-48.9831714, -27.0891193], [-48.9830588, -27.0891766], [-48.9828174, -27.0892005], [-48.9825652, -27.0891718], [-48.9822219, -27.0891432], [-48.9821147, -27.0890633], [-48.9820234, -27.0889617], [-48.9820127, -27.0888327], [-48.9818464, -27.0886465], [-48.9816251, -27.088576], [-48.9812188, -27.0884315], [-48.9811007, -27.0883169], [-48.9810042, -27.0881784], [-48.9809435, -27.0879993], [-48.9808089, -27.0878798], [-48.9806546, -27.0877205], [-48.9805469, -27.0875625], [-48.9805102, -27.0874028], [-48.9804458, -27.087337], [-48.9801729, -27.0871714], [-48.979989, -27.0870794], [-48.9797528, -27.0870215], [-48.9793412, -27.086864], [-48.9791222, -27.0867847], [-48.9789345, -27.0866423], [-48.9786826, -27.0866338], [-48.9785589, -27.0867225], [-48.9785345, -27.0867407], [-48.9782787, -27.0869354], [-48.9781229, -27.0870009], [-48.9777773, -27.0870425], [-48.9776007, -27.0869673], [-48.9772981, -27.0867082], [-48.9771686, -27.0865446], [-48.9768389, -27.0860569], [-48.9766837, -27.0859941], [-48.976291, -27.0861077], [-48.9759398, -27.0862454], [-48.9757571, -27.0863062], [-48.9754423, -27.0862442], [-48.9749377, -27.0862675], [-48.9744351, -27.0862638], [-48.9742782, -27.0863374], [-48.9741592, -27.0863619], [-48.9740531, -27.0863409], [-48.9738318, -27.0860799], [-48.9738251, -27.086072], [-48.973613, -27.0859975], [-48.9733314, -27.0859199], [-48.9729952, -27.0858533], [-48.9728978, -27.0858252], [-48.9726332, -27.0857488], [-48.9725098, -27.0857132], [-48.9723572, -27.0856889], [-48.9722875, -27.0856348], [-48.971995, -27.0855932], [-48.9716104, -27.0855499], [-48.9713233, -27.0855373], [-48.9711179, -27.0855441], [-48.9708209, -27.0854984], [-48.970682, -27.0854785], [-48.9702438, -27.0854349], [-48.9698827, -27.085344], [-48.9696004, -27.0852059], [-48.9694316, -27.0852014], [-48.9692499, -27.085055], [-48.9690777, -27.0849154], [-48.9687894, -27.0848861], [-48.9685702, -27.0849616], [-48.9682863, -27.0851129], [-48.9681663, -27.0852145], [-48.9680654, -27.0853175], [-48.9679636, -27.0854411], [-48.9677997, -27.0856381], [-48.9677718, -27.0857869], [-48.9677702, -27.0858875], [-48.9676266, -27.0862278], [-48.9675877, -27.0864152], [-48.967559, -27.0866172], [-48.9675407, -27.086768], [-48.9673532, -27.0872197], [-48.9672218, -27.087526], [-48.9668432, -27.0877171], [-48.9663664, -27.0879485], [-48.9660237, -27.0881743], [-48.9659376, -27.0883229], [-48.9659179, -27.0885881], [-48.9656889, -27.0888077], [-48.9654761, -27.0891036], [-48.9653922, -27.0892697], [-48.9652389, -27.0897041], [-48.9652057, -27.0902855], [-48.9652288, -27.0904333], [-48.965215, -27.090801], [-48.9651738, -27.0910348], [-48.9650104, -27.0916003], [-48.9643744, -27.0930711], [-48.9641129, -27.0934452], [-48.9640195, -27.0936781], [-48.9638354, -27.0942332], [-48.9637799, -27.0944581], [-48.9636382, -27.0947653], [-48.9635027, -27.0951384], [-48.9634102, -27.0953413], [-48.9633116, -27.0956047], [-48.963277, -27.0957438], [-48.963256, -27.0958016]], [[-48.993364, -27.0808038], [-48.9930783, -27.0808182], [-48.9929415, -27.0808194], [-48.992857, -27.0808122], [-48.992786, -27.0806928], [-48.9927202, -27.0806236], [-48.992613, -27.0806296], [-48.9925218, -27.0806702], [-48.9924036, -27.0807802], [-48.9921096, -27.0811761]], [[-48.9978141, -27.0796755], [-48.9976971, -27.0797469], [-48.9975923, -27.0798511], [-48.9974629, -27.0798072], [-48.9973335, -27.0797249], [-48.9971548, -27.0797469], [-48.9971055, -27.0798566], [-48.99705, -27.0799718], [-48.9969206, -27.0800267], [-48.9967666, -27.0800377], [-48.9966372, -27.0800761], [-48.9965817, -27.0802681], [-48.9964215, -27.0804053], [-48.9962798, -27.0803943], [-48.9960949, -27.0803723], [-48.9958669, -27.0804437], [-48.995602, -27.0806302], [-48.9954972, -27.0807674], [-48.9954048, -27.0809045], [-48.9952692, -27.0809429], [-48.995072, -27.0809429], [-48.9948933, -27.0808332], [-48.9947393, -27.0807893], [-48.9945297, -27.0808222], [-48.9943634, -27.0807893], [-48.9941723, -27.080707], [-48.9938414, -27.0807573], [-48.9936067, -27.0807955], [-48.993364, -27.0808038]]]}}
