{"type": "Feature", "properties": {"rio": "hercilio", "fonte": "© OpenStreetMap contributors, ODbL (openstreetmap.org/copyright)", "trechos": 11, "origem": [{"bruto": "tracado-hercilio-osm.json", "base_osm": "2026-10-05T19:47:51Z"}], "cobertura": "RECORTADO ao sul da latitude -26.84: de José Boiteux (barragem Norte) até o Açu, passando por Ibirama. As nascentes, em Itaiópolis, ficam fora para não mudar o enquadramento do Monitor."}, "geometry": {"type": "MultiLineString", "coordinates": [[[-49.6142027, -27.0019417], [-49.6126147, -27.0034895], [-49.6109522, -27.003524], [-49.608676, -27.0034642], [-49.6059896, -27.0039827], [-49.6043321, -27.0049071], [-49.6030053, -27.0077202], [-49.601462, -27.0101715]], [[-49.601462, -27.0101715], [-49.6008171, -27.0116105], [-49.599732, -27.0134423], [-49.5986675, -27.015423], [-49.5984336, -27.0161316], [-49.5981763, -27.0167568], [-49.5979425, -27.0180093], [-49.5977038, -27.0194077], [-49.5965739, -27.0206454], [-49.5956499, -27.0216541], [-49.5952106, -27.0219607], [-49.5951177, -27.0220192], [-49.5943398, -27.0225085], [-49.5937784, -27.0230712], [-49.5931702, -27.0238214], [-49.5930229, -27.024682], [-49.5930571, -27.0255687], [-49.5937444, -27.0275728], [-49.5942812, -27.030356], [-49.5946595, -27.0320567], [-49.5947039, -27.0334345], [-49.594661, -27.03629], [-49.5939438, -27.0380058], [-49.5936139, -27.039204], [-49.5934758, -27.0400521], [-49.5928192, -27.0412987], [-49.5924303, -27.0421033], [-49.5914876, -27.0438659], [-49.5906103, -27.0453504], [-49.589747, -27.0468203]], [[-49.5702481, -27.037686], [-49.5700814, -27.0380948], [-49.5701977, -27.0386535], [-49.5700039, -27.0390929], [-49.5694333, -27.0392921], [-49.5687432, -27.039321], [-49.5672975, -27.0393154], [-49.5661264, -27.0393376], [-49.5650052, -27.0393065], [-49.5638939, -27.0389425], [-49.5631863, -27.0387783], [-49.562379, -27.0387073], [-49.5608043, -27.0389869], [-49.5600519, -27.0388005], [-49.5598177, -27.0383345], [-49.559723, -27.0373136], [-49.5599123, -27.0365324], [-49.5600917, -27.0359642], [-49.5601017, -27.0348768], [-49.5599572, -27.0338115], [-49.5598127, -27.0332611], [-49.5597678, -27.0320848], [-49.5597379, -27.0312414], [-49.5592795, -27.0306067], [-49.5582181, -27.0298432], [-49.557351, -27.0294215], [-49.5570071, -27.0290309], [-49.5569473, -27.0283073], [-49.5570919, -27.0275172], [-49.5571904, -27.0267202], [-49.5574803, -27.0252888], [-49.5577984, -27.0244641], [-49.5577945, -27.0236685], [-49.5574852, -27.0223115], [-49.5565982, -27.0213882], [-49.5556015, -27.0208199], [-49.5541165, -27.0198344], [-49.5530701, -27.0196391], [-49.5522628, -27.0197101], [-49.5514555, -27.0202428], [-49.5512651, -27.0209154], [-49.5510163, -27.0211683], [-49.5500677, -27.0219466], [-49.5496779, -27.0248707], [-49.5481431, -27.0255632], [-49.5462694, -27.0259894], [-49.5455518, -27.0266108], [-49.5452673, -27.0283732], [-49.5444356, -27.0290789], [-49.5445951, -27.0303395], [-49.546444, -27.0319628], [-49.5466033, -27.0334398], [-49.5469282, -27.0340215], [-49.5475053, -27.0352477], [-49.5477731, -27.0362897], [-49.5474348, -27.037181], [-49.5465328, -27.0380724], [-49.5456689, -27.039496], [-49.5458438, -27.0403624], [-49.5464623, -27.0416251], [-49.5466033, -27.0430061], [-49.5470543, -27.0439476], [-49.5474912, -27.0446882], [-49.5477026, -27.045228], [-49.5479564, -27.0462699], [-49.5479, -27.0471863], [-49.5472234, -27.0479772], [-49.5458703, -27.0484918], [-49.5443904, -27.0483538], [-49.5427977, -27.0483035], [-49.5414869, -27.0483161], [-49.5403734, -27.0489061], [-49.5395841, -27.0499103], [-49.5385605, -27.0510807], [-49.537847, -27.0520171], [-49.537316, -27.0526572], [-49.5368216, -27.053287], [-49.5365796, -27.0536992], [-49.5364974, -27.0538393], [-49.5366243, -27.0553832], [-49.536582, -27.0564502], [-49.5362469, -27.0574022], [-49.5347442, -27.0589323], [-49.5340308, -27.0592743], [-49.5322831, -27.0598141], [-49.5307468, -27.0603161], [-49.5287172, -27.0604793], [-49.5277446, -27.0603789], [-49.5267859, -27.0600841], [-49.5256814, -27.060209], [-49.5238554, -27.0602658], [-49.5229488, -27.0597341], [-49.5218579, -27.0587909], [-49.5216332, -27.058404], [-49.5213883, -27.0582066], [-49.5203731, -27.0574669], [-49.5190905, -27.0567389], [-49.5169904, -27.0548686], [-49.5163844, -27.0545673], [-49.5159897, -27.0545046], [-49.5156373, -27.0546301], [-49.5146225, -27.0555339], [-49.5130157, -27.0578183], [-49.5117049, -27.0587221], [-49.5109579, -27.0587221], [-49.51007, -27.0584836], [-49.509182, -27.057492], [-49.5085055, -27.0566761], [-49.5079558, -27.0563874], [-49.5070396, -27.0564251], [-49.5064476, -27.0569271], [-49.5059825, -27.0578685], [-49.5047845, -27.059563], [-49.5040093, -27.0607554], [-49.5037415, -27.0614458], [-49.503079, -27.0632783], [-49.5019937, -27.0646715], [-49.5010494, -27.0658387], [-49.5007957, -27.0666671], [-49.5005702, -27.0680728], [-49.500697, -27.0692275], [-49.5006407, -27.0701562], [-49.5000487, -27.0717501], [-49.4998232, -27.0729675], [-49.499203, -27.0748877], [-49.4984983, -27.0759544], [-49.4979106, -27.0773408], [-49.4971164, -27.0781508], [-49.4965048, -27.0786251], [-49.4955739, -27.0788091]], [[-49.6804697, -26.8731815], [-49.6801371, -26.874639], [-49.6797901, -26.8763933], [-49.6797611, -26.8777347], [-49.6798913, -26.8787537], [-49.6802094, -26.880611], [-49.6804552, -26.8811785], [-49.6807011, -26.8818234], [-49.6812939, -26.8826617], [-49.6817711, -26.8832421], [-49.6824363, -26.8842998], [-49.6833762, -26.8859506], [-49.6840703, -26.8873435]], [[-49.6840703, -26.8873435], [-49.6844078, -26.888407], [-49.6847496, -26.8894838], [-49.6847934, -26.8899617], [-49.68475, -26.890413], [-49.6844651, -26.8905786], [-49.683629, -26.8907514], [-49.6826609, -26.8908749]], [[-49.7119212, -26.8404782], [-49.7111114, -26.84262], [-49.7106631, -26.843678], [-49.7103816, -26.8441724], [-49.7096654, -26.8446327], [-49.707236, -26.8458068], [-49.7067189, -26.8459964], [-49.7064147, -26.8461607], [-49.7062764, -26.8463023], [-49.705984, -26.8465946], [-49.705646, -26.8469775], [-49.7053725, -26.8473437], [-49.7051971, -26.8478453], [-49.705226, -26.8482581], [-49.7054718, -26.8485807], [-49.7061225, -26.8490322], [-49.7071926, -26.8496644], [-49.7078144, -26.8500257], [-49.708147, -26.8504127], [-49.7082916, -26.8506836], [-49.7083061, -26.8512126], [-49.7082193, -26.8520125], [-49.7081759, -26.8529543], [-49.7079156, -26.8543089], [-49.7074818, -26.8558312], [-49.7069323, -26.8569665], [-49.7061948, -26.8579469], [-49.7054249, -26.8587985]], [[-49.7054249, -26.8587985], [-49.7044017, -26.8593402], [-49.7025666, -26.859897], [-49.7011048, -26.8604367], [-49.7001648, -26.8606302], [-49.6994997, -26.8605012], [-49.6977644, -26.8601013], [-49.6960291, -26.8598046], [-49.6940336, -26.8596111], [-49.6903896, -26.8595079], [-49.6881627, -26.8595595], [-49.6874975, -26.8597143], [-49.6869624, -26.8600368], [-49.6866154, -26.8604496], [-49.6858056, -26.8618944], [-49.6851115, -26.8634424], [-49.6847934, -26.8644873], [-49.6848223, -26.8652484], [-49.6849814, -26.8660482], [-49.6849214, -26.8664111], [-49.6848512, -26.8668351], [-49.6846343, -26.8676348], [-49.6839113, -26.8687829], [-49.6825086, -26.8700857], [-49.6817009, -26.871002], [-49.6807011, -26.8726268], [-49.6804697, -26.8731815]], [[-49.6826609, -26.8908749], [-49.6803199, -26.8914094]], [[-49.6803199, -26.8914094], [-49.6794758, -26.8918627], [-49.6785676, -26.8929294], [-49.6779972, -26.8933147], [-49.6749899, -26.8936027], [-49.6729624, -26.8938044], [-49.6722973, -26.8937786], [-49.6712218, -26.8935388], [-49.6690292, -26.8927985], [-49.6683929, -26.8925535], [-49.6670481, -26.8923729], [-49.6653852, -26.8920118], [-49.6646043, -26.8918957], [-49.6633173, -26.8920118], [-49.6616399, -26.8924503], [-49.6608653, -26.8930135], [-49.6607782, -26.8931103], [-49.6605843, -26.8934562], [-49.6607144, -26.8942042], [-49.6608269, -26.8946639], [-49.6615531, -26.8967061], [-49.662146, -26.8983697], [-49.6623195, -26.8990274], [-49.6623485, -26.8995174], [-49.6621557, -26.90011], [-49.6618134, -26.9006394], [-49.6612267, -26.9010813], [-49.660136, -26.9014647], [-49.6590949, -26.9019676], [-49.6585997, -26.9023384], [-49.6579525, -26.903154], [-49.6574464, -26.9044524], [-49.6571572, -26.9053075], [-49.6569403, -26.9064681], [-49.6569979, -26.9071093], [-49.6570993, -26.907951], [-49.6574785, -26.9087662], [-49.658314, -26.9097563], [-49.6594006, -26.9107944], [-49.6600203, -26.9113294], [-49.6602951, -26.9122191], [-49.6604108, -26.9127865], [-49.660618, -26.9141652], [-49.6605409, -26.9150816], [-49.6598491, -26.9165933], [-49.6595721, -26.9171447], [-49.6589792, -26.9175186], [-49.6582153, -26.9177931], [-49.6536867, -26.9184341], [-49.6528335, -26.9186661], [-49.6523997, -26.9190143], [-49.652096, -26.9194398], [-49.6509752, -26.9203639], [-49.6491172, -26.921232], [-49.6478998, -26.9216492], [-49.6464275, -26.9226244], [-49.6450827, -26.9240685], [-49.6444175, -26.924971], [-49.6435643, -26.9263247], [-49.6426076, -26.9279405], [-49.6422918, -26.92929], [-49.6423352, -26.9306824], [-49.6423786, -26.931211], [-49.6420179, -26.9317378], [-49.6419448, -26.9325518], [-49.6420957, -26.9330972], [-49.6422051, -26.9334929], [-49.6419448, -26.93455], [-49.6417558, -26.9348923], [-49.6415399, -26.9359939], [-49.6415254, -26.9372959], [-49.6412796, -26.9385335], [-49.6411928, -26.9393457], [-49.6407735, -26.9399129], [-49.6404987, -26.9408153], [-49.6398191, -26.9418595], [-49.6384141, -26.9441801], [-49.6357276, -26.947568], [-49.6333687, -26.9498459], [-49.632863, -26.9513705], [-49.6323997, -26.9531877], [-49.6326082, -26.9545506], [-49.6340677, -26.9554385], [-49.6352723, -26.9570286], [-49.6364338, -26.9582945], [-49.6369571, -26.958796], [-49.637478, -26.9593759], [-49.6378098, -26.9600899], [-49.6380031, -26.9607594], [-49.6379058, -26.9615085], [-49.6375791, -26.9625067], [-49.636126, -26.9648858], [-49.6343102, -26.966492], [-49.6330361, -26.9670229], [-49.6261325, -26.9685921], [-49.6217377, -26.9693317], [-49.6206262, -26.9692074], [-49.6175524, -26.9687802], [-49.6169288, -26.968791], [-49.6123882, -26.9701637], [-49.611657, -26.970545], [-49.6114656, -26.9707818], [-49.6113464, -26.971055], [-49.6113987, -26.9721021], [-49.6125107, -26.9735473], [-49.6127613, -26.9749347], [-49.6117694, -26.9769746], [-49.6079701, -26.979163], [-49.6070434, -26.9799888], [-49.60673, -26.9808418], [-49.6069044, -26.9814339], [-49.6087577, -26.9823423], [-49.6136227, -26.9844893], [-49.6164026, -26.9872143], [-49.6166742, -26.9880545], [-49.616588, -26.9888658], [-49.6146883, -26.9921274], [-49.6142713, -26.9993522], [-49.6142027, -27.0019417]], [[-49.5701489, -27.0375426], [-49.5702481, -27.037686]], [[-49.589747, -27.0468203], [-49.5879575, -27.0480706], [-49.5873052, -27.0480185], [-49.5862818, -27.0479924], [-49.5856385, -27.047706], [-49.5853461, -27.0472893], [-49.5852291, -27.0468205], [-49.5849952, -27.0462996], [-49.5848782, -27.0458048], [-49.5847905, -27.0445026], [-49.5851121, -27.0440599], [-49.5856385, -27.0434609], [-49.5863695, -27.0427056], [-49.5869836, -27.0418722], [-49.587393, -27.0410648], [-49.5875099, -27.0400751], [-49.5873052, -27.0393719], [-49.5865157, -27.0389647], [-49.585697, -27.0380697], [-49.5854046, -27.0376529], [-49.5847905, -27.0367413], [-49.5844104, -27.0359339], [-49.5842934, -27.0350744], [-49.5845187, -27.0348106], [-49.58473, -27.0344643], [-49.5852291, -27.0338763], [-49.586116, -27.0331176], [-49.586892, -27.0322294], [-49.587647, -27.0314442], [-49.5881077, -27.0306448], [-49.5882117, -27.0297609], [-49.5884456, -27.0291097], [-49.5889427, -27.0286148], [-49.5889031, -27.0278747], [-49.5888258, -27.0267654], [-49.5885918, -27.0260621], [-49.5877899, -27.0249796], [-49.5867966, -27.0252798], [-49.5861174, -27.025723], [-49.5849568, -27.0262205], [-49.5843576, -27.0265096], [-49.5836501, -27.0262965], [-49.581457, -27.0266872], [-49.57929, -27.027413], [-49.5786001, -27.0273912], [-49.5776973, -27.0273627], [-49.5764711, -27.0272874], [-49.5753717, -27.0273753], [-49.5745965, -27.0277143], [-49.5742583, -27.0283546], [-49.5744391, -27.0294248], [-49.5746998, -27.030988], [-49.5743756, -27.0325887], [-49.5736216, -27.0336935], [-49.5720289, -27.0345535], [-49.5710691, -27.0344497], [-49.5698748, -27.0338518], [-49.5689703, -27.0344091], [-49.5682797, -27.0349615], [-49.5683713, -27.0360412], [-49.5693227, -27.0372276], [-49.5701489, -27.0375426]]]}}
