{"type": "Feature", "properties": {"rio": "itajai-do-sul", "fonte": "© OpenStreetMap contributors, ODbL (openstreetmap.org/copyright)", "trechos": 19, "cobertura": "RECORTADO na caixa do mapa (extensão do tronco e das réguas do cadastro), para não mudar o enquadramento do Monitor. Baixado por scripts/baixar_tracados_afluentes.py."}, "geometry": {"type": "MultiLineString", "coordinates": [[[-49.6154598, -27.3813987], [-49.6153342, -27.3800129], [-49.6148639, -27.3787037], [-49.6148197, -27.3783316], [-49.6148721, -27.3779063], [-49.6151124, -27.377184], [-49.6150261, -27.3763851], [-49.614946, -27.3744644], [-49.6152295, -27.3731566], [-49.6158267, -27.3723277], [-49.6160719, -27.3718031], [-49.6165336, -27.3708672], [-49.6165913, -27.3704971], [-49.6164311, -27.3698294], [-49.6160429, -27.3692932], [-49.6153706, -27.3682612], [-49.6141819, -27.3664366], [-49.6139847, -27.3656047], [-49.6140032, -27.3646416], [-49.6142928, -27.3623103], [-49.6143221, -27.3615249], [-49.6143545, -27.3606575], [-49.6140784, -27.360019], [-49.6137013, -27.359147], [-49.6128632, -27.3577569], [-49.6124196, -27.3576474], [-49.6121239, -27.3574636], [-49.6117417, -27.357226], [-49.6116001, -27.3567502], [-49.6117849, -27.3555677], [-49.6120913, -27.3548628], [-49.6122963, -27.354391], [-49.6139971, -27.3532854], [-49.6162092, -27.3516709], [-49.616436, -27.3512884], [-49.6168193, -27.3506419], [-49.6169179, -27.3502478], [-49.6168501, -27.3500015], [-49.6159073, -27.3496075], [-49.6146133, -27.3493338], [-49.6132761, -27.3488357], [-49.6125099, -27.3481129], [-49.612703, -27.3473962], [-49.6131837, -27.346723], [-49.6143729, -27.3469091], [-49.6148572, -27.3469655], [-49.6154944, -27.3468981], [-49.6183906, -27.3445555], [-49.6195984, -27.3436578], [-49.6197667, -27.3434905]], [[-49.6390536, -27.3163331], [-49.6391323, -27.3160894], [-49.6391877, -27.3157828], [-49.6391277, -27.3154823], [-49.639046, -27.3151203], [-49.6388702, -27.3147768], [-49.6384464, -27.3142011], [-49.6373144, -27.3131986], [-49.6360759, -27.3123171], [-49.6356014, -27.3118791], [-49.635435, -27.3115779], [-49.6353487, -27.3112275], [-49.6353919, -27.3107293], [-49.6356075, -27.3100668], [-49.6357493, -27.3097328], [-49.6357554, -27.3094371], [-49.6357061, -27.3092729], [-49.6355952, -27.3091579], [-49.635361, -27.308917], [-49.6351639, -27.3081504], [-49.6351146, -27.3073565], [-49.6350838, -27.3069349], [-49.6351515, -27.3067925], [-49.6353056, -27.3066666], [-49.6357123, -27.3065297], [-49.6360204, -27.3064914], [-49.6362607, -27.3063819], [-49.6364949, -27.3061629], [-49.6373038, -27.3048816], [-49.6383123, -27.3037567], [-49.6389561, -27.3032418], [-49.6398573, -27.3026508], [-49.6412504, -27.3018333]], [[-49.6465845, -27.2223367], [-49.6465298, -27.2204447], [-49.6465204, -27.2197803], [-49.6466885, -27.2190494], [-49.6472489, -27.217546], [-49.6477225, -27.216742], [-49.6482848, -27.2161677]], [[-49.6512942, -27.244843], [-49.6511755, -27.2446965], [-49.6509884, -27.2445953], [-49.6506144, -27.2444579], [-49.6501916, -27.2444507], [-49.6496794, -27.2444796], [-49.647582, -27.2447286], [-49.6466872, -27.2446459], [-49.6461912, -27.2445374], [-49.6456789, -27.2443567], [-49.6452977, -27.2441451], [-49.6441422, -27.2434314], [-49.6436392, -27.2429887], [-49.6431014, -27.2423037], [-49.6428819, -27.2418338], [-49.6427925, -27.2413711], [-49.6428064, -27.2410826]], [[-49.6428064, -27.2410826], [-49.6428169, -27.2408651], [-49.6429257, -27.2404171], [-49.6430933, -27.2399976], [-49.6434247, -27.2395759], [-49.6444332, -27.2388128], [-49.6454188, -27.2379011], [-49.6457521, -27.2372866], [-49.6459782, -27.2366569], [-49.6463383, -27.2352013], [-49.6467172, -27.233778], [-49.646988, -27.2327609], [-49.6472076, -27.230151], [-49.647297, -27.2291099], [-49.647232, -27.2280543], [-49.6471795, -27.2275114]], [[-49.6471795, -27.2275114], [-49.6470511, -27.2261823], [-49.6467761, -27.2241215], [-49.6466252, -27.2229903], [-49.6465845, -27.2223367]], [[-49.650449, -27.2773736], [-49.6506144, -27.2772073], [-49.6518575, -27.2766744], [-49.6525378, -27.2763845], [-49.6536961, -27.2754656], [-49.6547287, -27.2741648], [-49.6553954, -27.2732108], [-49.6554523, -27.2730446], [-49.6554198, -27.2729217], [-49.6552409, -27.272676], [-49.6550051, -27.2717798], [-49.6548832, -27.2709053], [-49.6547043, -27.2704862], [-49.6545091, -27.2700742], [-49.6543465, -27.2696623], [-49.6542178, -27.2692743], [-49.6541189, -27.2690335], [-49.6540538, -27.2687444], [-49.6541219, -27.2681654], [-49.6541676, -27.2677542], [-49.6543465, -27.2672772], [-49.6561845, -27.2646926], [-49.6568834, -27.2636996], [-49.6571029, -27.2634033], [-49.657179, -27.2631136], [-49.6571598, -27.2627961], [-49.6569805, -27.2625261], [-49.6568021, -27.2623769], [-49.6565299, -27.2623163], [-49.6558647, -27.2622019], [-49.6549045, -27.2617784], [-49.6546636, -27.2615819], [-49.6544848, -27.2613361], [-49.6544485, -27.2608094], [-49.6544848, -27.259746], [-49.6543953, -27.258922], [-49.6543709, -27.2580041], [-49.6544914, -27.2569945], [-49.6544848, -27.2564645], [-49.6543059, -27.2560163], [-49.6540294, -27.2555971], [-49.6536147, -27.2551996], [-49.6533139, -27.2547225], [-49.652761, -27.2537611], [-49.651582, -27.2519034], [-49.6513586, -27.2511765], [-49.6512649, -27.2504722], [-49.6513706, -27.2454555], [-49.6513625, -27.245123], [-49.6512942, -27.244843]], [[-49.6197667, -27.3434905], [-49.6201216, -27.3431376], [-49.6209417, -27.3423223], [-49.6215185, -27.3414195], [-49.6219523, -27.3407404], [-49.6217695, -27.3399875], [-49.6214783, -27.339259], [-49.621107, -27.3387362], [-49.6206895, -27.3381482], [-49.6201099, -27.3367007], [-49.6200362, -27.3363329], [-49.6198018, -27.3351625], [-49.6197708, -27.3346488], [-49.6196169, -27.3321025], [-49.6196539, -27.3315222], [-49.6198326, -27.3308598], [-49.6204241, -27.3296117], [-49.6210307, -27.328974], [-49.621903, -27.328057], [-49.6226559, -27.3272647], [-49.6235052, -27.3263709], [-49.624146, -27.3247997], [-49.624602, -27.3240333], [-49.62536, -27.3231956], [-49.6266602, -27.3219146], [-49.627467, -27.3209442], [-49.6288996, -27.3192208], [-49.6292544, -27.318794], [-49.6297289, -27.3182903], [-49.6303266, -27.3178523]], [[-49.6362524, -27.3184945], [-49.6371751, -27.3180751], [-49.6379905, -27.3176556], [-49.638516, -27.3172117], [-49.6388057, -27.3169216], [-49.6389775, -27.316569], [-49.6390536, -27.3163331]], [[-49.6303266, -27.3178523], [-49.6308566, -27.3177428], [-49.6314942, -27.3177281], [-49.6326251, -27.3178359], [-49.6336357, -27.3179509], [-49.63517, -27.3185093], [-49.6357554, -27.318575], [-49.6362524, -27.3184945]], [[-49.6496611, -27.2934471], [-49.65059, -27.2909517], [-49.6507201, -27.2906338], [-49.6507608, -27.2902581], [-49.650777, -27.2896222], [-49.65059, -27.2881264], [-49.650338, -27.2867679], [-49.6502079, -27.2863993], [-49.6499802, -27.2860597], [-49.6495005, -27.2853804], [-49.6490452, -27.2846578], [-49.6486818, -27.283826], [-49.6484886, -27.283006], [-49.6485262, -27.2821516], [-49.6485691, -27.2807213], [-49.648289, -27.2797222], [-49.6482808, -27.2793175], [-49.648354, -27.2790934], [-49.6485817, -27.2787971], [-49.6491183, -27.2785081], [-49.649583, -27.2780475], [-49.6501184, -27.2777059], [-49.650449, -27.2773736]], [[-49.6412504, -27.3018333], [-49.642223, -27.3011111], [-49.6424972, -27.3009044], [-49.6430004, -27.3005252], [-49.6440585, -27.2998183], [-49.6455704, -27.2986428], [-49.6461475, -27.2982448], [-49.6478588, -27.2960576], [-49.6485906, -27.2955766], [-49.6491324, -27.2948673], [-49.6494149, -27.2941084], [-49.6496611, -27.2934471]], [[-49.4906712, -27.5428549], [-49.4907254, -27.542658], [-49.4907525, -27.5425635], [-49.490782, -27.5424684], [-49.490825, -27.5423415], [-49.490848, -27.5422695], [-49.4908721, -27.5421855], [-49.4908846, -27.5421376], [-49.4908974, -27.5420853], [-49.4909248, -27.5419669], [-49.4909896, -27.5416684], [-49.4910345, -27.5414496], [-49.4911264, -27.541001], [-49.491226, -27.5398607], [-49.491255, -27.5391952], [-49.4912387, -27.5389399], [-49.4909835, -27.5381059], [-49.4907294, -27.5374648], [-49.4906495, -27.5372164], [-49.4906478, -27.5371091], [-49.4906529, -27.5369661], [-49.4907504, -27.5366096], [-49.4909582, -27.5361026], [-49.4910393, -27.535959], [-49.4911521, -27.5358179], [-49.4912103, -27.5357451], [-49.4916038, -27.5353303], [-49.4919453, -27.5349509], [-49.4921557, -27.5346855], [-49.4923224, -27.5345406], [-49.4923422, -27.5345234], [-49.4925942, -27.5344036], [-49.4929307, -27.5343313], [-49.4931219, -27.5343141], [-49.4932783, -27.5343403], [-49.4935354, -27.534446], [-49.4938733, -27.5346825], [-49.4941897, -27.5348844], [-49.494266, -27.5349317], [-49.4943428, -27.5349546], [-49.4944665, -27.5349584], [-49.4946403, -27.5349187], [-49.4949277, -27.5348286], [-49.4952605, -27.5346748], [-49.4959706, -27.5344473], [-49.496392, -27.5342649], [-49.4967697, -27.533997], [-49.4970066, -27.5337717], [-49.4971472, -27.5335815], [-49.4972316, -27.5334672], [-49.4974281, -27.5331778], [-49.4975652, -27.5330102], [-49.4976957, -27.5329209], [-49.4977796, -27.5328917], [-49.4978953, -27.5328783], [-49.4980657, -27.5328924], [-49.4984686, -27.5329972], [-49.4988086, -27.5330768], [-49.499119, -27.5331121], [-49.4993555, -27.5331146], [-49.499483, -27.533094], [-49.4996213, -27.533044], [-49.4998484, -27.5329264], [-49.5000001, -27.5328376], [-49.5000216, -27.5328106], [-49.500121, -27.5327031], [-49.5002248, -27.5325372], [-49.5003365, -27.5323679], [-49.50048, -27.5321641], [-49.5005955, -27.5319983], [-49.5007223, -27.5318674], [-49.5008811, -27.5317583], [-49.5010463, -27.5316766], [-49.5013332, -27.5315544], [-49.5015227, -27.5314137], [-49.5016458, -27.5312786], [-49.5016901, -27.5311816], [-49.5017547, -27.5310292], [-49.5017889, -27.5308068], [-49.5018147, -27.53064], [-49.5018675, -27.5304875], [-49.5019725, -27.530238], [-49.5020619, -27.5299979], [-49.5020876, -27.5298276], [-49.5020994, -27.5295319], [-49.5021065, -27.5294453], [-49.502075, -27.5293158], [-49.5019744, -27.5289327], [-49.5019564, -27.5288177], [-49.5019582, -27.5286854], [-49.5019612, -27.5284662], [-49.5020018, -27.5283518], [-49.502106, -27.528158], [-49.5024942, -27.5277167], [-49.5026829, -27.5275442], [-49.5028788, -27.5274077], [-49.5029603, -27.5273504], [-49.5030433, -27.5273153], [-49.5031224, -27.5272957], [-49.5032222, -27.5272984], [-49.5033401, -27.5273186], [-49.5036787, -27.5274232], [-49.5038532, -27.5274507], [-49.5039557, -27.5274564], [-49.5042368, -27.5274328], [-49.5042807, -27.5274291], [-49.50471, -27.527367], [-49.5051798, -27.5272881], [-49.5055676, -27.5272137], [-49.5058818, -27.5271527], [-49.5060549, -27.5270779], [-49.5061419, -27.5270174], [-49.5062051, -27.526923], [-49.5062904, -27.5267245], [-49.5063781, -27.5266089], [-49.5065886, -27.5263198], [-49.5067643, -27.5261517], [-49.5068012, -27.5261201], [-49.5069628, -27.5259943], [-49.5071153, -27.5259192], [-49.5072121, -27.5258865], [-49.5073193, -27.5258601], [-49.5075156, -27.525856], [-49.5079213, -27.5259033], [-49.5083497, -27.5259227], [-49.5086528, -27.5259199], [-49.5091802, -27.5258795], [-49.5096419, -27.5258599], [-49.5097589, -27.5258642], [-49.509948, -27.5258877], [-49.5101522, -27.5259635], [-49.5105841, -27.5261154], [-49.5110874, -27.5263545], [-49.5114288, -27.5265729], [-49.5116308, -27.526661], [-49.5118164, -27.5266844], [-49.5119818, -27.526677], [-49.5121029, -27.5266353], [-49.5121514, -27.5266098], [-49.5122, -27.5265842], [-49.5122732, -27.5265145], [-49.5123226, -27.5264322], [-49.5123415, -27.5263066], [-49.5123391, -27.5262268], [-49.5122856, -27.5261097], [-49.5118924, -27.5253876], [-49.5115837, -27.5247842], [-49.5114704, -27.5244977], [-49.5113845, -27.5242299], [-49.5113194, -27.523944], [-49.5113209, -27.5238336], [-49.5113427, -27.5237541], [-49.5113822, -27.523674], [-49.5114135, -27.5236107], [-49.5115397, -27.5234402], [-49.5116199, -27.5233675], [-49.5116861, -27.523313], [-49.5117657, -27.5232831], [-49.5118622, -27.5232719], [-49.5119372, -27.5232784], [-49.5120239, -27.5232859], [-49.5124459, -27.5234008], [-49.5128658, -27.5235349], [-49.5134451, -27.5237375], [-49.5139486, -27.523995], [-49.5143666, -27.5241559], [-49.5145864, -27.5241951], [-49.5147586, -27.5241969], [-49.5152047, -27.5241863], [-49.5155179, -27.5241958], [-49.5158031, -27.5242448], [-49.516132, -27.524371], [-49.5165433, -27.5246164], [-49.5169624, -27.5248951], [-49.5173479, -27.5250755], [-49.5177324, -27.5252284], [-49.518116, -27.5253445], [-49.5184091, -27.5254358], [-49.5186122, -27.5254475], [-49.5188772, -27.525436], [-49.5192202, -27.5253944], [-49.5192839, -27.5253711], [-49.5194487, -27.525311], [-49.5197084, -27.525187], [-49.519992, -27.5249803], [-49.5204792, -27.5245917], [-49.5207472, -27.5243586], [-49.5209647, -27.5240988], [-49.5210553, -27.5239218], [-49.5210939, -27.5238054], [-49.5212109, -27.5236812], [-49.5212964, -27.5235739], [-49.521354, -27.5234642], [-49.5213668, -27.5233749], [-49.5213609, -27.5231189], [-49.5213075, -27.5227488], [-49.5212738, -27.5226465], [-49.5211692, -27.5224352], [-49.5210497, -27.5222487], [-49.5210483, -27.5221881], [-49.5210175, -27.5219751], [-49.5209913, -27.5216712], [-49.5209931, -27.5215364], [-49.5210286, -27.521396], [-49.521112, -27.5211962], [-49.5212357, -27.5209968], [-49.5213778, -27.5207832], [-49.521528, -27.520617], [-49.5217804, -27.5203441], [-49.5220153, -27.520128], [-49.5223073, -27.5199214], [-49.5227914, -27.5196719], [-49.5231759, -27.5193923], [-49.5234745, -27.5192047], [-49.5236592, -27.5191258], [-49.5237004, -27.5191082], [-49.5238807, -27.5190701], [-49.5241192, -27.5190278], [-49.5242883, -27.5190296], [-49.5243832, -27.5190411], [-49.5246845, -27.5191129], [-49.52498, -27.5191821], [-49.5253701, -27.5192601], [-49.5257727, -27.5193132], [-49.5262414, -27.5193749], [-49.5266854, -27.519414], [-49.5270437, -27.5194389], [-49.5274642, -27.5194644], [-49.5278186, -27.5195004], [-49.5278802, -27.5195066], [-49.5284397, -27.5195521], [-49.5288212, -27.5196116], [-49.5291904, -27.5197106], [-49.5297589, -27.5198938], [-49.5303311, -27.5200893], [-49.5306556, -27.5201756], [-49.5308049, -27.5201919], [-49.5310468, -27.5201889], [-49.5312888, -27.5201858], [-49.5316542, -27.5201897], [-49.53189, -27.5201951], [-49.5320697, -27.5201793], [-49.5322661, -27.5202061], [-49.5325287, -27.5201135], [-49.5327198, -27.5200293], [-49.5328387, -27.5198946], [-49.5329203, -27.5197508], [-49.5329357, -27.5196062], [-49.5328834, -27.5194903], [-49.532856, -27.5193786], [-49.5327625, -27.5191777], [-49.5325944, -27.5187989], [-49.5325384, -27.5185802], [-49.5324997, -27.5182979], [-49.5324515, -27.5180985], [-49.5323406, -27.5177298], [-49.5322261, -27.5173845], [-49.5322081, -27.5172483], [-49.5322158, -27.5170999], [-49.5322478, -27.5170297], [-49.5322909, -27.5169723], [-49.5323486, -27.5169325], [-49.5323736, -27.5169153], [-49.5325839, -27.5168294], [-49.5327792, -27.5167987], [-49.533011, -27.5167936], [-49.5333187, -27.516817], [-49.5337574, -27.5168871], [-49.5340481, -27.5169153], [-49.5342007, -27.5169094], [-49.5343483, -27.5168631], [-49.5344793, -27.5167814], [-49.5346771, -27.5165816], [-49.5348385, -27.5163547], [-49.5350782, -27.5159536], [-49.5352661, -27.5156367], [-49.5355664, -27.5153145], [-49.535853, -27.5150874], [-49.5360629, -27.5149443], [-49.5363028, -27.5147808], [-49.5366562, -27.5144822], [-49.5368002, -27.5143168], [-49.5369354, -27.5140474], [-49.5370237, -27.5137691], [-49.537099, -27.5135347], [-49.5371294, -27.5133043], [-49.5371815, -27.5131318], [-49.5372458, -27.5129771], [-49.5373144, -27.5128736], [-49.5374354, -27.5127661], [-49.5376195, -27.5126411], [-49.5378561, -27.5125279], [-49.5380923, -27.512449], [-49.5383469, -27.5123016], [-49.5387061, -27.5120539], [-49.5387634, -27.5120013], [-49.5391767, -27.5116475], [-49.5396614, -27.5113251], [-49.5399035, -27.5111474], [-49.5401018, -27.5110018], [-49.5404259, -27.5108233], [-49.5406217, -27.5107537], [-49.5408323, -27.5107284], [-49.5413454, -27.5107363], [-49.5419485, -27.5107611], [-49.5422633, -27.51082], [-49.5426467, -27.5109322], [-49.5433283, -27.511274], [-49.54377, -27.5114624], [-49.5441956, -27.511644], [-49.5446717, -27.5117375], [-49.5450629, -27.5118083], [-49.5458023, -27.5118885], [-49.5463813, -27.5117557]], [[-49.5824805, -27.4774307], [-49.5825434, -27.4762501], [-49.5825702, -27.4760412], [-49.5825034, -27.4756749], [-49.5824832, -27.4755585], [-49.5824169, -27.47538], [-49.5823076, -27.4751991], [-49.58217, -27.4750346], [-49.5820199, -27.4748837], [-49.5819001, -27.4747885], [-49.5817055, -27.4747229], [-49.5815629, -27.4747132], [-49.5814356, -27.4747202], [-49.5811928, -27.474784], [-49.5809629, -27.4748038], [-49.5805023, -27.4747816], [-49.5789341, -27.4747711], [-49.5784134, -27.4747298], [-49.5782774, -27.474687], [-49.5781392, -27.4745467], [-49.5780265, -27.4743754], [-49.5775604, -27.4734064], [-49.5773575, -27.472924], [-49.5771644, -27.4725432], [-49.5769819, -27.4722405], [-49.5765103, -27.4712703], [-49.5764431, -27.4711189], [-49.5761141, -27.4701544], [-49.5760443, -27.4698897], [-49.5760141, -27.4696416], [-49.5759034, -27.4692093], [-49.5759223, -27.469036], [-49.5759685, -27.4689076], [-49.57615, -27.4686269], [-49.5763573, -27.4684029], [-49.5766062, -27.4682587], [-49.5767181, -27.4681335], [-49.5767311, -27.4679899], [-49.5767268, -27.4678907], [-49.5765782, -27.467334], [-49.5765317, -27.4670609], [-49.5765191, -27.4667469], [-49.5765565, -27.466435], [-49.5766932, -27.465832], [-49.5769617, -27.4647278], [-49.576965, -27.4645182], [-49.5768274, -27.4639593], [-49.5768081, -27.4637311], [-49.5768213, -27.4635726], [-49.5772223, -27.4627122], [-49.5773807, -27.4624108], [-49.5777356, -27.461857], [-49.5779342, -27.461589], [-49.5782225, -27.4609636], [-49.5783184, -27.4606562], [-49.5784294, -27.4602096], [-49.5784699, -27.4597846], [-49.5785536, -27.4594693], [-49.5788069, -27.4589765], [-49.5788354, -27.4588598], [-49.5788058, -27.4584639], [-49.5787511, -27.4582785], [-49.578775, -27.4569579], [-49.5787641, -27.4566701], [-49.5787564, -27.4564628], [-49.5787543, -27.4564073], [-49.5788688, -27.4561302], [-49.5790311, -27.4559092], [-49.5791914, -27.4556729], [-49.5794009, -27.4555575], [-49.5797071, -27.4554802], [-49.5804222, -27.4555832], [-49.5808841, -27.4557982], [-49.5814181, -27.4563417], [-49.5824773, -27.4578068], [-49.5827915, -27.4581811], [-49.583286, -27.4584431], [-49.5833618, -27.4584652], [-49.5834967, -27.458455], [-49.5837331, -27.4583365], [-49.5841435, -27.4580632], [-49.5855871, -27.457022], [-49.5865538, -27.4564179], [-49.5868995, -27.4561135], [-49.5870266, -27.4557948], [-49.5870471, -27.4544857], [-49.5869642, -27.4542699], [-49.5865742, -27.4540343], [-49.5862073, -27.4537986], [-49.5858084, -27.4537827], [-49.5846063, -27.4538634], [-49.583627, -27.4537319], [-49.5818835, -27.4535252], [-49.58146, -27.4533252], [-49.58077, -27.4527158], [-49.5803988, -27.4523351], [-49.5800874, -27.4518382], [-49.5800168, -27.4514889], [-49.579936, -27.4510885], [-49.5800294, -27.4504646], [-49.5801792, -27.4499921], [-49.5803705, -27.4497319], [-49.5807484, -27.449309], [-49.5816749, -27.4485145], [-49.5823997, -27.4480694], [-49.5825098, -27.4479925], [-49.583258, -27.4476328], [-49.5838998, -27.4474198], [-49.5854036, -27.4471087], [-49.5865869, -27.4467392], [-49.5870111, -27.4465517], [-49.587627, -27.4462796], [-49.588306, -27.4458262], [-49.5893131, -27.444954], [-49.591677, -27.4430326], [-49.5925519, -27.4423104], [-49.5928838, -27.4421687], [-49.5936692, -27.4419829], [-49.5945865, -27.4419876], [-49.5953912, -27.4420591], [-49.5970883, -27.4424065], [-49.5974978, -27.4424512], [-49.5985717, -27.4424828], [-49.599035, -27.442332], [-49.5992905, -27.4421242], [-49.5995593, -27.4419305], [-49.5996827, -27.4417591], [-49.5998758, -27.441026], [-49.6001172, -27.4399119], [-49.6001065, -27.4396834], [-49.5999324, -27.4384839], [-49.5999209, -27.4383558], [-49.5999077, -27.4369394], [-49.5999616, -27.4365602], [-49.6001021, -27.4361742], [-49.6003811, -27.435222], [-49.6007035, -27.4342658], [-49.6008371, -27.4337745], [-49.6009184, -27.4333159], [-49.6009326, -27.4330036], [-49.6008521, -27.4328084], [-49.6007073, -27.4326799], [-49.6004766, -27.4325942], [-49.5999295, -27.4325228], [-49.5982929, -27.4320997], [-49.5963507, -27.4312471], [-49.5962318, -27.4311577], [-49.5960859, -27.431048], [-49.5959722, -27.4308518], [-49.5959344, -27.4306045], [-49.5959585, -27.4303182], [-49.5960573, -27.4300723], [-49.5963536, -27.429641], [-49.5989937, -27.4271928], [-49.6002093, -27.4263224], [-49.6004729, -27.4260876], [-49.6010214, -27.425599], [-49.6013437, -27.4252091], [-49.601453, -27.425077], [-49.6017122, -27.4245736], [-49.6017232, -27.4245331], [-49.6017532, -27.4244224], [-49.6018376, -27.4241115], [-49.6021317, -27.4228321], [-49.6023465, -27.4215277], [-49.6023595, -27.4208218], [-49.6023796, -27.4197243], [-49.6024372, -27.4184052], [-49.6026061, -27.4174742], [-49.6027153, -27.4171617], [-49.6030876, -27.4166699], [-49.6033137, -27.4164706], [-49.6041981, -27.415785], [-49.6050397, -27.4152403], [-49.605251, -27.4150901], [-49.6055004, -27.4148829], [-49.6057209, -27.4146694], [-49.6058645, -27.414494], [-49.6059594, -27.4143457], [-49.6060276, -27.4141833], [-49.606106, -27.41372], [-49.6061503, -27.4134181], [-49.606209, -27.4131744], [-49.6062871, -27.4129898], [-49.6064042, -27.4128062], [-49.6066255, -27.4125785], [-49.6069697, -27.41229], [-49.6071343, -27.4121757], [-49.6074622, -27.4119866], [-49.6076009, -27.4118811], [-49.6077483, -27.4117095], [-49.6078454, -27.4114714], [-49.6079085, -27.4111404], [-49.6079398, -27.4108518], [-49.6079381, -27.4098418], [-49.6079499, -27.4096521], [-49.6080204, -27.4092741], [-49.6080857, -27.409081], [-49.6081591, -27.4089261], [-49.6086086, -27.408254], [-49.6089511, -27.4076991], [-49.6093081, -27.4071781], [-49.6093609, -27.407088], [-49.6094521, -27.4069323], [-49.6098078, -27.4062272], [-49.609944, -27.4059153], [-49.6100775, -27.4055221], [-49.6101168, -27.405246], [-49.6100922, -27.4049168], [-49.6100493, -27.4047508], [-49.6097833, -27.4038189], [-49.6097386, -27.4034905], [-49.6096474, -27.4031209], [-49.6095439, -27.4028695], [-49.6094439, -27.4026848], [-49.6093152, -27.4025095], [-49.6085105, -27.401689], [-49.6078729, -27.4008774], [-49.6071644, -27.4003011], [-49.6065597, -27.399689], [-49.6060751, -27.3992436], [-49.6053539, -27.3985264], [-49.6049571, -27.3981664], [-49.6047031, -27.3979542], [-49.604198, -27.3975871], [-49.6040236, -27.3974244], [-49.6038968, -27.3972639], [-49.6037954, -27.3970947], [-49.6037138, -27.3969063], [-49.603671, -27.3967434], [-49.6036538, -27.3965779], [-49.60365, -27.3960557], [-49.6036735, -27.3957085], [-49.6037345, -27.3952986], [-49.6037719, -27.3951617], [-49.6038512, -27.3949718], [-49.6041968, -27.3943436], [-49.6044393, -27.3937955], [-49.6047711, -27.3930587], [-49.6047867, -27.3929969]], [[-49.5463813, -27.5117557], [-49.5467002, -27.511741], [-49.5472596, -27.5116774], [-49.5476664, -27.5114946], [-49.5477961, -27.5113851], [-49.5478818, -27.5112487], [-49.5479957, -27.5109585], [-49.5484472, -27.5097293], [-49.5485312, -27.509319], [-49.5484996, -27.5087325], [-49.5484292, -27.5081105], [-49.548486, -27.5075249], [-49.5485881, -27.5072285], [-49.5487973, -27.5069944], [-49.5491895, -27.5067436], [-49.5493222, -27.5066587], [-49.5497607, -27.5064341], [-49.5500931, -27.5062099], [-49.550535, -27.505837], [-49.5507787, -27.5057138], [-49.5515467, -27.5054357], [-49.5518542, -27.5053282], [-49.5532249, -27.5049153], [-49.5534408, -27.5048503], [-49.5539928, -27.5046951], [-49.5543324, -27.5046276]], [[-49.5543324, -27.5046276], [-49.5561378, -27.5045108]], [[-49.5561378, -27.5045108], [-49.5568028, -27.5043948], [-49.5570253, -27.5043299], [-49.5573096, -27.5042194], [-49.5575046, -27.504087], [-49.5580046, -27.5035608], [-49.5581751, -27.5033507], [-49.5582319, -27.5032808], [-49.5583362, -27.5030843], [-49.5583982, -27.5029012], [-49.5584202, -27.5027953], [-49.5584216, -27.5026871], [-49.5583509, -27.5024641], [-49.5583425, -27.5022272], [-49.5583846, -27.5019868], [-49.558464, -27.5016937], [-49.5585313, -27.5015383], [-49.5585848, -27.5014148], [-49.5588148, -27.5010552], [-49.5592234, -27.5005113], [-49.5593543, -27.5003608], [-49.5594613, -27.5002717], [-49.5595587, -27.5002153], [-49.5597076, -27.5001646], [-49.560027, -27.5000977], [-49.560304, -27.5001081], [-49.5608738, -27.5001765], [-49.5617293, -27.5002541], [-49.5620516, -27.5002493], [-49.5632776, -27.5002909], [-49.5636882, -27.5003321], [-49.563998, -27.5004184], [-49.5641837, -27.5004911], [-49.5644889, -27.5006698], [-49.5648733, -27.5009467], [-49.5651484, -27.5012394], [-49.5654828, -27.5017571], [-49.5659827, -27.5028111], [-49.5662995, -27.5036802], [-49.5666024, -27.5044475], [-49.5670024, -27.5052424], [-49.5671117, -27.5054192], [-49.5672296, -27.50561], [-49.5673896, -27.5057511], [-49.5675935, -27.5058349], [-49.5678622, -27.5059097], [-49.5680508, -27.5059309], [-49.5682774, -27.5059236], [-49.5685502, -27.5058498], [-49.5692126, -27.5055202], [-49.5702073, -27.5049345], [-49.5706918, -27.5047028], [-49.5708605, -27.5045892], [-49.5709703, -27.5044413], [-49.5710589, -27.5042692], [-49.5711649, -27.5039964], [-49.5712812, -27.5035745], [-49.5713044, -27.5033955], [-49.5712836, -27.5030255], [-49.5713037, -27.5028056], [-49.5713429, -27.5026865], [-49.5718026, -27.5017115], [-49.5718867, -27.5015245], [-49.572016, -27.5012931], [-49.5723695, -27.5008524], [-49.5724551, -27.5007151], [-49.5725244, -27.5005497], [-49.5725732, -27.5003374], [-49.5726948, -27.5000019], [-49.5727518, -27.4997759], [-49.5729353, -27.4995304], [-49.5731029, -27.4993972], [-49.5735209, -27.499138], [-49.5742927, -27.4985425], [-49.5745384, -27.4983696], [-49.5749539, -27.4980619], [-49.5749796, -27.4980261], [-49.5749835, -27.4979225], [-49.5749307, -27.4977011], [-49.5748815, -27.4971992], [-49.5748891, -27.4970114], [-49.5749251, -27.4967684], [-49.5749843, -27.4964941], [-49.5751661, -27.4959489], [-49.5753172, -27.495599], [-49.5755923, -27.4950842], [-49.5757807, -27.4947956], [-49.5760429, -27.4944603], [-49.5762775, -27.4941138], [-49.5765611, -27.4936732], [-49.5767925, -27.4932724], [-49.5768332, -27.493171], [-49.5769271, -27.4928812], [-49.5769569, -27.4926796], [-49.5769597, -27.4924615], [-49.5769354, -27.4922351], [-49.5768659, -27.4918631], [-49.5767648, -27.4913866], [-49.5767536, -27.4911967], [-49.5767741, -27.4910111], [-49.5768643, -27.4907327], [-49.5769713, -27.4904841], [-49.5772635, -27.4900402], [-49.5772961, -27.4899375], [-49.5774992, -27.4895457], [-49.577609, -27.4893224], [-49.5776813, -27.4892437], [-49.5780228, -27.4890308], [-49.578338, -27.4887718], [-49.5789105, -27.4884235], [-49.5800754, -27.4876001], [-49.5803347, -27.4873836], [-49.5809548, -27.4866379], [-49.5811943, -27.4862974], [-49.5814131, -27.4859091], [-49.5815059, -27.4856622], [-49.5815463, -27.4855231], [-49.5816348, -27.4850334], [-49.5818916, -27.4842211], [-49.5819535, -27.4841231], [-49.5820599, -27.4840615], [-49.5824562, -27.4839663], [-49.5826006, -27.483907], [-49.5826908, -27.4837752], [-49.5827053, -27.4834973], [-49.5827537, -27.4831326], [-49.5827487, -27.4827079], [-49.5826704, -27.4822567], [-49.5826584, -27.4820116], [-49.5826587, -27.4812622], [-49.5826827, -27.4808955], [-49.5826968, -27.48068], [-49.5827137, -27.4796181], [-49.5826076, -27.4791801], [-49.5825586, -27.4788865], [-49.5825241, -27.4784176], [-49.582487, -27.4781601], [-49.582418, -27.477889], [-49.5824095, -27.4777588], [-49.5824193, -27.4777071], [-49.5824805, -27.4774307]], [[-49.6103351, -27.3871668], [-49.6105644, -27.3869486], [-49.6109211, -27.386639], [-49.6112377, -27.3863913], [-49.6115354, -27.386146], [-49.6115944, -27.3861079], [-49.6118197, -27.3859364], [-49.6120695, -27.3857388], [-49.6121231, -27.3857055], [-49.6127025, -27.3850862], [-49.613677, -27.3839031], [-49.6137539, -27.3838097], [-49.6146742, -27.3827638], [-49.6148268, -27.3825903], [-49.6154598, -27.3813987]], [[-49.6047867, -27.3929969], [-49.6047825, -27.3928222], [-49.6047986, -27.3926793], [-49.6048407, -27.3925817], [-49.6048924, -27.3924821], [-49.6049844, -27.3923217], [-49.6050627, -27.3921946], [-49.6051251, -27.3920977], [-49.6052318, -27.3919394], [-49.6053395, -27.3917896], [-49.6053618, -27.3917597], [-49.6055297, -27.3915359], [-49.6055764, -27.3914718], [-49.6056854, -27.3913191], [-49.6057487, -27.3912332], [-49.6060528, -27.3908397], [-49.6061201, -27.390756], [-49.6061659, -27.3907018], [-49.6062134, -27.3906481], [-49.606238, -27.3906213], [-49.6062894, -27.3905674], [-49.6063441, -27.3905128], [-49.6063729, -27.3904851], [-49.6064334, -27.3904287], [-49.6064981, -27.3903706], [-49.6066029, -27.3902804], [-49.6067133, -27.3901893], [-49.6068258, -27.3901013], [-49.606899, -27.390044], [-49.6069741, -27.3899887], [-49.6070514, -27.3899345], [-49.6070912, -27.3899076], [-49.6071736, -27.389854], [-49.6074285, -27.3896947], [-49.6075106, -27.389642], [-49.6076272, -27.3895644], [-49.6077337, -27.3894899], [-49.6077982, -27.3894426], [-49.6078588, -27.3893966], [-49.6080978, -27.3892109], [-49.6084015, -27.3889776], [-49.6085272, -27.3888787], [-49.6085674, -27.3888462], [-49.6086433, -27.3887831], [-49.6087143, -27.388722], [-49.608853, -27.3885971], [-49.6090746, -27.3883926], [-49.6092867, -27.3882001], [-49.60955, -27.3879443], [-49.6097797, -27.387709], [-49.6100224, -27.3874627], [-49.6101408, -27.3873444], [-49.6102387, -27.3872517], [-49.6103351, -27.3871668]]]}}
