{"type": "Feature", "properties": {"rio": "luiz-alves", "fonte": "© OpenStreetMap contributors, ODbL (openstreetmap.org/copyright)", "trechos": 3, "origem": [{"bruto": "tracado-luiz-alves-osm.json", "base_osm": "2026-10-08T12:02:36Z"}], "cobertura": "RECORTADO na caixa do mapa (extensão do tronco e das réguas do cadastro), para não mudar o enquadramento do Monitor. Baixado por scripts/baixar_tracado_luiz_alves.py. Só o trecho ligado ao Itajaí-Açu: o alto curso, solto no OSM por uma lacuna de ~7,8 km, fica de fora. Serve para medir a confluência (achar_confluencias.py); o rio não tem régua no cadastro e fica cinza."}, "geometry": {"type": "MultiLineString", "coordinates": [[[-48.816565, -26.8423799], [-48.8167067, -26.8425312], [-48.8168478, -26.8426818], [-48.8169658, -26.8429594], [-48.8170463, -26.8433902], [-48.817116, -26.843596], [-48.8172877, -26.8438928], [-48.8174433, -26.8442948], [-48.8175988, -26.8444001], [-48.8177598, -26.8444815], [-48.8180012, -26.8444241], [-48.8183445, -26.8440842], [-48.8186181, -26.8436822], [-48.8188273, -26.8433711], [-48.8189721, -26.8432993], [-48.8191545, -26.8432993], [-48.8192511, -26.8434237], [-48.8192779, -26.8436008], [-48.8192189, -26.8439789], [-48.8192725, -26.8444145], [-48.8192189, -26.8448453], [-48.8194174, -26.8451372], [-48.8197231, -26.8452617], [-48.8204098, -26.8454579], [-48.8206378, -26.8457063], [-48.8206752, -26.8459736], [-48.8207052, -26.8464079], [-48.8208699, -26.8468022], [-48.8210808, -26.8471038], [-48.8215662, -26.8474673], [-48.8219137, -26.8478468], [-48.8220455, -26.8481195], [-48.8219556, -26.8483066], [-48.821686, -26.8483226], [-48.8208711, -26.8480553], [-48.8205895, -26.8480126], [-48.820296, -26.8480553], [-48.8201342, -26.8483867], [-48.8198586, -26.8487716], [-48.819541, -26.8493169], [-48.8192654, -26.850541], [-48.8193373, -26.8507334], [-48.8194931, -26.8507976], [-48.8196788, -26.8507495], [-48.8199065, -26.850525], [-48.820272, -26.8501989], [-48.8205776, -26.8500599], [-48.8208532, -26.8500118], [-48.8211108, -26.8500599], [-48.8212486, -26.8501454], [-48.8212426, -26.8504234], [-48.8211048, -26.8508136], [-48.8204158, -26.8513802], [-48.8200743, -26.8516796], [-48.8199185, -26.8519308], [-48.8199185, -26.8520912], [-48.8201102, -26.8524119], [-48.820278, -26.8527219], [-48.820296, -26.8532137], [-48.8201402, -26.8539728], [-48.8199664, -26.8542668], [-48.8198107, -26.8546783], [-48.8198466, -26.8550472], [-48.8200443, -26.855293], [-48.820284, -26.8553572], [-48.8206914, -26.8553251], [-48.820979, -26.8553625], [-48.8217699, -26.8553893], [-48.8222132, -26.855277], [-48.8224409, -26.8551808], [-48.8225487, -26.8549349], [-48.8226626, -26.8545554], [-48.8228543, -26.8542668], [-48.8231239, -26.8540422], [-48.8234834, -26.8539353], [-48.8237291, -26.853914], [-48.8239028, -26.8540102], [-48.8239927, -26.854208], [-48.8240226, -26.8544966], [-48.8239567, -26.8546623], [-48.8231539, -26.8557795], [-48.823106, -26.8559719], [-48.8232677, -26.8561323], [-48.8245619, -26.8570516], [-48.8247596, -26.8573189], [-48.8246697, -26.8575273], [-48.8243222, -26.8576236], [-48.8236272, -26.8578213], [-48.8233157, -26.8581207], [-48.8226925, -26.8584841], [-48.8222492, -26.8584948], [-48.8219436, -26.8585322], [-48.8218418, -26.8586071], [-48.8219077, -26.8589278], [-48.8219856, -26.8595638], [-48.8218582, -26.8601269]], [[-48.8010551, -26.8635579], [-48.8009687, -26.8635319], [-48.7999729, -26.8635284], [-48.7998547, -26.8635691], [-48.7993311, -26.8637493], [-48.7990218, -26.864069], [-48.7991988, -26.8646957], [-48.7996352, -26.8652385], [-48.7997166, -26.8657074], [-48.7995132, -26.8667323], [-48.7985353, -26.8686348], [-48.7972556, -26.8719777], [-48.7969861, -26.8724915], [-48.7965189, -26.8728529], [-48.7957511, -26.8728399], [-48.7951031, -26.8726481], [-48.7942138, -26.8722331], [-48.7933839, -26.8716656], [-48.7918654, -26.8706368], [-48.790925, -26.8700297], [-48.7904633, -26.8699267], [-48.7900914, -26.8699586], [-48.7897994, -26.870099], [-48.789195, -26.8708762], [-48.7889293, -26.8718177], [-48.7887114, -26.8730186]], [[-48.8218582, -26.8601269], [-48.8215739, -26.8607299], [-48.821488, -26.8608304], [-48.8213804, -26.8609054], [-48.8212681, -26.8609405], [-48.8212627, -26.8609357], [-48.8211348, -26.8609642], [-48.8209784, -26.86084], [-48.8208412, -26.8606435], [-48.8206324, -26.8601197], [-48.8204577, -26.8596868], [-48.8201162, -26.8595318], [-48.8198226, -26.8595745], [-48.8183188, -26.860264], [-48.8178095, -26.8603656], [-48.817474, -26.8603656], [-48.8172763, -26.8601732], [-48.8174321, -26.8597723], [-48.8177436, -26.8594195], [-48.8179054, -26.859163], [-48.8179293, -26.8589919], [-48.8177196, -26.8587514], [-48.8173482, -26.8584414], [-48.8162457, -26.8579817], [-48.8156346, -26.8575648], [-48.8152691, -26.8571585], [-48.8150534, -26.8568752], [-48.814694, -26.8566988], [-48.8143165, -26.8566614], [-48.8138911, -26.8568058], [-48.81328, -26.8571211], [-48.8129984, -26.8573723], [-48.8129864, -26.8575915], [-48.8133459, -26.8578], [-48.8136754, -26.8579443], [-48.813951, -26.8581634], [-48.8140589, -26.8585162], [-48.813981, -26.8588316], [-48.8136514, -26.8591202], [-48.8117641, -26.8598685], [-48.8114226, -26.8600877], [-48.8113567, -26.8603068], [-48.8114286, -26.8605473], [-48.8120937, -26.8612261], [-48.8123453, -26.8616324], [-48.8123693, -26.8620332], [-48.8122375, -26.8622524], [-48.8114346, -26.8627495], [-48.8106557, -26.8629846], [-48.8100206, -26.8629045], [-48.8095413, -26.8625731], [-48.8092358, -26.8621455], [-48.8091639, -26.860836], [-48.809062, -26.8601465], [-48.8086186, -26.8596494], [-48.8082172, -26.8594569], [-48.8057907, -26.8591897], [-48.8052934, -26.8593875], [-48.8052754, -26.8596975], [-48.8052934, -26.8603496], [-48.8050178, -26.8607397], [-48.8043347, -26.8612101], [-48.8040472, -26.8614667], [-48.8037236, -26.861766], [-48.8037596, -26.8620813], [-48.8043108, -26.86237], [-48.8046283, -26.8625891], [-48.8046583, -26.8629258], [-48.8043108, -26.8633107], [-48.8031786, -26.8637844], [-48.8025793, -26.8638398], [-48.8010551, -26.8635579]]]}}
