{"type": "Feature", "properties": {"rio": "mirim-canal-retificado", "fonte": "© OpenStreetMap contributors, ODbL (openstreetmap.org/copyright)", "trechos": 2}, "geometry": {"type": "MultiLineString", "coordinates": [[[-48.7136045, -26.9087124], [-48.6885296, -26.8936282]], [[-48.7520435, -26.9308143], [-48.7505806, -26.9304634], [-48.7494158, -26.9300371], [-48.7477974, -26.9293703], [-48.746277, -26.9285668], [-48.744057, -26.9271706], [-48.7431253, -26.9265455], [-48.7355617, -26.9219456], [-48.7146262, -26.9093282], [-48.7136045, -26.9087124]]]}}
