{"type": "Feature", "properties": {"rio": "ribeirao-taquaras", "fonte": "© OpenStreetMap contributors, ODbL (openstreetmap.org/copyright)", "trechos": 5, "nome": "Ribeirão Taquaras", "municipio": "ibirama"}, "geometry": {"type": "MultiLineString", "coordinates": [[[-49.5123632, -27.0524426], [-49.5125085, -27.0525109], [-49.512604, -27.0525579], [-49.5127118, -27.052596], [-49.5128053, -27.0526394], [-49.5129577, -27.0527154], [-49.5130919, -27.0528023], [-49.5131915, -27.0528295], [-49.5132525, -27.0528241], [-49.5133501, -27.0528621], [-49.5133907, -27.0528711], [-49.5134375, -27.0528603], [-49.5134842, -27.0528114], [-49.513718, -27.052529], [-49.5137932, -27.0524113], [-49.5138338, -27.0523552], [-49.5138867, -27.0523425], [-49.5139802, -27.0523769], [-49.5140757, -27.052386], [-49.514218, -27.052424], [-49.5143928, -27.0524566], [-49.5144599, -27.0524511], [-49.5145534, -27.0524439], [-49.5146022, -27.0524729], [-49.5146103, -27.0525362], [-49.5146022, -27.0525905], [-49.5146347, -27.0526358], [-49.5146998, -27.0526991], [-49.5147709, -27.0527263], [-49.5148522, -27.0527553], [-49.5149559, -27.0527933], [-49.5150982, -27.0528367], [-49.5152893, -27.0528693], [-49.5154987, -27.0528838], [-49.5155434, -27.0528983], [-49.5155779, -27.0529381], [-49.515582, -27.0529707], [-49.5155718, -27.052996], [-49.5155413, -27.0530286], [-49.515521, -27.0530576], [-49.5155128, -27.0531715]], [[-49.5155128, -27.0531715], [-49.5154904, -27.0533393]], [[-49.5154904, -27.0533393], [-49.5154844, -27.0535029], [-49.5155129, -27.0535609], [-49.51558, -27.0536387], [-49.5156409, -27.0537292], [-49.5156999, -27.0538252], [-49.5156857, -27.0538795], [-49.5156694, -27.053941], [-49.5156532, -27.0540824], [-49.5156373, -27.0546301]], [[-49.5123052, -27.0524131], [-49.5123632, -27.0524426]], [[-49.5117797, -27.0514111], [-49.5117556, -27.0515042], [-49.5117636, -27.0515401], [-49.5118441, -27.0516093], [-49.5118387, -27.05165], [-49.5117234, -27.0517168], [-49.511721, -27.0517456], [-49.5117503, -27.0517687], [-49.5117736, -27.0518115], [-49.5117174, -27.0518518], [-49.5117251, -27.0519042], [-49.5117471, -27.0519615], [-49.5118265, -27.0520245], [-49.5118666, -27.0520519], [-49.511882, -27.0520903], [-49.5118604, -27.0521233], [-49.5118789, -27.0521617], [-49.5119282, -27.0521891], [-49.51198, -27.0521941], [-49.5120206, -27.0522212], [-49.5120776, -27.0522701], [-49.5121345, -27.052319], [-49.5122077, -27.0523588], [-49.5123052, -27.0524131]]]}}
