{"type": "Feature", "properties": {"rio": "ribeirao-canhanduba", "fonte": "© OpenStreetMap contributors, ODbL (openstreetmap.org/copyright)", "trechos": 11}, "geometry": {"type": "MultiLineString", "coordinates": [[[-48.7079762, -26.9747203], [-48.7079768, -26.9747058], [-48.7079566, -26.9743699], [-48.7078601, -26.9740783], [-48.7077555, -26.9737819], [-48.7076214, -26.9735643], [-48.7074899, -26.9733755], [-48.7073934, -26.9731388], [-48.7072968, -26.9728329], [-48.707278, -26.972589], [-48.707337, -26.9722592], [-48.707506, -26.9716711], [-48.7075436, -26.9712337], [-48.7076455, -26.9708058], [-48.7077796, -26.9702464], [-48.7078413, -26.9698782], [-48.7078949, -26.9695197], [-48.7079191, -26.9692448], [-48.70797, -26.9689364], [-48.7080237, -26.9686782], [-48.7080532, -26.9684917], [-48.7081229, -26.9682694], [-48.7081417, -26.9680399], [-48.7081498, -26.967777], [-48.7080693, -26.9674901], [-48.7079513, -26.9672821], [-48.707785, -26.9669618], [-48.707624, -26.966694], [-48.7074631, -26.966455], [-48.7072673, -26.9662016], [-48.707042, -26.9659864], [-48.7062516, -26.9654186], [-48.7051868, -26.9647307], [-48.704401, -26.9641878], [-48.7037129, -26.9632803], [-48.7032991, -26.9624431], [-48.7031131, -26.9616433], [-48.7031084, -26.9612081], [-48.7032107, -26.9607564], [-48.7033874, -26.9600685], [-48.7036757, -26.9592023], [-48.7041836, -26.9577409], [-48.7042425, -26.9575714], [-48.7046335, -26.9564463], [-48.7047451, -26.9561852], [-48.7047265, -26.9559324], [-48.7048428, -26.9556961], [-48.7048613, -26.9549874], [-48.7048497, -26.9545813], [-48.7047441, -26.9542217], [-48.7047025, -26.9532589], [-48.704679, -26.9527152], [-48.7044747, -26.9493611], [-48.7044286, -26.9489493], [-48.7044814, -26.9487922], [-48.7045686, -26.9486375], [-48.7046347, -26.9485693], [-48.704729, -26.9484995], [-48.7054863, -26.9481692], [-48.7056762, -26.9480432], [-48.7058237, -26.9478318], [-48.705906, -26.947604], [-48.7057431, -26.9460729], [-48.7056139, -26.9441991], [-48.7055772, -26.9429536], [-48.7054823, -26.9422435], [-48.7052173, -26.9416348], [-48.7048428, -26.9409947], [-48.7045041, -26.9405709], [-48.7042398, -26.9403226], [-48.7039593, -26.940091], [-48.7038014, -26.9399615], [-48.7037442, -26.9398741], [-48.7037245, -26.9397844], [-48.7037108, -26.9397139], [-48.7036757, -26.9396435], [-48.7036387, -26.9395996], [-48.7035642, -26.9395652], [-48.7035042, -26.9395431], [-48.7034335, -26.9395473], [-48.7032014, -26.9396112], [-48.7030524, -26.939626], [-48.702946, -26.9396043], [-48.7028192, -26.9395573], [-48.7027006, -26.9394849], [-48.7025738, -26.9394234], [-48.7023324, -26.9393329], [-48.7021, -26.9392587], [-48.7018841, -26.9392016], [-48.7016581, -26.9391627], [-48.7015373, -26.9391408], [-48.7014759, -26.9391462], [-48.7014348, -26.9391697], [-48.7014075, -26.9392323], [-48.7014121, -26.939324], [-48.7014255, -26.9393902], [-48.7014153, -26.9394632], [-48.7013786, -26.9395072], [-48.7013184, -26.939557], [-48.7011997, -26.9396068], [-48.7006532, -26.9398326], [-48.7003821, -26.9399587], [-48.7001574, -26.9400632], [-48.6996988, -26.9402734], [-48.6989934, -26.9405671], [-48.6983269, -26.9409113], [-48.6981325, -26.9410501], [-48.6979717, -26.9411826], [-48.6978755, -26.9412945], [-48.6978306, -26.9414174], [-48.6977838, -26.9416534], [-48.6977017, -26.9418611], [-48.6974165, -26.9421969]], [[-48.6974165, -26.9421969], [-48.6972428, -26.9421539], [-48.6970418, -26.94208], [-48.6969595, -26.9420574], [-48.6968737, -26.9420444], [-48.6967321, -26.9420572], [-48.6965923, -26.9420984], [-48.6964515, -26.9421402], [-48.6963107, -26.9421631], [-48.6962037, -26.9421553], [-48.6961003, -26.9421271], [-48.6959108, -26.9420606], [-48.6957712, -26.9419636], [-48.6956706, -26.9418666], [-48.6954039, -26.9415054], [-48.6953146, -26.9413276], [-48.695276, -26.9412345], [-48.6952514, -26.9411333], [-48.6952297, -26.9406006], [-48.695096, -26.9402313]], [[-48.714571, -26.9881139], [-48.7145173, -26.987667], [-48.7144959, -26.9874304], [-48.7144771, -26.9872152], [-48.7145388, -26.9870049], [-48.7146273, -26.9867779], [-48.7147104, -26.9865508], [-48.7147721, -26.9863166], [-48.7147668, -26.9860226], [-48.7147426, -26.9857525], [-48.7147265, -26.9853772], [-48.7147104, -26.985143], [-48.7146702, -26.9849852], [-48.7146166, -26.9848514], [-48.714571, -26.9847653], [-48.7144529, -26.9846291], [-48.7143269, -26.9845383], [-48.7142732, -26.9844498], [-48.7141901, -26.9842921], [-48.7140372, -26.9840698], [-48.7138387, -26.9837543], [-48.7136134, -26.983324], [-48.7134552, -26.9829392], [-48.7133157, -26.9825783], [-48.7131762, -26.9820955], [-48.7130528, -26.9817369], [-48.712916, -26.9813497], [-48.7128463, -26.9810127], [-48.7127551, -26.9806995], [-48.7127176, -26.9804749], [-48.7126988, -26.9803482], [-48.7126371, -26.9801522], [-48.712562, -26.9800613], [-48.7124252, -26.9799896], [-48.7122643, -26.9798295], [-48.7120819, -26.9797076], [-48.7118083, -26.9796383], [-48.7114703, -26.9795379], [-48.7108642, -26.9793562], [-48.7102365, -26.979165], [-48.709228, -26.9788471], [-48.7088176, -26.9786654], [-48.7085333, -26.9784909], [-48.7084046, -26.9783427], [-48.7083187, -26.978075], [-48.708241, -26.9777093], [-48.7081954, -26.9774846], [-48.7081337, -26.9771691], [-48.7080934, -26.9767842], [-48.7080773, -26.9763755], [-48.7080532, -26.9760743], [-48.7079996, -26.9756799], [-48.7079942, -26.975252], [-48.7079714, -26.9748468], [-48.7079727, -26.9748121]], [[-48.7079727, -26.9748121], [-48.7079762, -26.9747203]], [[-48.7556542, -27.0392753], [-48.7548543, -27.0391113], [-48.7545959, -27.0390704], [-48.7540615, -27.0388938], [-48.7537182, -27.0386984], [-48.7533678, -27.0383737], [-48.7533254, -27.0382444], [-48.7533218, -27.0380711], [-48.7533218, -27.0379324], [-48.7532475, -27.0378378], [-48.7532157, -27.0377905], [-48.753067, -27.0377464], [-48.7530068, -27.0375856], [-48.7530352, -27.037428], [-48.7531236, -27.0372798], [-48.7531909, -27.0370339], [-48.7531944, -27.0368101], [-48.7532014, -27.0365038], [-48.7532294, -27.0361814], [-48.7532364, -27.0359464], [-48.7532294, -27.0357135], [-48.7533041, -27.03557], [-48.7534535, -27.0353453], [-48.7535726, -27.0352268], [-48.7537197, -27.0350812], [-48.7538808, -27.034867], [-48.7539976, -27.0346403], [-48.7541213, -27.0344677], [-48.7542825, -27.0342888], [-48.7544436, -27.0341432], [-48.7545673, -27.0339851], [-48.7546304, -27.033877], [-48.7546888, -27.0337272], [-48.7547378, -27.0335775], [-48.7546911, -27.0334464], [-48.7546444, -27.0333591], [-48.7545743, -27.0332988], [-48.7545066, -27.0332426], [-48.7544459, -27.0331864], [-48.7544202, -27.0330721], [-48.7544389, -27.032966], [-48.7544809, -27.0328745], [-48.7545463, -27.0327351], [-48.7545697, -27.0326311], [-48.7545883, -27.0325625], [-48.754586, -27.0324689], [-48.754551, -27.0324065], [-48.7544786, -27.032419], [-48.7543572, -27.0323919], [-48.7542895, -27.0323358], [-48.7542288, -27.0322713], [-48.7541937, -27.0321673], [-48.7541003, -27.0319967], [-48.754063, -27.0318574], [-48.75407, -27.0317368], [-48.754091, -27.031612], [-48.754154, -27.0315059], [-48.7542171, -27.0314102], [-48.7543198, -27.0313457], [-48.7544482, -27.031275], [-48.7545276, -27.0312085], [-48.7545954, -27.0310816], [-48.7546047, -27.030988], [-48.7546024, -27.0308715], [-48.754551, -27.0307342], [-48.7544412, -27.0306448], [-48.7543899, -27.0304992], [-48.7543572, -27.0303994], [-48.7543595, -27.0302912], [-48.7542965, -27.0302143], [-48.7542054, -27.0301935], [-48.754063, -27.0300874], [-48.7540396, -27.0299959], [-48.7540303, -27.0299043], [-48.7540443, -27.0298503], [-48.754091, -27.0297983], [-48.7541564, -27.0297525], [-48.7542544, -27.0297067], [-48.7543338, -27.0296464], [-48.7543689, -27.0295487], [-48.7543338, -27.0294592], [-48.7542537, -27.0294139], [-48.7539752, -27.0293361], [-48.7538695, -27.0293342], [-48.753774, -27.0293596], [-48.7536866, -27.0293958], [-48.7535849, -27.0294212], [-48.7534731, -27.0294212], [-48.7533064, -27.0293542], [-48.7532475, -27.0292111], [-48.7530727, -27.0291441], [-48.7527047, -27.0289739], [-48.7524059, -27.0289667], [-48.7522372, -27.0288834], [-48.7521193, -27.0288254], [-48.7520177, -27.0287729], [-48.7519486, -27.0287476], [-48.7518835, -27.0287512], [-48.7518266, -27.0287657], [-48.7517534, -27.0287693], [-48.751666, -27.0287639], [-48.7515766, -27.0287657], [-48.7514973, -27.0287947], [-48.7514505, -27.0288345], [-48.751416, -27.0288888], [-48.7513733, -27.0289359], [-48.7513001, -27.0289757], [-48.7512351, -27.0290011], [-48.7511456, -27.0290228], [-48.7510338, -27.0290282], [-48.7509017, -27.0290264], [-48.7508062, -27.0290192], [-48.7507513, -27.0290029], [-48.7507045, -27.0289649], [-48.7506964, -27.0289105], [-48.7507106, -27.028858], [-48.7507391, -27.0288109], [-48.7507696, -27.0287765], [-48.7507858, -27.028724], [-48.7507757, -27.028677], [-48.7507655, -27.0286389], [-48.750731, -27.0285973], [-48.7507086, -27.0285593], [-48.7507086, -27.0285013], [-48.7507411, -27.028447], [-48.750731, -27.0283728], [-48.7506375, -27.0282623], [-48.7505927, -27.0281862], [-48.7505744, -27.0281048], [-48.7505114, -27.028007], [-48.7504667, -27.0279309], [-48.7504382, -27.0279056], [-48.7504118, -27.0278712], [-48.7503915, -27.0278259], [-48.7503346, -27.0277951], [-48.7502695, -27.0277281], [-48.7502329, -27.0276159], [-48.7502024, -27.0275235], [-48.7501963, -27.0274239], [-48.7501882, -27.0273388], [-48.7501943, -27.0272392], [-48.7502065, -27.0271777], [-48.7502512, -27.0271378], [-48.7503386, -27.0271016], [-48.7504017, -27.0270726], [-48.7504281, -27.0270292], [-48.7504199, -27.0269839], [-48.7504342, -27.0269097], [-48.7504525, -27.0268626], [-48.7504199, -27.0268282], [-48.7503508, -27.026821], [-48.7502146, -27.0268445], [-48.7501171, -27.026859], [-48.7500398, -27.0268952], [-48.7499748, -27.0268898], [-48.7499687, -27.0268554], [-48.7499687, -27.0267884], [-48.7499606, -27.0267395], [-48.7499321, -27.026696], [-48.7499016, -27.0266471], [-48.7498487, -27.0265674], [-48.7498406, -27.0263882], [-48.7498609, -27.0262777], [-48.7498752, -27.0262071], [-48.7499646, -27.0261256], [-48.7500419, -27.0260876], [-48.7502146, -27.0260586], [-48.7503, -27.026046], [-48.7504992, -27.0259934], [-48.7505968, -27.0259735], [-48.7507472, -27.0259283], [-48.7509546, -27.0258739], [-48.7511416, -27.0258214], [-48.7511944, -27.025778], [-48.7511639, -27.0257309], [-48.7510806, -27.0257128], [-48.7509891, -27.0257254], [-48.7507188, -27.0257236], [-48.7506131, -27.0257146], [-48.7504891, -27.025691], [-48.7504118, -27.0256548], [-48.7501146, -27.0256359], [-48.749951, -27.0255881], [-48.7499107, -27.0254854], [-48.7499295, -27.0253539], [-48.7499858, -27.0252273], [-48.7501012, -27.0250863], [-48.7501333, -27.0249597], [-48.7500797, -27.0248665], [-48.7500046, -27.0247877], [-48.7498973, -27.0247471], [-48.7496613, -27.0247948], [-48.7494843, -27.0248283], [-48.7493099, -27.0248594], [-48.7490497, -27.0248594], [-48.7490068, -27.0247996], [-48.7489854, -27.0246849], [-48.7490068, -27.0245416], [-48.7490175, -27.0243982], [-48.7489746, -27.0242931], [-48.7488647, -27.0242262], [-48.7487761, -27.0241521], [-48.7487037, -27.0240589], [-48.7486259, -27.024004], [-48.7484972, -27.0239347], [-48.7482719, -27.0238033], [-48.7481136, -27.0237411], [-48.7480198, -27.0236121], [-48.7479366, -27.0233732], [-48.7479071, -27.0232609], [-48.7477837, -27.0231677], [-48.7476362, -27.0230912], [-48.7474189, -27.0229957], [-48.7471534, -27.022924], [-48.7469469, -27.0228642], [-48.746684, -27.0228045], [-48.7465097, -27.0227711], [-48.746389, -27.0227687], [-48.7462656, -27.0228141], [-48.7461503, -27.0228475], [-48.7459357, -27.0228427], [-48.7457292, -27.022826], [-48.7456165, -27.0227758], [-48.7455092, -27.0227042], [-48.7453912, -27.0226301], [-48.7453402, -27.0225608], [-48.7453, -27.0225106], [-48.7452973, -27.0224342], [-48.7453483, -27.0224031], [-48.7453939, -27.0223672], [-48.7453858, -27.0223147], [-48.7453456, -27.0222788], [-48.7452759, -27.0222693], [-48.7452115, -27.0222836], [-48.7451578, -27.0223338], [-48.7451203, -27.022384], [-48.7450157, -27.0224318], [-48.7449567, -27.0224748], [-48.7447931, -27.0225417], [-48.7446616, -27.022568], [-48.7445999, -27.022599], [-48.7444605, -27.0226492], [-48.7443264, -27.0226588], [-48.7441171, -27.0226683], [-48.743983, -27.0227424], [-48.7438597, -27.0228045], [-48.7436236, -27.0228642], [-48.743511, -27.0228403], [-48.7433892, -27.0227988], [-48.7432754, -27.0227065], [-48.7431717, -27.0226033], [-48.7431005, -27.022491], [-48.7430802, -27.0223914], [-48.7430904, -27.0222791], [-48.7430822, -27.022185], [-48.7430192, -27.0221343], [-48.7428241, -27.0220473], [-48.7426513, -27.0219097], [-48.7426208, -27.0218246], [-48.742568, -27.0217395], [-48.7425049, -27.0216435], [-48.7424501, -27.0215675], [-48.7423952, -27.0215494], [-48.7423464, -27.0215476], [-48.7423159, -27.0216019], [-48.7422468, -27.0216453], [-48.7421533, -27.0216888], [-48.7421025, -27.0217486], [-48.7420516, -27.0218264], [-48.7420171, -27.0219278], [-48.7419703, -27.021993], [-48.7419114, -27.0220256], [-48.7418362, -27.0220437], [-48.7417691, -27.0220492], [-48.7416939, -27.0220618], [-48.7416349, -27.0221198], [-48.7415475, -27.0221723], [-48.7414215, -27.0221995], [-48.7412833, -27.0221596], [-48.7412121, -27.0221198], [-48.7411268, -27.022098], [-48.7409946, -27.0220238], [-48.7409296, -27.0219405], [-48.740834, -27.0218608], [-48.7407649, -27.0218011], [-48.7406858, -27.0217139], [-48.7405825, -27.021653], [-48.7404846, -27.0216088], [-48.7403908, -27.0215981], [-48.7402969, -27.021573], [-48.7401976, -27.0215395], [-48.7401199, -27.0214822], [-48.7400997, -27.0214236], [-48.7401239, -27.021377], [-48.7402003, -27.0213484], [-48.7402701, -27.0213125], [-48.7402818, -27.0212554], [-48.7401884, -27.0211743], [-48.7401487, -27.0210848], [-48.7401253, -27.0209496], [-48.7401113, -27.0208415], [-48.740102, -27.0207125], [-48.7400385, -27.0205462], [-48.7399861, -27.0204529], [-48.7398629, -27.0202855], [-48.7398043, -27.0202059], [-48.7395578, -27.0201373], [-48.7390649, -27.0202416], [-48.7388708, -27.0203102], [-48.7386612, -27.0203788], [-48.7384825, -27.0204145], [-48.73831, -27.0204145], [-48.7380851, -27.0203733], [-48.7378977, -27.0203202], [-48.7377371, -27.0202423], [-48.7376335, -27.0201572], [-48.7375725, -27.0200449], [-48.7375379, -27.019949], [-48.7375562, -27.019853], [-48.737605, -27.0197624], [-48.7377087, -27.0196538], [-48.7378062, -27.019518], [-48.7378245, -27.0194383], [-48.7378225, -27.0193441], [-48.7377656, -27.01925], [-48.7376761, -27.0191956], [-48.737603, -27.0191413], [-48.7375257, -27.0190327], [-48.7374485, -27.0189457], [-48.7373326, -27.0188643], [-48.7372696, -27.0188353], [-48.7371741, -27.0188154], [-48.737046, -27.0187936], [-48.7369342, -27.0187339], [-48.7368712, -27.0186415], [-48.7368021, -27.0185564], [-48.7366984, -27.0184876], [-48.7365073, -27.018417], [-48.7364037, -27.0183626], [-48.7362248, -27.0183355], [-48.7361048, -27.0183011], [-48.7359971, -27.0182323], [-48.7359077, -27.0181471], [-48.735806, -27.018053], [-48.7357268, -27.017995], [-48.7356414, -27.0179733], [-48.7355418, -27.0179751], [-48.735371, -27.0180349], [-48.735306, -27.0180765], [-48.7352267, -27.0180964], [-48.7350844, -27.0181073], [-48.7349909, -27.018091], [-48.7349076, -27.018091], [-48.73481, -27.0181164], [-48.7347023, -27.0181689], [-48.7345091, -27.018225], [-48.734375, -27.0182413], [-48.7342469, -27.0182105], [-48.7341433, -27.0181653], [-48.7340233, -27.0181308], [-48.7338932, -27.0181471], [-48.7337631, -27.0181942], [-48.7337103, -27.0182522], [-48.7337022, -27.0183101], [-48.7337204, -27.0183608], [-48.7337631, -27.0184242], [-48.7338079, -27.0184912], [-48.7338302, -27.0185602], [-48.7338302, -27.0186465], [-48.7337917, -27.0187464], [-48.7337263, -27.018814], [-48.7336434, -27.0188618], [-48.7335628, -27.0188806], [-48.7334671, -27.0188733], [-48.7333539, -27.0188535], [-48.7332943, -27.0188223], [-48.7332523, -27.0187838], [-48.7332102, -27.0187141], [-48.7331437, -27.0186746], [-48.7330725, -27.0186663], [-48.7330118, -27.0186809], [-48.7329347, -27.0187173], [-48.7328635, -27.018736], [-48.7327362, -27.0187402], [-48.7326522, -27.0187141], [-48.732595, -27.0186621], [-48.7325506, -27.0185883], [-48.7325226, -27.0185113], [-48.7325179, -27.0184188], [-48.7325389, -27.0183522], [-48.7325786, -27.0182482], [-48.73256, -27.0181764], [-48.7325226, -27.01814], [-48.7324642, -27.0181078], [-48.7323988, -27.0181151], [-48.7323276, -27.0181587], [-48.7322751, -27.0182347], [-48.7322412, -27.0183085], [-48.7321969, -27.0183761], [-48.7321256, -27.0184104], [-48.7320171, -27.0183772], [-48.7319178, -27.0183293], [-48.7318318, -27.0182571], [-48.731781, -27.0181756], [-48.7317444, -27.0180705], [-48.7317465, -27.0179492], [-48.7317444, -27.0178931], [-48.7317932, -27.0178677], [-48.7318481, -27.0178659], [-48.7319091, -27.0178351], [-48.7319355, -27.0177609], [-48.7319335, -27.0176522], [-48.7318827, -27.0175218], [-48.7318644, -27.0173751], [-48.7318217, -27.0172303], [-48.7317871, -27.0170963], [-48.7317038, -27.0169786], [-48.7315086, -27.0169822], [-48.7311712, -27.0171108], [-48.7310289, -27.0172013], [-48.7308846, -27.0172393], [-48.7306281, -27.0172876], [-48.7304998, -27.0172986], [-48.7304105, -27.0172813], [-48.7303202, -27.0172584], [-48.7302523, -27.0171929], [-48.730204, -27.0171547], [-48.7301075, -27.0170926], [-48.7300136, -27.0170495], [-48.7298527, -27.0169874], [-48.7296622, -27.0168895], [-48.7293082, -27.0167843], [-48.729166, -27.016715], [-48.7289917, -27.0166505], [-48.7288495, -27.0166003], [-48.7287208, -27.0165621], [-48.7285947, -27.0165716], [-48.7285437, -27.0166194], [-48.7284311, -27.0166672], [-48.7282272, -27.0166648], [-48.7280341, -27.0166314], [-48.7279134, -27.0165716], [-48.72779, -27.0165525], [-48.7276211, -27.0165693], [-48.7274271, -27.0166094], [-48.727287, -27.0166385], [-48.7270255, -27.016549], [-48.7270489, -27.0164554], [-48.7271096, -27.016341], [-48.7271726, -27.0162266], [-48.7272287, -27.0161101], [-48.7272637, -27.0160186], [-48.7272754, -27.0158958], [-48.727245, -27.0157211], [-48.7272491, -27.0156], [-48.7272597, -27.0154329], [-48.7271358, -27.0153856], [-48.7270402, -27.0154235], [-48.7269695, -27.0154329], [-48.7268279, -27.0153383], [-48.7268456, -27.0152437], [-48.7267854, -27.0151681], [-48.7266899, -27.0150829], [-48.7266155, -27.015023], [-48.7264881, -27.0149474], [-48.7263713, -27.0149032], [-48.7262085, -27.0148591], [-48.7259607, -27.0148746], [-48.725859, -27.0148828], [-48.7257358, -27.0149268], [-48.7256588, -27.0149954], [-48.7255232, -27.015086], [-48.7254092, -27.0150969], [-48.7253322, -27.0150228], [-48.7252459, -27.0149679], [-48.7250056, -27.0148856], [-48.7248978, -27.0149322], [-48.7247714, -27.0149871], [-48.7246574, -27.0149487], [-48.7246266, -27.0148746], [-48.7246359, -27.0147374], [-48.7246451, -27.0145946], [-48.7246266, -27.014397], [-48.7245527, -27.0142076], [-48.7245219, -27.014117], [-48.7243031, -27.0140484], [-48.7240351, -27.01415], [-48.7238656, -27.0143915], [-48.723767, -27.0145452], [-48.7237116, -27.0146111], [-48.7235575, -27.0147264], [-48.7234096, -27.0147785], [-48.7232679, -27.0147703], [-48.7230091, -27.0147428], [-48.722664, -27.0146989], [-48.7224298, -27.0146962], [-48.7222696, -27.0147428], [-48.7220478, -27.0147648], [-48.7217582, -27.0147758], [-48.7216257, -27.0147758], [-48.7215579, -27.0147181], [-48.7215271, -27.014655], [-48.7214193, -27.0146001], [-48.7212744, -27.0146001], [-48.7211574, -27.0145919], [-48.7210495, -27.0145287], [-48.7210187, -27.0144354], [-48.7210372, -27.0143558], [-48.721068, -27.0142597], [-48.7210495, -27.0141609], [-48.7209817, -27.0141033], [-48.7206213, -27.0139111], [-48.7204272, -27.0137492], [-48.7202238, -27.0135571], [-48.7200852, -27.0134226], [-48.7198941, -27.0132469], [-48.7197432, -27.0131179], [-48.7195583, -27.0129806], [-48.7193549, -27.0127885], [-48.7192255, -27.0126403], [-48.7189791, -27.0124756], [-48.7188743, -27.0123713], [-48.7187295, -27.0122477], [-48.7186001, -27.0121407], [-48.7184368, -27.0119458], [-48.7183043, -27.0118387], [-48.7180671, -27.011696], [-48.7179284, -27.0115368], [-48.7177651, -27.0113337], [-48.7176357, -27.0111305], [-48.7175032, -27.0108753], [-48.7173985, -27.0107133], [-48.7172783, -27.0106364], [-48.7171582, -27.0105678], [-48.7170965, -27.010447], [-48.7170657, -27.0103208], [-48.7169425, -27.0101369], [-48.7166744, -27.0098294], [-48.7164957, -27.0096647], [-48.7162277, -27.0094012], [-48.7159535, -27.0091349], [-48.7157316, -27.008951], [-48.7155899, -27.0087616], [-48.7154678, -27.0085507], [-48.7154109, -27.0084402], [-48.7152523, -27.0083134], [-48.7151588, -27.0081885], [-48.7150267, -27.0080889], [-48.7148986, -27.0080164], [-48.7147441, -27.0079259], [-48.7146933, -27.0078426], [-48.7146709, -27.0077194], [-48.7146628, -27.0075781], [-48.7146465, -27.0074351], [-48.7145795, -27.007254], [-48.7144168, -27.0071562], [-48.7140713, -27.007054], [-48.7137032, -27.0069941], [-48.7134802, -27.0069122], [-48.7134094, -27.006827], [-48.7134377, -27.0066662], [-48.7136167, -27.0060413], [-48.7136757, -27.0058788], [-48.7136892, -27.0055896], [-48.7136516, -27.0052455], [-48.7136597, -27.0050424], [-48.7136677, -27.0048225], [-48.7136006, -27.0046146], [-48.713488, -27.0044712], [-48.7133458, -27.0043876], [-48.7131715, -27.0043206], [-48.7129301, -27.0042418], [-48.7127289, -27.0041103], [-48.7124688, -27.003857], [-48.7124124, -27.0036109], [-48.7123615, -27.0035129], [-48.7121549, -27.0033719], [-48.7119216, -27.0032763], [-48.7117687, -27.003219], [-48.7115568, -27.003078], [-48.7114307, -27.0029417], [-48.7113878, -27.002796], [-48.7114066, -27.0026406], [-48.7114307, -27.0024232], [-48.711353, -27.0022296], [-48.7112188, -27.001993], [-48.7107756, -27.0015934], [-48.7107354, -27.0014022], [-48.7106952, -27.0011943], [-48.7106818, -27.0009577], [-48.7106979, -27.0007641], [-48.7107354, -27.0004821], [-48.7108159, -27.0002312], [-48.7109151, -27.0000758], [-48.7110197, -26.999942], [-48.7111941, -26.9997437], [-48.7114194, -26.9995381], [-48.7115401, -26.9993517], [-48.7117546, -26.9990578]], [[-48.7117546, -26.9990578], [-48.7118722, -26.9989711]], [[-48.7118722, -26.9989711], [-48.7118941, -26.998955], [-48.7119665, -26.9989], [-48.7120363, -26.9987447], [-48.7120819, -26.9986276], [-48.712157, -26.99852], [-48.7123313, -26.9983432], [-48.7124306, -26.9982237], [-48.7125834, -26.9980516], [-48.7127256, -26.9978078], [-48.7128999, -26.9975497], [-48.7129938, -26.9974255], [-48.7130931, -26.997337], [-48.7131977, -26.9972462], [-48.7133023, -26.9971673], [-48.7133827, -26.9970646], [-48.713482, -26.9969044], [-48.7135946, -26.9968041], [-48.7137609, -26.9966511], [-48.7138897, -26.9964982], [-48.7140104, -26.9963643], [-48.7143725, -26.9959867], [-48.7146058, -26.9957405], [-48.7148231, -26.995535], [-48.7149223, -26.9953605], [-48.714984, -26.9952171], [-48.7150055, -26.9950379], [-48.7149411, -26.9949064], [-48.7148767, -26.9947368], [-48.7148526, -26.9945742], [-48.7148338, -26.9943926], [-48.7148204, -26.9941871], [-48.7147909, -26.9939672], [-48.7147373, -26.993721], [-48.7147051, -26.9935155], [-48.7146407, -26.9933243], [-48.714579, -26.9931857], [-48.7145522, -26.9930781], [-48.7144798, -26.992875], [-48.7143939, -26.9927363], [-48.7143188, -26.9926312], [-48.7140721, -26.9924782], [-48.7138629, -26.9923874], [-48.71371, -26.9923372], [-48.7135678, -26.992287], [-48.7134793, -26.9922392], [-48.7134337, -26.9921675], [-48.7134257, -26.9920361], [-48.7134257, -26.9918425], [-48.7134552, -26.9916489], [-48.7135008, -26.9914553], [-48.7135678, -26.991288], [-48.7136617, -26.9911159], [-48.7137234, -26.9909892], [-48.7138119, -26.9908458], [-48.7138924, -26.9907167], [-48.7139406, -26.990602], [-48.7140023, -26.9904538], [-48.7140587, -26.9902722], [-48.7141499, -26.990069], [-48.7142276, -26.9899567], [-48.7143054, -26.9898611], [-48.7143913, -26.9897822], [-48.7145039, -26.9897153], [-48.7146085, -26.9896627], [-48.7147292, -26.9896054], [-48.7148124, -26.9895432], [-48.7148553, -26.9894428], [-48.7148794, -26.9893114], [-48.7148369, -26.9891646], [-48.7148277, -26.9891446]], [[-48.7145769, -26.9882155], [-48.714571, -26.9881139]], [[-48.7147855, -26.9890532], [-48.7147587, -26.9889648], [-48.7146836, -26.9886852], [-48.7145924, -26.9883267], [-48.7145783, -26.9882392], [-48.7145769, -26.9882155]], [[-48.7148277, -26.9891446], [-48.7147855, -26.9890532]], [[-48.695096, -26.9402313], [-48.6949728, -26.939971], [-48.6949311, -26.9397336], [-48.6948975, -26.9394653]]]}}
