{"type": "Feature", "properties": {"rio": "ribeirao-murta", "fonte": "© OpenStreetMap contributors, ODbL (openstreetmap.org/copyright)", "trechos": 5}, "geometry": {"type": "MultiLineString", "coordinates": [[[-48.7486958, -26.8993975], [-48.74861, -26.8995363], [-48.7483498, -26.8996367], [-48.7482613, -26.8996487], [-48.7481942, -26.8996511], [-48.7481325, -26.8997252], [-48.747748, -26.8998122], [-48.7475602, -26.8999127], [-48.7474422, -26.8999079], [-48.7473296, -26.8999749], [-48.7473081, -26.9000897], [-48.7461762, -26.9008551], [-48.7452615, -26.9009292], [-48.7445932, -26.9009825], [-48.7440674, -26.9010259], [-48.7439561, -26.89957], [-48.7438937, -26.8987554], [-48.7438141, -26.8986891], [-48.7430726, -26.8987569], [-48.74304, -26.8987236], [-48.7430024, -26.8983388], [-48.7422045, -26.8979967], [-48.7412973, -26.8971889], [-48.7413397, -26.8970586], [-48.7412331, -26.8969889], [-48.7408093, -26.8969615], [-48.7405276, -26.8969013], [-48.7399607, -26.8967208], [-48.7396214, -26.8964485], [-48.7393214, -26.8961864], [-48.738752, -26.8957551], [-48.7385684, -26.895553], [-48.7380173, -26.8951326], [-48.7378176, -26.8948892], [-48.73705, -26.8934706], [-48.7369026, -26.8933013], [-48.7366743, -26.893157], [-48.7351595, -26.8926535], [-48.734888, -26.8926086], [-48.7343745, -26.8926869], [-48.7340195, -26.8927804], [-48.7333013, -26.8929175], [-48.7311112, -26.8929758], [-48.7302061, -26.8930401], [-48.7299994, -26.8930956], [-48.7298615, -26.8930923], [-48.7293166, -26.8928968], [-48.7289813, -26.8927676], [-48.7287085, -26.8926492], [-48.7285495, -26.8925451], [-48.7283944, -26.8923799], [-48.7282598, -26.8922676], [-48.7280948, -26.8921802], [-48.7279916, -26.8921504], [-48.7278575, -26.8921791], [-48.7277159, -26.8922352], [-48.726954, -26.8924625], [-48.7265622, -26.8922769], [-48.7261949, -26.8922823], [-48.7255275, -26.8924407], [-48.7244784, -26.8923928], [-48.7243277, -26.8923705], [-48.7241399, -26.8923251], [-48.7238771, -26.892294], [-48.7235546, -26.8922774], [-48.7225735, -26.8922581], [-48.7217286, -26.8922031], [-48.7209489, -26.8921296]], [[-48.7140518, -26.8882908], [-48.7139436, -26.8882258], [-48.7133717, -26.88783], [-48.7129326, -26.8875133], [-48.7125283, -26.8871726], [-48.712295, -26.8869344], [-48.7121315, -26.8866962], [-48.7119363, -26.8864037], [-48.7117572, -26.8861161], [-48.7116107, -26.8857857], [-48.7114963, -26.8854361], [-48.7114385, -26.885202], [-48.7113995, -26.8848913], [-48.7113798, -26.8845381], [-48.7113681, -26.8841802], [-48.7113231, -26.8834266], [-48.711298, -26.8830259], [-48.7112889, -26.8826515], [-48.71123, -26.8823394], [-48.711163, -26.8820009], [-48.7109175, -26.8808089], [-48.7107814, -26.8802034], [-48.7106945, -26.8798025], [-48.7106104, -26.8794471], [-48.7105037, -26.8789133], [-48.7104449, -26.8785698], [-48.7103808, -26.8783388], [-48.7102957, -26.8781639], [-48.7101772, -26.8779993], [-48.7100629, -26.8778738], [-48.7099999, -26.8778004], [-48.7099707, -26.8777742], [-48.7098194, -26.8776385], [-48.7095798, -26.8774827], [-48.7092164, -26.8772575], [-48.7089008, -26.8770654]], [[-48.7089008, -26.8770654], [-48.7084598, -26.876778], [-48.7079949, -26.876485], [-48.7077289, -26.8762911], [-48.7075566, -26.8761825], [-48.7072548, -26.8760652], [-48.7069495, -26.8759495], [-48.7067044, -26.8758776], [-48.706431, -26.8758183], [-48.7060231, -26.8757851], [-48.7058154, -26.8758072], [-48.7055883, -26.8758514], [-48.7055402, -26.8758697], [-48.7053287, -26.8759499], [-48.7050462, -26.8761131], [-48.7048953, -26.8762433], [-48.7047639, -26.8763876], [-48.7046412, -26.8765791], [-48.7040319, -26.8777555], [-48.7038924, -26.8779194], [-48.703744, -26.8780692], [-48.7035466, -26.8782125], [-48.7028205, -26.8786009], [-48.7021082, -26.8789028], [-48.7014719, -26.879217], [-48.70145, -26.879228], [-48.7012333, -26.879333], [-48.7010153, -26.8794502], [-48.7008078, -26.8795501], [-48.7005141, -26.8796568], [-48.700339, -26.8796944], [-48.7001151, -26.8797234], [-48.6999736, -26.8797207], [-48.6998784, -26.879719], [-48.6982089, -26.8792923], [-48.6978753, -26.8792499], [-48.6977082, -26.8791726], [-48.6975694, -26.8790859], [-48.6974544, -26.8790156], [-48.6973921, -26.8789273], [-48.697397, -26.8788122], [-48.6976394, -26.8782408], [-48.6977826, -26.8780244], [-48.6978772, -26.8779367], [-48.6980036, -26.8778727], [-48.6981912, -26.8778202], [-48.698331, -26.8777154], [-48.698362, -26.877586], [-48.6982652, -26.8770677], [-48.6981642, -26.8768685], [-48.6979088, -26.8765687], [-48.6977191, -26.876405], [-48.697565, -26.8763127], [-48.6974074, -26.8762378], [-48.6969982, -26.8761982], [-48.6967539, -26.8762293], [-48.6965237, -26.8762716], [-48.696011, -26.8764133], [-48.6957249, -26.8764766], [-48.6954598, -26.8765162], [-48.6952991, -26.8765258], [-48.695165, -26.8765012], [-48.6951353, -26.8764846], [-48.6950363, -26.8764291], [-48.6949832, -26.8763993], [-48.6947894, -26.8763717], [-48.6946133, -26.8764025], [-48.6943493, -26.8765462], [-48.694196, -26.8766401], [-48.694034, -26.8767388], [-48.6938718, -26.8768708], [-48.6937663, -26.877047], [-48.6937148, -26.877255], [-48.6936456, -26.8774567], [-48.6935192, -26.8776554], [-48.6933977, -26.8777903], [-48.693262, -26.8778999], [-48.6930638, -26.8780625], [-48.6929257, -26.8782582], [-48.6928107, -26.8784145], [-48.6926583, -26.8785883], [-48.6925362, -26.8786705], [-48.6923627, -26.8787701], [-48.6919338, -26.8790272], [-48.6914695, -26.8792843]], [[-48.7201668, -26.8920644], [-48.7186152, -26.8919492], [-48.7178683, -26.8918018], [-48.7174275, -26.8916325], [-48.7169994, -26.8913437]], [[-48.7167104, -26.8911143], [-48.7141929, -26.8883797], [-48.7140518, -26.8882908]]]}}
