{"type": "Feature", "properties": {"rio": "rio-dos-cedros", "fonte": "© OpenStreetMap contributors, ODbL (openstreetmap.org/copyright)", "trechos": 5, "origem": [{"bruto": "tracado-rio-dos-cedros-osm.json", "base_osm": "2026-10-06T12:38:11Z"}], "cobertura": "RECORTADO na caixa do mapa (extensão do tronco e das réguas do cadastro), para não mudar o enquadramento do Monitor. Baixado por scripts/baixar_tracados_afluentes.py."}, "geometry": {"type": "MultiLineString", "coordinates": [[[-49.2582598, -26.7249237], [-49.2582154, -26.7257107], [-49.2587189, -26.7261207], [-49.2592298, -26.7261472], [-49.2601627, -26.7264249], [-49.2610438, -26.7270796], [-49.261414, -26.7277608], [-49.2615343, -26.7292618], [-49.2618235, -26.7300461], [-49.2629265, -26.7306964], [-49.2638902, -26.7311555], [-49.2639438, -26.7313659], [-49.2638153, -26.7323893], [-49.2640294, -26.7327814], [-49.2642972, -26.7328484], [-49.2651967, -26.7325901], [-49.2656036, -26.7325997], [-49.2662247, -26.7335465], [-49.2663746, -26.7343021], [-49.2683128, -26.736952], [-49.2687984, -26.737318], [-49.2693945, -26.7378311], [-49.2702726, -26.7390361], [-49.2709793, -26.7394665], [-49.2721252, -26.739696], [-49.2731104, -26.7402315], [-49.273785, -26.740748], [-49.2741298, -26.7411968], [-49.2744168, -26.7415704], [-49.2744511, -26.7418451], [-49.2744061, -26.7427276], [-49.2741598, -26.7431962], [-49.2739491, -26.7432513], [-49.2736486, -26.7432107], [-49.2725964, -26.7431292], [-49.2715255, -26.7421825], [-49.2707331, -26.7411305], [-49.2700798, -26.7409105], [-49.2697264, -26.7411305], [-49.2693195, -26.7418095], [-49.2684521, -26.7422781], [-49.2680023, -26.7425363], [-49.2679274, -26.7429475], [-49.2682486, -26.7435022], [-49.2697371, -26.7456634], [-49.2698978, -26.7461225], [-49.2696435, -26.7470284], [-49.2691696, -26.7479776], [-49.2690625, -26.7489435], [-49.2692231, -26.7498424], [-49.2693623, -26.7502536], [-49.2693731, -26.7510664], [-49.270476, -26.7516114], [-49.2712578, -26.7515254], [-49.2718789, -26.7516401], [-49.2723072, -26.7522139], [-49.2722615, -26.7525535], [-49.2716647, -26.7531223], [-49.271579, -26.7538681], [-49.2712364, -26.7544993], [-49.2715469, -26.7549009], [-49.2708937, -26.7559527], [-49.2706164, -26.7567347], [-49.2707325, -26.7584634], [-49.2715843, -26.7595006], [-49.2717414, -26.7599721], [-49.2717684, -26.7601938], [-49.2718322, -26.7607175], [-49.2716463, -26.7611117], [-49.2709648, -26.7612845], [-49.2702524, -26.7613882], [-49.2687733, -26.761976], [-49.268671, -26.7625078], [-49.2683707, -26.7631583], [-49.2677279, -26.7636976], [-49.2669893, -26.7640437], [-49.266729, -26.7642853], [-49.2667578, -26.7645589], [-49.2669469, -26.764815], [-49.2678518, -26.7669404], [-49.2681461, -26.7677908], [-49.2681743, -26.7692989], [-49.2682531, -26.7696974], [-49.2688715, -26.7709892], [-49.2693062, -26.7715101], [-49.2693762, -26.7717992], [-49.2693149, -26.7722888], [-49.2687519, -26.7743593], [-49.2687966, -26.7755066], [-49.2688663, -26.7768132], [-49.2687752, -26.777698], [-49.2685798, -26.7782918], [-49.2681228, -26.779302], [-49.2677893, -26.7797267], [-49.2673284, -26.7800757], [-49.2670921, -26.7803674], [-49.2670337, -26.780633], [-49.2670658, -26.7809273], [-49.267235, -26.7811356], [-49.2674976, -26.781258], [-49.2680285, -26.7813257], [-49.2692216, -26.7818387], [-49.2701842, -26.7824325], [-49.2707764, -26.782883], [-49.271106, -26.783284], [-49.271529, -26.784159], [-49.2715144, -26.7844611], [-49.271389, -26.7846434], [-49.271141, -26.7847475], [-49.270823, -26.784784], [-49.2698458, -26.7845418], [-49.2696008, -26.7845366], [-49.2694549, -26.7845861], [-49.2693674, -26.7848074], [-49.2694316, -26.7853856], [-49.2700909, -26.7862058], [-49.270403, -26.7867996], [-49.2708289, -26.7872214], [-49.2722116, -26.7883047], [-49.2729759, -26.7886562], [-49.2732267, -26.7888958], [-49.2732851, -26.7891328], [-49.2732209, -26.7893281], [-49.2723895, -26.7903566], [-49.271774, -26.7908045], [-49.2709726, -26.7915932], [-49.2704788, -26.7923487], [-49.270333, -26.7927471], [-49.270263, -26.7933225], [-49.2703763, -26.7939435], [-49.2702513, -26.7942521], [-49.2699362, -26.7944891], [-49.2695395, -26.7946505], [-49.2688511, -26.7947078], [-49.2686469, -26.794963], [-49.268574, -26.7954187], [-49.268679, -26.7958405], [-49.2690028, -26.7962988], [-49.2693441, -26.7965279], [-49.2699829, -26.7967258], [-49.2703709, -26.7967466], [-49.270753, -26.7966971], [-49.2710622, -26.7965045], [-49.2713189, -26.7961868], [-49.2714094, -26.7959082], [-49.2713685, -26.7956087], [-49.2711118, -26.7951635], [-49.2711264, -26.7948666], [-49.2714327, -26.794286], [-49.2717565, -26.7934527], [-49.2720161, -26.7932939], [-49.2730955, -26.7930569], [-49.2734193, -26.7930752], [-49.2737051, -26.7931897], [-49.2746444, -26.7941558], [-49.2747903, -26.7945073], [-49.274802, -26.794851], [-49.2746765, -26.7951843], [-49.274799, -26.7955176], [-49.2752337, -26.7960097], [-49.275575, -26.7962415], [-49.275925, -26.7963196], [-49.2762313, -26.7962988], [-49.2765172, -26.7961693], [-49.2767302, -26.795916], [-49.2771269, -26.7951843], [-49.2773165, -26.7950463], [-49.2775469, -26.7950125], [-49.2777482, -26.7950749], [-49.2778357, -26.795213], [-49.2778474, -26.7958587], [-49.2777045, -26.7962389], [-49.2771502, -26.7970096], [-49.2764698, -26.7976493]], [[-49.2759628, -26.7987952], [-49.2759571, -26.7996915], [-49.2758638, -26.8001394], [-49.275082, -26.801673], [-49.274945, -26.8024642], [-49.2749553, -26.8027219], [-49.2750647, -26.8029484], [-49.2752936, -26.8030975], [-49.2755906, -26.8031159], [-49.275898, -26.8029557], [-49.2762445, -26.8030202], [-49.276492, -26.8032503], [-49.2782778, -26.8040216], [-49.2788845, -26.8042038], [-49.2792346, -26.8043861], [-49.2800572, -26.8050422], [-49.2811024, -26.8062547], [-49.2822663, -26.8072805], [-49.2823451, -26.8074523], [-49.2823072, -26.8075851], [-49.2821438, -26.807671], [-49.28189, -26.8076893], [-49.2808574, -26.8073873], [-49.2804607, -26.8073534], [-49.2801048, -26.8073612], [-49.279113, -26.807796], [-49.2788709, -26.8079444], [-49.2786579, -26.8081787], [-49.278057, -26.8094779], [-49.2777331, -26.8099124], [-49.2774072, -26.8101094], [-49.2767554, -26.8103561], [-49.2762728, -26.8104205], [-49.2758107, -26.8104187], [-49.2755384, -26.8102695], [-49.2753631, -26.8100284], [-49.2750805, -26.8089028], [-49.2748619, -26.8087629], [-49.2745958, -26.8087352], [-49.2743627, -26.8087941], [-49.2741936, -26.8089562], [-49.2736655, -26.8100018], [-49.2736637, -26.8104343], [-49.2739428, -26.8109244], [-49.2741768, -26.8114706], [-49.2746597, -26.8118594], [-49.2752744, -26.8119311], [-49.2755921, -26.81213], [-49.2757798, -26.8123417], [-49.2758685, -26.8126381], [-49.275819, -26.8130302], [-49.2755467, -26.8136506], [-49.2751527, -26.81419], [-49.2750991, -26.8144164], [-49.2752965, -26.8152476], [-49.275617, -26.8161781], [-49.275842, -26.8169574], [-49.2754354, -26.8178199], [-49.2751948, -26.8181856]], [[-49.2751948, -26.8181856], [-49.2749097, -26.818597], [-49.2746509, -26.818751], [-49.2743182, -26.8187693], [-49.2737431, -26.8186887], [-49.2726833, -26.8184101], [-49.2721822, -26.818487], [-49.271792, -26.8187033], [-49.2715209, -26.8190662], [-49.2713566, -26.8195941], [-49.2713451, -26.8198607]], [[-49.2764698, -26.7976493], [-49.2760534, -26.7980407], [-49.2759659, -26.7983141], [-49.2759628, -26.7987952]], [[-49.2713451, -26.8198607], [-49.271336, -26.8200707], [-49.2715168, -26.8205435], [-49.2716811, -26.8207415], [-49.2720138, -26.8208625], [-49.2723958, -26.8206609], [-49.2726505, -26.8206718], [-49.2729093, -26.8209798], [-49.2733757, -26.8210702], [-49.2738129, -26.8211044], [-49.2740389, -26.821295], [-49.2740778, -26.821761], [-49.2738992, -26.8222444], [-49.2738253, -26.8226257], [-49.2740265, -26.8233222], [-49.2741128, -26.8243669], [-49.2740512, -26.8253492], [-49.2739403, -26.8258808], [-49.2734884, -26.8267128], [-49.2734691, -26.8270316], [-49.2735106, -26.8272332], [-49.2735481, -26.8276394], [-49.2736979, -26.8282047]]]}}
