{"type": "Feature", "properties": {"rio": "rio-rafael", "fonte": "© OpenStreetMap contributors, ODbL (openstreetmap.org/copyright)", "trechos": 1, "origem": [{"bruto": "rios-ibirama-osm.json", "base_osm": "2026-05-06T03:25:00Z"}], "nome": "Rio Rafael", "municipio": "ibirama"}, "geometry": {"type": "MultiLineString", "coordinates": [[[-49.5509173, -26.9806299], [-49.5509012, -26.980998], [-49.5508744, -26.9812132], [-49.5506008, -26.9815574], [-49.5502145, -26.9818442], [-49.54978, -26.9820737], [-49.5494796, -26.982437], [-49.5489432, -26.982982], [-49.5488091, -26.9831684], [-49.5487608, -26.9832975], [-49.548852, -26.9834696], [-49.5492382, -26.983809], [-49.5493401, -26.9840002], [-49.5497746, -26.9852909], [-49.5498176, -26.9858394], [-49.5498444, -26.986131], [-49.5498068, -26.9865087], [-49.5499624, -26.9868911], [-49.5500965, -26.9870584], [-49.5504774, -26.9873739], [-49.5505686, -26.987503], [-49.5505686, -26.9876751], [-49.5506544, -26.9880431], [-49.5507885, -26.98822], [-49.5510836, -26.9885929], [-49.5511533, -26.9887267], [-49.551164, -26.9889084], [-49.551223, -26.9897306], [-49.5512284, -26.9899743], [-49.5513893, -26.9903185], [-49.5513893, -26.9904619], [-49.5513732, -26.9907965], [-49.551443, -26.9909208], [-49.551561, -26.991026], [-49.551679, -26.9910523], [-49.5518185, -26.9910045], [-49.5520277, -26.9908897], [-49.552371, -26.9907846], [-49.5524998, -26.9908419], [-49.5526071, -26.9909328], [-49.5526392, -26.9910331], [-49.5527197, -26.9911431], [-49.5529182, -26.991167], [-49.5531274, -26.9911574], [-49.5533152, -26.9912052], [-49.5534707, -26.9913056], [-49.5535673, -26.9914251], [-49.553578, -26.9915351], [-49.553637, -26.9917119], [-49.5536692, -26.9919605], [-49.5536263, -26.9921278], [-49.5529826, -26.9933754], [-49.5527734, -26.9935905], [-49.5526285, -26.9936431], [-49.5525212, -26.9936239], [-49.5524193, -26.9935188], [-49.5523335, -26.9934327], [-49.5521511, -26.9934232], [-49.5518936, -26.9933467], [-49.5515664, -26.9932176], [-49.551325, -26.9930934], [-49.551105, -26.9930312], [-49.5509119, -26.9930217], [-49.5505364, -26.9928783], [-49.550472, -26.9929165], [-49.5500697, -26.9932798], [-49.5497639, -26.9934614], [-49.5496995, -26.9934758], [-49.5496083, -26.9933754], [-49.5495332, -26.993189], [-49.5495923, -26.9930073], [-49.5499249, -26.9925389], [-49.5499409, -26.9924624], [-49.5498444, -26.9923429], [-49.5494152, -26.9922282], [-49.5487125, -26.992209], [-49.5484121, -26.9923046], [-49.5481009, -26.9924433], [-49.5478488, -26.9925628], [-49.5476503, -26.9927396], [-49.5474036, -26.9930503], [-49.546733, -26.9939585], [-49.5459015, -26.994623], [-49.5458694, -26.9947042], [-49.5457996, -26.9948667], [-49.5456709, -26.9949958], [-49.5454348, -26.9950818], [-49.5447428, -26.9952826], [-49.5446999, -26.9953256], [-49.5446463, -26.995426], [-49.5446516, -26.9956745], [-49.5447321, -26.9960187], [-49.5448555, -26.9961477], [-49.544952, -26.9962911], [-49.5450057, -26.9964345], [-49.5449842, -26.9965254], [-49.5449145, -26.9965732], [-49.544775, -26.9965971], [-49.54448, -26.9968695], [-49.5443566, -26.9969651], [-49.5442117, -26.9970989], [-49.5441045, -26.9971898], [-49.5440079, -26.997228], [-49.5437075, -26.9972519], [-49.5435305, -26.9971945], [-49.5434339, -26.997185], [-49.5433642, -26.9972184], [-49.5433266, -26.9973045], [-49.5432944, -26.9974527], [-49.5433534, -26.9975817], [-49.5434715, -26.9976343], [-49.5436324, -26.9976725], [-49.543847, -26.9977394], [-49.5440133, -26.9979115], [-49.54448, -26.9984325], [-49.5445658, -26.9985759], [-49.544598, -26.9988101], [-49.544657, -26.9989487], [-49.5447857, -26.9990539], [-49.5449252, -26.9991112], [-49.5451076, -26.9991543], [-49.5453544, -26.9992642], [-49.5454831, -26.999355], [-49.5455046, -26.9994219], [-49.5454509, -26.999508], [-49.5453275, -26.9995032], [-49.5452471, -26.9995175], [-49.5450969, -26.9995844], [-49.5449574, -26.9995988], [-49.5448233, -26.9995414], [-49.5446945, -26.999508], [-49.5446087, -26.9995414], [-49.5445229, -26.9996179], [-49.5444692, -26.999747], [-49.5444853, -26.9999764], [-49.5446141, -27.0002154], [-49.5447696, -27.0004161], [-49.5449198, -27.0005595], [-49.5449896, -27.0006455], [-49.5450057, -27.000808], [-49.5448179, -27.0014868], [-49.5446784, -27.0018405], [-49.5445497, -27.0019504], [-49.5442225, -27.0020603], [-49.5440079, -27.0020412], [-49.5437021, -27.0021081], [-49.543332, -27.0022419], [-49.5432247, -27.0022945], [-49.5430638, -27.0022897], [-49.5428706, -27.0021942], [-49.5426668, -27.0020555], [-49.542538, -27.0018309], [-49.5425273, -27.0017018], [-49.5425595, -27.0016063], [-49.5426507, -27.0014485], [-49.5428063, -27.0013529], [-49.5429565, -27.0012621], [-49.5429887, -27.0011761], [-49.5429136, -27.0010327], [-49.5424951, -27.0008176], [-49.5423503, -27.000765], [-49.5421894, -27.000765], [-49.5420016, -27.0008511], [-49.5417227, -27.0009514], [-49.5409448, -27.0013529], [-49.5407302, -27.0014437], [-49.5405639, -27.0014629], [-49.5404137, -27.0015059], [-49.5402743, -27.0016206], [-49.5401294, -27.0018452], [-49.5399899, -27.0021033], [-49.5400168, -27.0022276], [-49.5401348, -27.0023614], [-49.5403279, -27.0024523], [-49.5405103, -27.0025956], [-49.5409341, -27.0030354], [-49.5413096, -27.003413], [-49.5416315, -27.0035755], [-49.5417602, -27.0037236], [-49.541846, -27.0038814], [-49.5418675, -27.0040152], [-49.5418246, -27.0041012], [-49.5416797, -27.0041203], [-49.5411379, -27.0041347], [-49.5407195, -27.0041968], [-49.5401455, -27.0043211], [-49.5397646, -27.0044549], [-49.5395501, -27.0044836], [-49.539255, -27.00467], [-49.5392121, -27.0047178], [-49.5392121, -27.0048086], [-49.5392067, -27.0049042], [-49.5390136, -27.0052196], [-49.5389653, -27.0054251], [-49.5390404, -27.0055924], [-49.5391477, -27.0056689], [-49.5393623, -27.0057024], [-49.5397003, -27.0058601], [-49.5399256, -27.0060417], [-49.540065, -27.0061946], [-49.5401133, -27.0063237], [-49.540108, -27.0064862], [-49.5400275, -27.0065961], [-49.5396842, -27.0072581], [-49.5395715, -27.0074636], [-49.5395179, -27.0075831], [-49.5395608, -27.0076404], [-49.5397217, -27.0077742], [-49.5398129, -27.0077934], [-49.5405747, -27.007693], [-49.5408053, -27.0075974], [-49.5409663, -27.0075448], [-49.5410521, -27.0075401], [-49.5411433, -27.0075974], [-49.5412828, -27.007822], [-49.5415027, -27.0080275], [-49.5417173, -27.0080945], [-49.5422215, -27.0081614], [-49.5424254, -27.0081231], [-49.5427419, -27.007975], [-49.5435144, -27.0077551], [-49.5437021, -27.0076787], [-49.5438899, -27.007736], [-49.5439596, -27.0078364], [-49.5439543, -27.0079654], [-49.5439543, -27.0081423], [-49.544201, -27.0086154], [-49.5443888, -27.0089261], [-49.5444263, -27.0089834], [-49.5444907, -27.0090121], [-49.5446463, -27.0090121], [-49.544834, -27.00895], [-49.5450808, -27.0088353], [-49.5453115, -27.0088305], [-49.5456065, -27.0089022], [-49.5459123, -27.0091316], [-49.5461376, -27.0095665], [-49.5462556, -27.0097959], [-49.5463092, -27.0099488], [-49.5462288, -27.0100397], [-49.5460625, -27.0100444], [-49.5455743, -27.0100253], [-49.5453758, -27.0101161], [-49.5449735, -27.0104698], [-49.5449467, -27.0106275], [-49.5449681, -27.0107757], [-49.545054, -27.0109668], [-49.5453007, -27.0111246], [-49.5454187, -27.011483], [-49.5453973, -27.0116646], [-49.5452524, -27.0119514], [-49.545113, -27.0124006], [-49.5450969, -27.0126109], [-49.5451934, -27.0128021], [-49.5452417, -27.0130123], [-49.5451881, -27.0131987], [-49.545113, -27.0133756], [-49.545011, -27.0136958], [-49.5450969, -27.0138057], [-49.5453275, -27.0139777], [-49.5458586, -27.0141498], [-49.5460947, -27.0143027], [-49.5465453, -27.0145464], [-49.5467813, -27.0147042], [-49.547012, -27.0150291], [-49.5472641, -27.0153589], [-49.5477093, -27.0157364], [-49.5479293, -27.0159276], [-49.547999, -27.0160566], [-49.5480258, -27.0162526], [-49.5479722, -27.0164437], [-49.5477469, -27.0166588], [-49.5468189, -27.0170746], [-49.546674, -27.0172227], [-49.5463629, -27.017801], [-49.5460625, -27.0183075], [-49.545982, -27.0185895], [-49.5460303, -27.0187377], [-49.546261, -27.0190292], [-49.5464863, -27.0193063], [-49.5466847, -27.0194879], [-49.5470281, -27.0196026], [-49.5472265, -27.0196887], [-49.5474197, -27.0198655], [-49.5476557, -27.0199706], [-49.547822, -27.0199467], [-49.5483048, -27.0197364], [-49.5491148, -27.0193637], [-49.5492489, -27.0193159], [-49.5493616, -27.0193446], [-49.5493884, -27.0194593], [-49.5494528, -27.0197317], [-49.5495493, -27.0202143], [-49.5496191, -27.0203577], [-49.5496995, -27.0204103], [-49.5498873, -27.0203481], [-49.550571, -27.0205926], [-49.5512651, -27.0209154]]]}}
