{"type": "Feature", "properties": {"rio": "rio-rafael-braco-pequeno", "fonte": "© OpenStreetMap contributors, ODbL (openstreetmap.org/copyright)", "trechos": 1, "origem": [{"bruto": "rios-ibirama-osm.json", "base_osm": "2026-05-06T03:25:00Z"}], "nome": "Rio Rafael Braço Pequeno", "municipio": "ibirama"}, "geometry": {"type": "MultiLineString", "coordinates": [[[-49.5629349, -26.9569679], [-49.5628759, -26.9573887], [-49.5627632, -26.95747], [-49.5625782, -26.9575799], [-49.5624709, -26.9578142], [-49.5625031, -26.958027], [-49.5624628, -26.9581872], [-49.5624897, -26.9584645], [-49.5625111, -26.9585984], [-49.5625004, -26.9586582], [-49.5624253, -26.9587084], [-49.5622885, -26.958749], [-49.5621088, -26.9588399], [-49.5619934, -26.958957], [-49.5620417, -26.9591028], [-49.5620873, -26.9592558], [-49.5622509, -26.9593754], [-49.5625782, -26.9595451], [-49.5627606, -26.9596647], [-49.5628518, -26.9597292], [-49.5629188, -26.9597914], [-49.5629054, -26.9598607], [-49.5628571, -26.9598822], [-49.562723, -26.9599611], [-49.5625782, -26.96015], [-49.5624682, -26.9602432], [-49.5624333, -26.9603149], [-49.5624897, -26.9603651], [-49.5627203, -26.9605014], [-49.5627659, -26.9606735], [-49.5626533, -26.9608696], [-49.5623395, -26.9610298], [-49.5621973, -26.9613525], [-49.5619827, -26.9617147], [-49.5619291, -26.9618438], [-49.5619344, -26.9619705], [-49.5619076, -26.9620757], [-49.5616984, -26.9622263], [-49.5615777, -26.9623865], [-49.5614356, -26.9625012], [-49.5611968, -26.9626638], [-49.56106, -26.9627833], [-49.5610118, -26.9629339], [-49.5609903, -26.9632638], [-49.5610279, -26.9635651], [-49.560993, -26.9637324], [-49.5608508, -26.9639165], [-49.5608481, -26.9642081], [-49.5608133, -26.9643181], [-49.5606684, -26.9644066], [-49.5604941, -26.964691], [-49.5602929, -26.965205], [-49.5599469, -26.9658457], [-49.5597726, -26.9664601], [-49.5598343, -26.9667398], [-49.5599898, -26.9668641], [-49.5602151, -26.9670482], [-49.5603653, -26.967347], [-49.5603949, -26.9675574], [-49.5603305, -26.9678275], [-49.5603063, -26.9679614], [-49.560073, -26.9683534], [-49.5597779, -26.9688554], [-49.5595151, -26.9690419], [-49.558984, -26.969465], [-49.5588714, -26.9699981], [-49.558638, -26.9705312], [-49.5587212, -26.9709017], [-49.5586702, -26.971179], [-49.5586997, -26.9712913], [-49.5587694, -26.9715447], [-49.5585495, -26.9719487], [-49.5580774, -26.9733256], [-49.5575463, -26.9736268], [-49.557085, -26.9738587], [-49.5568114, -26.9742818], [-49.5559317, -26.9749893], [-49.5553228, -26.9766148], [-49.5547113, -26.9772315], [-49.5544913, -26.9775518], [-49.5543196, -26.9778434], [-49.5542338, -26.9779821], [-49.5538583, -26.9781446], [-49.5534184, -26.9783502], [-49.5533004, -26.9784984], [-49.5530536, -26.9790434], [-49.5528927, -26.9792872], [-49.5527747, -26.9793732], [-49.5526674, -26.9793924], [-49.5524367, -26.979335], [-49.5522061, -26.9793111], [-49.5519271, -26.9794402], [-49.5514872, -26.9800617], [-49.5510527, -26.9805349], [-49.5509173, -26.9806299]]]}}
