{"type": "Feature", "properties": {"rio": "rio-conceicao", "fonte": "© OpenStreetMap contributors, ODbL (openstreetmap.org/copyright)", "trechos": 3}, "geometry": {"type": "MultiLineString", "coordinates": [[[-48.6948975, -26.9394653], [-48.695765, -26.9379523]], [[-48.695765, -26.9379523], [-48.69584, -26.9377892], [-48.6959224, -26.9375197], [-48.6959361, -26.9373906], [-48.6959283, -26.9372375], [-48.6959527, -26.9371598], [-48.6959772, -26.9370917], [-48.6959708, -26.9369579], [-48.69593, -26.9368169], [-48.6959161, -26.9367093], [-48.6959301, -26.9364929]], [[-48.6959301, -26.9364929], [-48.6959489, -26.9362026], [-48.6957767, -26.9351668], [-48.695705, -26.9348718], [-48.6955948, -26.93464], [-48.6954321, -26.9344357], [-48.6951997, -26.9342031], [-48.6949242, -26.9339787]]]}}
