{"type": "Feature", "properties": {"rio": "rio-rafael-braco-grande", "fonte": "© OpenStreetMap contributors, ODbL (openstreetmap.org/copyright)", "trechos": 3, "nome": "Rio Rafael Braço Grande", "municipio": "ibirama"}, "geometry": {"type": "MultiLineString", "coordinates": [[[-49.5437303, -26.9303183], [-49.5438081, -26.93039], [-49.5438429, -26.9304187], [-49.5438939, -26.9304929], [-49.5438671, -26.9305957], [-49.5438376, -26.9306818], [-49.5438, -26.9308396], [-49.5438161, -26.9310166], [-49.5438644, -26.9311768], [-49.5438242, -26.9312868], [-49.5436471, -26.931392], [-49.5435828, -26.9314518], [-49.5435291, -26.9315809], [-49.5434969, -26.9318535], [-49.5435452, -26.9320759], [-49.543674, -26.9321764], [-49.5438081, -26.9322935], [-49.5438483, -26.9324418], [-49.5438349, -26.9325638], [-49.5437732, -26.9326522], [-49.5436284, -26.9327431], [-49.5434674, -26.9328148], [-49.5433655, -26.9329177], [-49.5431831, -26.9331544], [-49.5430275, -26.933219], [-49.5428881, -26.9333003], [-49.5428157, -26.933384], [-49.5428398, -26.9334653], [-49.5428854, -26.9335394], [-49.5430906, -26.9337498], [-49.5432193, -26.9338383], [-49.5434661, -26.9340727], [-49.5435036, -26.9341396], [-49.543501, -26.9342687], [-49.5434473, -26.9344266], [-49.5434017, -26.9345318], [-49.54334, -26.9346418], [-49.5432971, -26.9347231], [-49.5431871, -26.9350722], [-49.5432301, -26.9353018], [-49.5432354, -26.9356126], [-49.5431281, -26.9359474], [-49.5430048, -26.9361435], [-49.5427258, -26.9365022], [-49.5425917, -26.9369326], [-49.5425112, -26.9372004], [-49.5426453, -26.937473], [-49.5425917, -26.9376882], [-49.5425005, -26.9378364], [-49.5423127, -26.9380038], [-49.5419265, -26.9384295], [-49.5417012, -26.9387403], [-49.5416529, -26.9389029], [-49.5415349, -26.9390464], [-49.5412989, -26.9392233], [-49.5410682, -26.9393811], [-49.5408322, -26.9396968], [-49.5408483, -26.9398498], [-49.5407517, -26.9400554], [-49.5406229, -26.940175], [-49.5405532, -26.9405671], [-49.5404137, -26.9407441], [-49.5402099, -26.9409641], [-49.5397807, -26.9411267], [-49.5396305, -26.9413419], [-49.5396198, -26.941624], [-49.5395715, -26.9419014], [-49.539593, -26.942064], [-49.5395715, -26.9421979], [-49.539432, -26.9424513], [-49.539196, -26.9428483], [-49.5391424, -26.9430491], [-49.5391692, -26.9431734], [-49.5391263, -26.9433982], [-49.5389439, -26.9437186], [-49.5387293, -26.9442112], [-49.5387776, -26.9444311], [-49.5389117, -26.9448567], [-49.538901, -26.9451389], [-49.5388098, -26.9453206], [-49.5386006, -26.9454736], [-49.5386113, -26.9456649], [-49.5386918, -26.9459136], [-49.5389385, -26.9463009], [-49.53896, -26.9464157], [-49.5389493, -26.9466452], [-49.5389224, -26.9468509], [-49.5388259, -26.9470374], [-49.5387293, -26.9473386], [-49.5387239, -26.9474869], [-49.5388098, -26.9476208], [-49.5389171, -26.9477451], [-49.5390351, -26.947922], [-49.5391102, -26.9479937], [-49.5390673, -26.9481037], [-49.5389493, -26.9482089], [-49.5386542, -26.948405], [-49.5385308, -26.9485771], [-49.5384611, -26.9488593], [-49.5383914, -26.9490458], [-49.5381821, -26.949567], [-49.5380588, -26.94983], [-49.5379246, -26.9500069], [-49.5377423, -26.950093], [-49.5372916, -26.9503177], [-49.5370181, -26.9505377], [-49.5369108, -26.950772], [-49.5367874, -26.9509059], [-49.5365514, -26.9510159], [-49.5362188, -26.9511115], [-49.5360686, -26.9512024], [-49.5359505, -26.951365], [-49.5359344, -26.9514749], [-49.5360042, -26.9516614], [-49.5360095, -26.9517858], [-49.5359452, -26.9519101], [-49.5357896, -26.9520248], [-49.5355965, -26.9521061], [-49.5354463, -26.9522974], [-49.535398, -26.9524026], [-49.5354034, -26.9525078], [-49.5354731, -26.9526178], [-49.5354677, -26.9527039], [-49.5353926, -26.9528043], [-49.5352263, -26.9528999], [-49.5350386, -26.9530003], [-49.5348723, -26.9531199], [-49.5347221, -26.9532538], [-49.53447, -26.9531964], [-49.5341213, -26.9532012], [-49.5338799, -26.9532824], [-49.5337619, -26.9533398], [-49.5337189, -26.9535072], [-49.5336385, -26.9539136], [-49.5336117, -26.9541145], [-49.5335366, -26.9543775], [-49.5334239, -26.9545448], [-49.5333273, -26.9546835], [-49.5333005, -26.954803], [-49.533204, -26.955176], [-49.533145, -26.955439], [-49.5330001, -26.9555824], [-49.532866, -26.9557163], [-49.5326675, -26.9558598], [-49.5325066, -26.9559602], [-49.5323403, -26.9560988], [-49.5321954, -26.9563427], [-49.5320399, -26.956534], [-49.5319862, -26.9567491], [-49.5319862, -26.9569547], [-49.531997, -26.9572225], [-49.5320023, -26.9574664], [-49.5320077, -26.9576576], [-49.5319433, -26.9578298], [-49.531836, -26.9580784], [-49.5317502, -26.9581836], [-49.5315464, -26.9583462], [-49.5313586, -26.9584514], [-49.5311816, -26.9584944], [-49.5309724, -26.9585087], [-49.5307792, -26.9585087], [-49.5306183, -26.9585374], [-49.5305486, -26.9585757], [-49.5305378, -26.9586952], [-49.5306183, -26.9589152], [-49.530672, -26.9590395], [-49.5306451, -26.9591447], [-49.5305164, -26.9593025], [-49.530275, -26.9595033], [-49.5301462, -26.9596037], [-49.5298995, -26.9598715], [-49.5297707, -26.9600962], [-49.5296259, -26.9604022], [-49.5296903, -26.9605074], [-49.5298244, -26.9606126], [-49.5301999, -26.9607704], [-49.5303018, -26.9608612], [-49.5305539, -26.9612868], [-49.53079, -26.961588], [-49.5310448, -26.9618498], [-49.5312084, -26.9621534], [-49.5315598, -26.9625], [-49.5318843, -26.9627343], [-49.5320023, -26.9628156], [-49.5321847, -26.962916], [-49.532351, -26.9629949], [-49.5324583, -26.9630905], [-49.5326031, -26.9632435], [-49.5327212, -26.9634109], [-49.5327909, -26.9635686], [-49.5327855, -26.9637312], [-49.5327641, -26.9639559], [-49.532807, -26.9642189], [-49.5328445, -26.964458], [-49.5329894, -26.9646779], [-49.5331664, -26.9649791], [-49.5333542, -26.9651225], [-49.5336117, -26.9652899], [-49.533896, -26.9654668], [-49.5341266, -26.9656724], [-49.534529, -26.965811], [-49.5347006, -26.9659306], [-49.534883, -26.9661409], [-49.5349259, -26.9663752], [-49.5350279, -26.9668725], [-49.5350493, -26.9670446], [-49.5351083, -26.967102], [-49.5351673, -26.967145], [-49.5352854, -26.9671498], [-49.5354409, -26.9670494], [-49.5357521, -26.966729], [-49.5359935, -26.9666238], [-49.5361115, -26.9665808], [-49.5362134, -26.9666095], [-49.5362563, -26.9666956], [-49.5362617, -26.9668199], [-49.5362241, -26.9671498], [-49.5362241, -26.9673601], [-49.5363046, -26.9675562], [-49.536369, -26.9678048], [-49.5364655, -26.9680486], [-49.5366533, -26.9682542], [-49.536782, -26.9683737], [-49.5369751, -26.9684454], [-49.5372112, -26.9685458], [-49.5376672, -26.9687036], [-49.5379729, -26.9688614], [-49.5380909, -26.9689857], [-49.5381714, -26.9691674], [-49.5382411, -26.9695307], [-49.538268, -26.9699467], [-49.5383323, -26.9703339], [-49.5384396, -26.9706256], [-49.5384933, -26.9708885], [-49.538681, -26.9712615], [-49.5386703, -26.9713714], [-49.5386381, -26.9715292], [-49.5385952, -26.9717826], [-49.5385952, -26.9719499], [-49.5385952, -26.9720933], [-49.5386059, -26.9723085], [-49.5385094, -26.972667], [-49.5384289, -26.9730651], [-49.5384557, -26.9732085], [-49.5385147, -26.9733232], [-49.53874, -26.973438], [-49.5390619, -26.9735575], [-49.5393462, -26.9736961], [-49.5395983, -26.9737822], [-49.5405586, -26.9737296], [-49.541315, -26.973591], [-49.542184, -26.973242], [-49.5426936, -26.9730985], [-49.5428706, -26.9730698], [-49.5429618, -26.9731033], [-49.5430423, -26.9731798], [-49.5430852, -26.973285], [-49.5431603, -26.9734188], [-49.543273, -26.9735957], [-49.5434124, -26.9737774], [-49.5435144, -26.9740356], [-49.5437772, -26.9748866], [-49.5438792, -26.9752547], [-49.5439703, -26.9753981], [-49.54426, -26.9757614], [-49.5444102, -26.9760483], [-49.5445336, -26.9762825], [-49.5445122, -26.9765789], [-49.5445658, -26.9769136], [-49.5446302, -26.9770427], [-49.5447428, -26.9772196], [-49.545003, -26.9773941], [-49.5452605, -26.9775757], [-49.5457647, -26.978006], [-49.5459364, -26.9781494], [-49.5460973, -26.9783454], [-49.5463548, -26.9785366], [-49.5466445, -26.9786083], [-49.5469074, -26.9786657], [-49.5472078, -26.9786896], [-49.5474277, -26.9786562], [-49.5475994, -26.9786227], [-49.5478944, -26.978704], [-49.5480714, -26.978833], [-49.5482163, -26.9790864], [-49.5484094, -26.9794545], [-49.548565, -26.9797461], [-49.5487474, -26.9800664], [-49.5488761, -26.9802146], [-49.5490102, -26.9802959], [-49.5491551, -26.9803102], [-49.5492999, -26.9802338], [-49.5494501, -26.9800856], [-49.5495306, -26.9800425], [-49.5496432, -26.9801095], [-49.5501743, -26.9803102], [-49.5506464, -26.9804728], [-49.5509173, -26.9806299]], [[-49.5103341, -26.9157086], [-49.5146256, -26.9168566], [-49.5169431, -26.9179281], [-49.5214063, -26.9187699], [-49.524582, -26.9199179], [-49.5287877, -26.920224], [-49.5314485, -26.9203771], [-49.5366627, -26.9222281]], [[-49.5366627, -26.9222281], [-49.5386797, -26.9245239], [-49.540053, -26.9261692], [-49.5419413, -26.9278145], [-49.5433145, -26.9292302], [-49.5434433, -26.9300337], [-49.5437303, -26.9303183]]]}}
