{"type": "Feature", "properties": {"rio": "trombudo", "fonte": "© OpenStreetMap contributors, ODbL (openstreetmap.org/copyright)", "trechos": 17, "origem": [{"bruto": "tracado-trombudo-osm.json", "base_osm": "2026-10-06T12:22:49Z"}], "cobertura": "RECORTADO na caixa do mapa (extensão do tronco e das réguas do cadastro), para não mudar o enquadramento do Monitor. Baixado por scripts/baixar_tracados_afluentes.py."}, "geometry": {"type": "MultiLineString", "coordinates": [[[-49.8323081, -27.4080717], [-49.8322905, -27.4079502], [-49.8322568, -27.4078054], [-49.8319958, -27.4074486], [-49.8317838, -27.4070987], [-49.8314849, -27.4066266], [-49.8314465, -27.4064659], [-49.8314778, -27.4063641], [-49.8320153, -27.4058994], [-49.832289, -27.4057057], [-49.8324354, -27.4056846], [-49.8328256, -27.405779], [-49.8329487, -27.4057817], [-49.8330046, -27.4057646], [-49.8330537, -27.4057037], [-49.8331153, -27.4055394], [-49.8331621, -27.4053682], [-49.8331647, -27.405257], [-49.8331475, -27.4051959], [-49.8331019, -27.4051364], [-49.8326557, -27.4047811], [-49.8321642, -27.4043017], [-49.8320418, -27.4041403], [-49.831878, -27.4039647], [-49.8316539, -27.4038229], [-49.831388, -27.4036882], [-49.831292, -27.4036423], [-49.8312142, -27.4035825], [-49.8310411, -27.4034108], [-49.8310049, -27.4033458], [-49.8309824, -27.4032591], [-49.8309804, -27.4031788], [-49.8310626, -27.4024916], [-49.8310863, -27.4019288], [-49.8309885, -27.4013883], [-49.8309956, -27.4009624], [-49.8309827, -27.400855], [-49.8308845, -27.4005256], [-49.830724, -27.4000968], [-49.8306326, -27.3999148], [-49.8304881, -27.3997217], [-49.8294349, -27.3987313], [-49.8289639, -27.3981577], [-49.8286499, -27.3978163], [-49.8286121, -27.3977561], [-49.8286041, -27.3977051], [-49.8286161, -27.3975313], [-49.8287198, -27.397139], [-49.8288426, -27.3967431], [-49.8290106, -27.3962973], [-49.8290148, -27.3961234], [-49.8289368, -27.3953708], [-49.8289693, -27.3950388], [-49.8291303, -27.3942564], [-49.829278, -27.3932046], [-49.8293513, -27.393037], [-49.8297605, -27.3923132], [-49.8297897, -27.392214], [-49.8298051, -27.3920397], [-49.8297675, -27.3917952], [-49.8296376, -27.3913453], [-49.8296579, -27.3907331], [-49.8296894, -27.3904721], [-49.8296676, -27.3903008], [-49.8296222, -27.3899511], [-49.8295562, -27.3898251], [-49.8293537, -27.389665], [-49.829303, -27.3895947], [-49.8291948, -27.3892985], [-49.829143, -27.3890131], [-49.8291689, -27.3886223], [-49.8292489, -27.3880314], [-49.8293712, -27.3875604], [-49.8294328, -27.3874119], [-49.829492, -27.3873254], [-49.829856, -27.3869812], [-49.8299744, -27.386799], [-49.8299826, -27.3867326], [-49.8299584, -27.3865105], [-49.8300072, -27.3861694], [-49.8300271, -27.3857888], [-49.830003, -27.3855483], [-49.8299, -27.3852747], [-49.8297243, -27.3850304], [-49.8295747, -27.3849049], [-49.8291582, -27.3846466], [-49.8289163, -27.3844409], [-49.8287863, -27.3843232], [-49.8287268, -27.3842425], [-49.8282299, -27.3840222], [-49.8278948, -27.3837167], [-49.8278294, -27.3836151], [-49.8275638, -27.383081], [-49.8274801, -27.3829808], [-49.8273356, -27.3828556], [-49.8271678, -27.3827461], [-49.826889, -27.3826077], [-49.8261291, -27.3823457], [-49.825575, -27.382136], [-49.8251199, -27.3819126], [-49.8249911, -27.3818149], [-49.8248474, -27.38162], [-49.8246689, -27.3814464], [-49.8245708, -27.3813268], [-49.8245557, -27.3812314], [-49.8245738, -27.3811439], [-49.8246049, -27.3810357], [-49.8246376, -27.3809065], [-49.8246525, -27.3808251], [-49.82467, -27.3807683], [-49.8246874, -27.3806658], [-49.8247074, -27.380555], [-49.8247216, -27.3804108], [-49.8244771, -27.379904], [-49.8243589, -27.3797859], [-49.824241, -27.3797278], [-49.8238887, -27.3796476], [-49.8236487, -27.3795215], [-49.8236126, -27.3794706], [-49.8235982, -27.3793978], [-49.8236025, -27.3792875], [-49.8236235, -27.3792137], [-49.8236886, -27.3791053], [-49.8238138, -27.3789999], [-49.8239685, -27.3789182], [-49.8242344, -27.3788147], [-49.8246352, -27.3786909], [-49.8251571, -27.3786894], [-49.8252517, -27.3786686], [-49.8253507, -27.3786113], [-49.8254763, -27.3784708], [-49.8255265, -27.3783328], [-49.8254713, -27.3781123], [-49.8253623, -27.3779233], [-49.8251671, -27.3777333], [-49.8248945, -27.3775466], [-49.8246751, -27.3774775], [-49.8242985, -27.3773907], [-49.8241419, -27.3773108], [-49.8239809, -27.3771579], [-49.8238902, -27.3770372], [-49.8238605, -27.3769379], [-49.8238788, -27.3768293], [-49.8239641, -27.3766495], [-49.8240892, -27.3764991], [-49.8242368, -27.3763748], [-49.8246926, -27.3760597], [-49.8251686, -27.3755551], [-49.8258193, -27.3749355], [-49.826019, -27.3745807], [-49.8265366, -27.3735227], [-49.8267672, -27.3731748], [-49.827041, -27.3728698], [-49.8270587, -27.3727934], [-49.8270455, -27.3727088], [-49.8267917, -27.3722103], [-49.8267278, -27.3719449], [-49.8267419, -27.3717756], [-49.8268798, -27.3714021], [-49.8269229, -27.37122], [-49.8269601, -27.370404], [-49.8269292, -27.3702012], [-49.8267702, -27.3698503], [-49.8266978, -27.3694777], [-49.8266294, -27.3692775], [-49.8265595, -27.3691933], [-49.8264131, -27.369122], [-49.8261927, -27.3690677], [-49.8259941, -27.3690504], [-49.8258305, -27.3690703], [-49.8256367, -27.3691243], [-49.8254003, -27.3692106], [-49.8251894, -27.3693118], [-49.8249567, -27.3694637], [-49.8245463, -27.3697824], [-49.8244066, -27.3698493], [-49.8242322, -27.3698936], [-49.8241274, -27.3698937], [-49.8240495, -27.369871], [-49.8234318, -27.3695587], [-49.8230128, -27.3693205], [-49.8227238, -27.3691061], [-49.8223697, -27.3687171], [-49.8222961, -27.3686053], [-49.8222589, -27.3685165], [-49.8222621, -27.3684561], [-49.8223241, -27.3683752], [-49.8228893, -27.3678379], [-49.823043, -27.3676917], [-49.8232324, -27.3674922], [-49.8233462, -27.3672649], [-49.8233832, -27.3670746], [-49.8233549, -27.3667023], [-49.8233565, -27.3664816], [-49.823335, -27.3664002], [-49.8232726, -27.3663096], [-49.8229427, -27.3659616], [-49.8228065, -27.365787], [-49.8225443, -27.3653314], [-49.8223256, -27.3648946], [-49.8222553, -27.3647969], [-49.8222001, -27.3647613], [-49.8221301, -27.3647496], [-49.8216871, -27.3648015], [-49.8215316, -27.364838], [-49.821429, -27.3649023], [-49.8213884, -27.3650083], [-49.821386, -27.3651111], [-49.8215667, -27.3655696], [-49.8215908, -27.3657409], [-49.8215892, -27.36596], [-49.8215662, -27.366053], [-49.8215094, -27.366137], [-49.821389, -27.3662394], [-49.8212766, -27.3663026], [-49.821198, -27.3663282], [-49.8210907, -27.3663387], [-49.8209436, -27.3663256], [-49.8208099, -27.366294], [-49.8206202, -27.3662163], [-49.8204829, -27.3661318], [-49.8203329, -27.3660395], [-49.8199847, -27.3659317], [-49.8197573, -27.3658247], [-49.8196854, -27.3657539], [-49.8196307, -27.3656296], [-49.8196063, -27.3654841], [-49.8196167, -27.3653672], [-49.8196886, -27.3651826], [-49.8199306, -27.3648429], [-49.8200368, -27.3646547], [-49.8200837, -27.364503], [-49.8201177, -27.3642394], [-49.8201079, -27.3641236], [-49.8200556, -27.3640219], [-49.8199606, -27.363956], [-49.8198121, -27.3639214], [-49.8196804, -27.3639234], [-49.8195156, -27.3639518], [-49.8189717, -27.364123], [-49.818472, -27.3643182], [-49.817412, -27.3647932], [-49.8166353, -27.3650656], [-49.8157183, -27.3654311], [-49.8154683, -27.3654802], [-49.8153158, -27.3654767], [-49.8152047, -27.3654382], [-49.8151257, -27.3653398], [-49.8149893, -27.3648595], [-49.8147095, -27.3642391], [-49.8144306, -27.3637225], [-49.8141768, -27.3633347], [-49.8140287, -27.3631629], [-49.8138588, -27.3630239], [-49.8130834, -27.3625848], [-49.8128858, -27.3624622], [-49.8127514, -27.3623554], [-49.8125001, -27.3620869], [-49.8124392, -27.3619965], [-49.8124082, -27.3618111], [-49.8124268, -27.3617186], [-49.8125001, -27.3616465], [-49.8129345, -27.3614695], [-49.813213, -27.3612975], [-49.8134755, -27.3610831], [-49.8137975, -27.3607527], [-49.8139726, -27.3605843], [-49.8141384, -27.360459], [-49.8143363, -27.3603339], [-49.8144628, -27.3602967], [-49.8146535, -27.36032], [-49.8154095, -27.3605943], [-49.815632, -27.3606518], [-49.8158996, -27.3606605], [-49.8160018, -27.3606321], [-49.8161153, -27.3605717], [-49.8162835, -27.3604034], [-49.8165455, -27.3599825], [-49.8170076, -27.3596029], [-49.8182111, -27.3582945], [-49.8186648, -27.3577292], [-49.818786, -27.3575331], [-49.8188193, -27.3574237], [-49.8188002, -27.3573493], [-49.8187176, -27.3572542], [-49.8181335, -27.3567336], [-49.8179516, -27.3566015], [-49.8177528, -27.3565248], [-49.8174976, -27.3564773], [-49.8170868, -27.3564355], [-49.8164298, -27.3564106], [-49.8163018, -27.3563933], [-49.8161779, -27.3563549], [-49.8156117, -27.356017], [-49.8153159, -27.3557898], [-49.8146933, -27.3553685], [-49.8141124, -27.3549347], [-49.8140568, -27.3548553], [-49.8140215, -27.3547529], [-49.8139944, -27.3545336], [-49.8139994, -27.3545047], [-49.8140407, -27.3542646], [-49.8143236, -27.3530819], [-49.8143356, -27.3529323], [-49.814327, -27.3528142], [-49.8142976, -27.3527316], [-49.8142488, -27.3526793], [-49.8140677, -27.3525751], [-49.8138596, -27.3525158], [-49.8132057, -27.3524067], [-49.8128851, -27.3523809], [-49.8126913, -27.3523767], [-49.8125526, -27.3523253], [-49.8123643, -27.3521235], [-49.8116605, -27.3514767], [-49.811484, -27.3512867], [-49.811406, -27.3511771], [-49.8113635, -27.3510684], [-49.8113386, -27.3509378], [-49.8113337, -27.3506739], [-49.8113762, -27.3504969], [-49.8115121, -27.350216], [-49.811566, -27.3500269], [-49.8116317, -27.3496942], [-49.8117959, -27.349083], [-49.8118618, -27.348683], [-49.8119955, -27.3473798], [-49.8120162, -27.3469779], [-49.8120084, -27.3467751], [-49.8119811, -27.3466365], [-49.8119096, -27.3464717], [-49.8117403, -27.3462066], [-49.8116428, -27.3460963], [-49.8115533, -27.3460437], [-49.8113708, -27.3459844], [-49.8108344, -27.3458674], [-49.8106655, -27.3458533], [-49.810431, -27.3458641], [-49.8088492, -27.3461007], [-49.8081998, -27.3461754], [-49.807853, -27.3461942], [-49.8076926, -27.3461877], [-49.8075339, -27.3461593], [-49.807406, -27.3461098], [-49.8072966, -27.3460309], [-49.8072287, -27.345927], [-49.8072035, -27.3458308], [-49.8072206, -27.3457258], [-49.8072659, -27.3456166], [-49.8084556, -27.343577], [-49.8087664, -27.3431009], [-49.8088168, -27.3429677], [-49.8088284, -27.3428466], [-49.8088067, -27.3427611], [-49.8087444, -27.342672], [-49.8086659, -27.3426075], [-49.8085636, -27.3425583], [-49.8082626, -27.3424678], [-49.8070874, -27.3421735], [-49.8066866, -27.3420401], [-49.8063309, -27.3418808], [-49.806042, -27.3417484], [-49.8054634, -27.3415952], [-49.8053375, -27.3415328], [-49.8052556, -27.3414649], [-49.8052185, -27.341401], [-49.8051937, -27.3412725], [-49.8051772, -27.3409282], [-49.8051864, -27.3406909], [-49.8052267, -27.3404727], [-49.8054678, -27.3396978], [-49.8054767, -27.339544], [-49.8054552, -27.3393919], [-49.8054002, -27.3392306], [-49.8053096, -27.3390727], [-49.8051582, -27.3388806], [-49.8049726, -27.338688], [-49.804113, -27.3379255], [-49.8034658, -27.3374404], [-49.8033343, -27.3373186], [-49.8032547, -27.3371932], [-49.8032265, -27.3370782], [-49.8032365, -27.3369637], [-49.8032885, -27.3368337], [-49.8034527, -27.3366313], [-49.8035759, -27.3363372], [-49.8036359, -27.3362392], [-49.8037935, -27.3360438], [-49.8039676, -27.3359165], [-49.804203, -27.335805], [-49.8042774, -27.3357464], [-49.8043932, -27.3355584], [-49.804479, -27.3352982], [-49.8044627, -27.3351783], [-49.8044061, -27.3350624], [-49.8043213, -27.3349741], [-49.8042049, -27.3349107], [-49.8039043, -27.3348231], [-49.8033135, -27.3347234], [-49.8029475, -27.3347103], [-49.8026672, -27.3347426], [-49.8024619, -27.3347986], [-49.8022863, -27.3348785], [-49.8016801, -27.3353063], [-49.8012723, -27.3355374], [-49.8011799, -27.3355644], [-49.801053, -27.3355664], [-49.8007405, -27.335503], [-49.7995536, -27.3350124], [-49.7993225, -27.3348852], [-49.7985812, -27.3343159], [-49.7984443, -27.3341875], [-49.7982864, -27.3340078], [-49.7981674, -27.3338403], [-49.7980837, -27.3336757], [-49.7979596, -27.3333359], [-49.7979097, -27.3331204], [-49.7978614, -27.3327079], [-49.7977732, -27.3325212], [-49.7976307, -27.3319318], [-49.7975875, -27.331753], [-49.7975359, -27.3313808], [-49.7975205, -27.3312696], [-49.7975783, -27.3310492], [-49.7979653, -27.3303194], [-49.798137, -27.3301579], [-49.7985572, -27.3298985], [-49.7987961, -27.3296783], [-49.7990248, -27.3294129], [-49.799233, -27.329326], [-49.799735, -27.3292273], [-49.7998786, -27.3292395], [-49.8005417, -27.3294556], [-49.8007293, -27.3294419], [-49.8008943, -27.3293951], [-49.8011191, -27.3292655], [-49.8012964, -27.3289865], [-49.801345, -27.328845], [-49.8013725, -27.3285252], [-49.801361, -27.3282969], [-49.8014331, -27.3274867], [-49.8013943, -27.3273048], [-49.8012345, -27.3266808], [-49.8012413, -27.3264904], [-49.8013402, -27.3261387], [-49.8015311, -27.3258649], [-49.8016064, -27.325661], [-49.8015827, -27.325367], [-49.8013831, -27.3248832], [-49.801304, -27.3242897], [-49.8011488, -27.3237515], [-49.8009688, -27.3234551], [-49.8005674, -27.3231492], [-49.8001958, -27.322945], [-49.7999018, -27.3228576], [-49.7995848, -27.3228701], [-49.7991044, -27.3229987], [-49.7990142, -27.3229979], [-49.7989195, -27.3229623], [-49.7987432, -27.3228106], [-49.7982824, -27.3222836], [-49.7982156, -27.3221684], [-49.7980422, -27.3218691], [-49.7979621, -27.3216116], [-49.7979747, -27.3213517], [-49.7982622, -27.3205439], [-49.7982676, -27.3204344], [-49.7982122, -27.3203687], [-49.7980789, -27.3202935], [-49.7976198, -27.3201525], [-49.7971871, -27.3199475], [-49.7970926, -27.3198372], [-49.7970289, -27.3197028]], [[-49.8471678, -27.4327441], [-49.8470965, -27.4325307], [-49.847055, -27.4324292], [-49.8469002, -27.4321873], [-49.8467268, -27.4320312], [-49.8464329, -27.4318625], [-49.8461281, -27.4316989], [-49.8459448, -27.4315775], [-49.8457843, -27.4314405], [-49.8454869, -27.4311412], [-49.8453306, -27.4310217], [-49.8451832, -27.4309532], [-49.8447411, -27.430828], [-49.8444689, -27.4307238], [-49.8442865, -27.4306224], [-49.8441469, -27.430461], [-49.8439721, -27.4301685], [-49.8438142, -27.4297334], [-49.8436816, -27.4294492], [-49.8435342, -27.4291996], [-49.8434749, -27.4291297], [-49.8433902, -27.4290299], [-49.8431253, -27.4288412], [-49.8428415, -27.4287288], [-49.8427237, -27.4287085], [-49.8425457, -27.4287042], [-49.8422272, -27.4287555], [-49.8421271, -27.4287291], [-49.8420419, -27.4286601], [-49.8419559, -27.4285529], [-49.8414045, -27.4276629], [-49.8412789, -27.4274104], [-49.8408658, -27.4262011], [-49.8406722, -27.4258914], [-49.8404944, -27.4255482], [-49.8400909, -27.4250874], [-49.8398102, -27.4246119], [-49.8396738, -27.4240686], [-49.8395721, -27.4233398], [-49.8391525, -27.4221446], [-49.8390307, -27.421628], [-49.8389791, -27.4214954], [-49.8386935, -27.421029], [-49.8385947, -27.4209052], [-49.8384555, -27.4208221], [-49.8378898, -27.4205837], [-49.8377256, -27.4205454], [-49.8372994, -27.4205609], [-49.8365426, -27.420546], [-49.8362966, -27.4205175], [-49.8361098, -27.4204749], [-49.8358424, -27.4203711], [-49.8352175, -27.4200215], [-49.8343613, -27.4196132], [-49.8342373, -27.419554], [-49.8339179, -27.41937], [-49.8337252, -27.419228], [-49.8333988, -27.4189327], [-49.8331671, -27.4186579], [-49.8330289, -27.4184505], [-49.832773, -27.4179486], [-49.8326169, -27.417553], [-49.8325325, -27.417258], [-49.8324886, -27.4169275], [-49.8325053, -27.4166697], [-49.832794, -27.4156047], [-49.8328462, -27.4154438], [-49.8328725, -27.4153632], [-49.8328471, -27.4150829], [-49.8327857, -27.414622], [-49.8327874, -27.4141383], [-49.8327113, -27.4134108], [-49.8327038, -27.4129128], [-49.8327612, -27.4119742], [-49.8327589, -27.4115005], [-49.8327298, -27.4113074], [-49.8326004, -27.4107923], [-49.832497, -27.4102742], [-49.8324447, -27.4092648], [-49.8323242, -27.4084491], [-49.8323081, -27.4080717]], [[-49.697281, -27.2522061], [-49.6973679, -27.2520629], [-49.6975034, -27.2519797], [-49.6977078, -27.2519304], [-49.6987943, -27.2519462], [-49.6990275, -27.2519089], [-49.6992002, -27.251832], [-49.699334, -27.251669], [-49.6994511, -27.2513812], [-49.6994268, -27.2510918], [-49.6993197, -27.2507788], [-49.6991097, -27.2503264], [-49.6988261, -27.2500021], [-49.6984556, -27.2497263], [-49.6980071, -27.2495745], [-49.6977282, -27.2495172], [-49.6973687, -27.2493455], [-49.6970469, -27.248964], [-49.6968484, -27.2485825], [-49.6966135, -27.2482054], [-49.6963227, -27.2480102], [-49.6958278, -27.2476961], [-49.6952332, -27.2474365], [-49.6945196, -27.2471671], [-49.6942198, -27.2470611], [-49.6939972, -27.246878], [-49.693931, -27.2467615], [-49.6937561, -27.2463085], [-49.6935788, -27.2460238], [-49.6933634, -27.2458462], [-49.6929402, -27.2456657], [-49.6927151, -27.2455541], [-49.692589, -27.2454611], [-49.6922538, -27.2453037], [-49.691883, -27.2452425], [-49.6912929, -27.2452257], [-49.6910387, -27.2452059], [-49.6906952, -27.2451031]], [[-49.7369919, -27.2789239], [-49.7371438, -27.2785729], [-49.7372463, -27.278188], [-49.7372451, -27.277892], [-49.7372559, -27.277544], [-49.7372961, -27.2773366], [-49.7373712, -27.2772269], [-49.7377521, -27.2769623], [-49.738062, -27.2766194], [-49.7381656, -27.276393], [-49.7381879, -27.2762669], [-49.7381227, -27.2760819], [-49.7379416, -27.2759021], [-49.7368324, -27.2752636], [-49.7365551, -27.2750364], [-49.7362742, -27.2747714], [-49.7360983, -27.2745727], [-49.7359888, -27.2744616], [-49.7352931, -27.2739715], [-49.7349822, -27.2738319], [-49.7346729, -27.2736891], [-49.7343967, -27.2735691], [-49.7341141, -27.2733428], [-49.7339004, -27.2730978], [-49.7336324, -27.2725287], [-49.7334471, -27.2724232], [-49.7333358, -27.2723662], [-49.7332008, -27.2723417], [-49.7328215, -27.2722843], [-49.7317406, -27.2724012], [-49.7314645, -27.2725152], [-49.7313804, -27.2725888], [-49.7313349, -27.2727245], [-49.7313476, -27.2729836], [-49.7314611, -27.2733578], [-49.7316286, -27.2737868], [-49.7316179, -27.2739179], [-49.7315428, -27.2740181], [-49.7313792, -27.2740443], [-49.7311512, -27.2738846], [-49.7308803, -27.2735699], [-49.7304967, -27.2732075], [-49.7303542, -27.2731196], [-49.7300204, -27.2729887], [-49.7294398, -27.272761], [-49.7285313, -27.272445], [-49.7282805, -27.2724169], [-49.7280505, -27.2723969], [-49.7279111, -27.2723516], [-49.7277528, -27.2722134], [-49.727667, -27.272087], [-49.7275865, -27.2718796], [-49.7275034, -27.2717938], [-49.7273558, -27.2717509], [-49.7270881, -27.2717135], [-49.7268986, -27.2716641], [-49.7268347, -27.2716172], [-49.7267715, -27.2715114], [-49.7267718, -27.2713486], [-49.7268122, -27.2710975], [-49.7272056, -27.2706184], [-49.7274578, -27.2700295], [-49.7275463, -27.2697029], [-49.727538, -27.2694809], [-49.7274076, -27.2692895], [-49.7273129, -27.2692347], [-49.7272106, -27.2691755], [-49.7270274, -27.2691604], [-49.7262761, -27.269297], [-49.7259419, -27.2693209], [-49.7256587, -27.269269], [-49.7249492, -27.269016], [-49.7243599, -27.2687118], [-49.7241957, -27.26868], [-49.7239773, -27.2686978], [-49.723232, -27.2688537], [-49.7229563, -27.2688063], [-49.7227036, -27.268741], [-49.722483, -27.2685524], [-49.7224353, -27.2684183], [-49.7224227, -27.2682813], [-49.7224474, -27.2681079], [-49.7225531, -27.2679825], [-49.7227178, -27.2677496], [-49.7232845, -27.2668654], [-49.7236048, -27.2666457], [-49.7238634, -27.2665096], [-49.7240986, -27.266419], [-49.7241697, -27.2663583], [-49.7241993, -27.2662312], [-49.7241861, -27.2661556], [-49.7241534, -27.2660876], [-49.7240906, -27.2660399], [-49.7239958, -27.2660138], [-49.7238286, -27.2660092], [-49.7230822, -27.2661549], [-49.7226158, -27.2661868], [-49.722215, -27.2662917], [-49.7220521, -27.2663672], [-49.7218621, -27.2665086], [-49.7216651, -27.2666994], [-49.7215216, -27.2667767], [-49.7212445, -27.2668402], [-49.7207193, -27.2668118], [-49.7202205, -27.2667066], [-49.7201222, -27.2666172], [-49.7199833, -27.2664461], [-49.7199075, -27.266307], [-49.7199088, -27.2661953], [-49.7199606, -27.2661297], [-49.7204274, -27.2658715], [-49.7205438, -27.2657336], [-49.7206663, -27.2655279], [-49.7207418, -27.2652903], [-49.7207947, -27.2649882], [-49.7207525, -27.2647926], [-49.7206229, -27.2644709], [-49.7205581, -27.2644174], [-49.7204806, -27.2643913], [-49.7203782, -27.2643871], [-49.7202047, -27.264445], [-49.7198612, -27.2646241], [-49.7196271, -27.2647984], [-49.7194127, -27.2650317], [-49.7192776, -27.2650812], [-49.7191357, -27.265071], [-49.7189893, -27.2650289], [-49.7189061, -27.2649653], [-49.7188433, -27.2648911], [-49.7187655, -27.2647993], [-49.7187012, -27.2645914], [-49.718729, -27.2643834], [-49.7188289, -27.264172], [-49.7190353, -27.2638448], [-49.7190958, -27.2636643], [-49.7190855, -27.2632047], [-49.7189954, -27.262796], [-49.7188156, -27.2624464], [-49.7186884, -27.2621412], [-49.7186713, -27.2619339], [-49.7187609, -27.2615935], [-49.7188895, -27.2611723], [-49.718894, -27.2610474], [-49.7188156, -27.2608937], [-49.7187169, -27.2608467], [-49.7186385, -27.2608009], [-49.7181774, -27.2607852], [-49.718096, -27.2607479], [-49.7180364, -27.2606795], [-49.7180067, -27.2605368], [-49.717992, -27.2604667], [-49.7179541, -27.260381], [-49.7179005, -27.2602935], [-49.7178251, -27.2602388], [-49.7177338, -27.2602154], [-49.7173845, -27.2601801], [-49.7162936, -27.2598579], [-49.7159481, -27.2597381], [-49.7150124, -27.2596965], [-49.7146454, -27.25958], [-49.714439, -27.2594713], [-49.7142888, -27.2593184], [-49.714146, -27.2590316], [-49.7140677, -27.2587228], [-49.7140238, -27.2584688], [-49.7139194, -27.2583283], [-49.7137918, -27.258268], [-49.7135981, -27.2582336], [-49.7132534, -27.2583058], [-49.7130743, -27.2584079], [-49.7128545, -27.2585183], [-49.7127474, -27.2585019], [-49.7126444, -27.2584582], [-49.7123382, -27.2581179], [-49.7121155, -27.2579463], [-49.711906, -27.2577836], [-49.7117216, -27.2575586], [-49.7116791, -27.2572754], [-49.7116287, -27.2570975], [-49.7115691, -27.2570005], [-49.7114949, -27.2569573], [-49.7109486, -27.2567431], [-49.7108459, -27.2567274], [-49.7106053, -27.2566907], [-49.7096801, -27.2565633], [-49.7094387, -27.2566039], [-49.7092295, -27.256673], [-49.7090772, -27.2568419], [-49.7088727, -27.2572143], [-49.7087333, -27.2572596], [-49.7085589, -27.257219], [-49.7084355, -27.2571117], [-49.7083631, -27.2569401], [-49.7083524, -27.2565772], [-49.7082156, -27.2563201], [-49.7077644, -27.2558791], [-49.7075173, -27.2557042], [-49.7073621, -27.2556516], [-49.7071522, -27.2556483], [-49.7064735, -27.2557684], [-49.7061914, -27.255855], [-49.7060922, -27.2558587], [-49.7060286, -27.2558369], [-49.705921, -27.2558], [-49.7055855, -27.2555517], [-49.7053832, -27.2553449], [-49.7052223, -27.2552924], [-49.7044337, -27.2553783], [-49.7040008, -27.2554449], [-49.7035512, -27.255507], [-49.7029032, -27.2555969], [-49.702744, -27.2555833], [-49.7026152, -27.2555476], [-49.7025106, -27.2554931], [-49.7024266, -27.2553864], [-49.7023657, -27.2552078], [-49.7023673, -27.2550733], [-49.7024129, -27.2549274], [-49.7025781, -27.2547016], [-49.7029925, -27.2541813], [-49.7030186, -27.2540391], [-49.7030326, -27.2539629], [-49.7030116, -27.253827], [-49.7025025, -27.2530915], [-49.7022865, -27.2529486], [-49.702051, -27.2529262], [-49.7018643, -27.2529411], [-49.7012651, -27.253088], [-49.7007428, -27.2531535], [-49.6999087, -27.2532018], [-49.6991425, -27.2533962], [-49.6986826, -27.2534577], [-49.6984723, -27.253445], [-49.6982465, -27.2533882], [-49.6980418, -27.253286], [-49.6978003, -27.2530934], [-49.6974443, -27.252518], [-49.6972983, -27.2523253], [-49.697281, -27.2522061]], [[-49.7406234, -27.2804002], [-49.7403753, -27.280419], [-49.7401956, -27.2803904], [-49.7399166, -27.2802545], [-49.7395894, -27.2799589], [-49.7393748, -27.2798754], [-49.7391974, -27.2798312], [-49.7389349, -27.2798206], [-49.7384123, -27.2799064], [-49.7378191, -27.2798611], [-49.7375751, -27.2797825], [-49.7372746, -27.2796061], [-49.7371191, -27.2794773], [-49.7370118, -27.2793224], [-49.7369528, -27.2791102], [-49.7369919, -27.2789239]], [[-49.7984856, -27.3094326], [-49.7974809, -27.3087882], [-49.797299, -27.3086319], [-49.7971336, -27.3083166], [-49.7968677, -27.307704], [-49.7967166, -27.3074687], [-49.7965989, -27.3073899], [-49.7963529, -27.3073187], [-49.7945933, -27.3069247], [-49.7944497, -27.3068662]], [[-49.7926482, -27.299654], [-49.7923233, -27.2994882], [-49.7918694, -27.2993375], [-49.7911956, -27.2992032], [-49.790377, -27.2989878], [-49.7901785, -27.2989592], [-49.789972, -27.2989783], [-49.7890718, -27.2991674], [-49.7887508, -27.299157], [-49.7878495, -27.2990143]], [[-49.7813647, -27.2871796], [-49.7813415, -27.2871267], [-49.7810219, -27.2868797], [-49.7808123, -27.2868063], [-49.7806367, -27.2868211], [-49.7804797, -27.2869172], [-49.7799722, -27.2874974], [-49.7798992, -27.2875384], [-49.7792822, -27.2879549], [-49.7786715, -27.2883084], [-49.7783194, -27.2885625], [-49.7782501, -27.2886555], [-49.7782148, -27.2887568], [-49.7782186, -27.2889005], [-49.7783045, -27.2891757], [-49.7782937, -27.2894232], [-49.7782186, -27.2896227], [-49.7781512, -27.2897937], [-49.7778541, -27.2903274], [-49.7776043, -27.290612], [-49.7774246, -27.2907216], [-49.7768568, -27.2909034], [-49.7763519, -27.29101], [-49.7759458, -27.2909985], [-49.7757057, -27.2909611], [-49.7754525, -27.29097], [-49.7752067, -27.2910097], [-49.7746824, -27.2911894], [-49.7743627, -27.2913359], [-49.7740746, -27.29142], [-49.773742, -27.2914701], [-49.7734818, -27.291451], [-49.7730795, -27.2913723], [-49.7726396, -27.2911721], [-49.7725189, -27.2911292], [-49.7719147, -27.2908654], [-49.771159, -27.2904284], [-49.7705768, -27.2900607], [-49.7701156, -27.2896823], [-49.7697347, -27.2893796], [-49.7691088, -27.2890098], [-49.7688368, -27.2889386], [-49.7686616, -27.2889416], [-49.7684602, -27.2890259], [-49.7680156, -27.2892985], [-49.7675181, -27.2896742], [-49.7672073, -27.2899315], [-49.7670499, -27.2899708], [-49.7669327, -27.2899834], [-49.7668084, -27.2899733], [-49.7665245, -27.2898351], [-49.76625, -27.2896378], [-49.7661929, -27.2895694], [-49.7661265, -27.28949], [-49.7660496, -27.289398], [-49.7655467, -27.2888963], [-49.7647217, -27.2881854], [-49.764322, -27.2877182], [-49.7642201, -27.2875275], [-49.7642094, -27.2873129], [-49.764301, -27.2871788]], [[-49.7927506, -27.3008137], [-49.7927212, -27.2998453], [-49.7926482, -27.299654]], [[-49.7944497, -27.3068662], [-49.794267, -27.3067917], [-49.794186, -27.3066722], [-49.7941861, -27.3064411], [-49.7943182, -27.3058514], [-49.7945844, -27.3049767], [-49.7946263, -27.304758], [-49.7946122, -27.3046719], [-49.794501, -27.3044646], [-49.794146, -27.3040411], [-49.7936461, -27.3034851], [-49.7932105, -27.3031409], [-49.7928791, -27.3028173], [-49.7927641, -27.3025698], [-49.7927322, -27.3023258], [-49.7927615, -27.301986], [-49.7927465, -27.3008628], [-49.7927506, -27.3008137]], [[-49.7528342, -27.2791331], [-49.7523048, -27.2785466], [-49.7517381, -27.2780505], [-49.7514153, -27.2778873], [-49.7511846, -27.2777991], [-49.75108, -27.2776632], [-49.7509673, -27.2773843], [-49.7507129, -27.2769312], [-49.7504345, -27.2766718], [-49.7500167, -27.2763877], [-49.7496071, -27.2762016], [-49.74916, -27.2761268], [-49.7481557, -27.275994], [-49.7474852, -27.2759893], [-49.7471074, -27.2759202], [-49.7469808, -27.2758841], [-49.7465014, -27.2757012], [-49.7461884, -27.2754899], [-49.7458082, -27.275397], [-49.7450236, -27.2753488], [-49.7446332, -27.2753436], [-49.7442246, -27.2752922], [-49.743912, -27.2752284], [-49.7437307, -27.2752482], [-49.7436315, -27.2753197], [-49.7435752, -27.2754342], [-49.7435591, -27.2756082], [-49.7436583, -27.2757751], [-49.7441767, -27.2762297], [-49.7443451, -27.2763769], [-49.7443696, -27.2764891], [-49.7443608, -27.2766142], [-49.7442349, -27.2768093], [-49.7439677, -27.2769666], [-49.7427892, -27.2773624], [-49.742726, -27.2774096], [-49.7426754, -27.2774816], [-49.7426507, -27.2775505], [-49.7426622, -27.2776774], [-49.7427425, -27.2779104], [-49.7427433, -27.2780101], [-49.7427128, -27.2780988], [-49.7425065, -27.2782501], [-49.7421387, -27.2784497], [-49.741521, -27.2785874], [-49.7413242, -27.2786008], [-49.7410739, -27.2785607], [-49.7408944, -27.2784652], [-49.740791, -27.2783144], [-49.7406756, -27.2779169], [-49.7405926, -27.2776469], [-49.7405196, -27.277583], [-49.7404347, -27.2775693], [-49.7403778, -27.277582], [-49.7402843, -27.2776274], [-49.7402314, -27.2777303], [-49.7402174, -27.2778743], [-49.7402815, -27.2782406], [-49.7404252, -27.2786875], [-49.7406178, -27.2789905], [-49.7407365, -27.2791379], [-49.7412504, -27.2792673], [-49.741409, -27.2793529], [-49.7414574, -27.2794311], [-49.7414933, -27.2796057], [-49.741475, -27.2797482], [-49.7414551, -27.2799033], [-49.7413774, -27.2800687], [-49.7411811, -27.2802405], [-49.7409581, -27.2803562], [-49.7406234, -27.2804002]], [[-49.7965682, -27.3168109], [-49.7966307, -27.31651], [-49.7965979, -27.3163631], [-49.7965452, -27.3161278], [-49.7964216, -27.3157397], [-49.7963895, -27.3155241], [-49.7966253, -27.3150707], [-49.7972798, -27.3141539], [-49.7973053, -27.3140769], [-49.7972902, -27.313886], [-49.7970935, -27.3132644], [-49.7967454, -27.31256], [-49.7967258, -27.3125213], [-49.7966805, -27.312221], [-49.7967001, -27.3119996], [-49.7968334, -27.3117916], [-49.7970685, -27.3116277], [-49.797402, -27.3114734], [-49.7987339, -27.3109771], [-49.7991525, -27.3107749], [-49.799236, -27.310708], [-49.7992642, -27.3106436], [-49.7992488, -27.3104773]], [[-49.7970289, -27.3197028], [-49.7969973, -27.3196362], [-49.7965299, -27.3181524], [-49.7965204, -27.3180234], [-49.7964852, -27.3175443], [-49.7964924, -27.3174011], [-49.7965072, -27.3171045], [-49.7965682, -27.3168109]], [[-49.7992488, -27.3104773], [-49.7992005, -27.3103961], [-49.798937, -27.3099529], [-49.7987201, -27.3096371], [-49.7986111, -27.3095131], [-49.7984856, -27.3094326]], [[-49.7878495, -27.2990143], [-49.7873416, -27.2988285], [-49.7871074, -27.2987192], [-49.786965, -27.2985571], [-49.7868788, -27.2983882], [-49.7866783, -27.2980654], [-49.7863805, -27.297665], [-49.786271, -27.2975345], [-49.7859728, -27.2973337], [-49.7856966, -27.297112], [-49.7853935, -27.2967545], [-49.7852594, -27.2965829], [-49.7850858, -27.2963181], [-49.7848098, -27.2958236], [-49.7846152, -27.2955748], [-49.7841574, -27.2952705], [-49.7837546, -27.2951051], [-49.7834113, -27.294993], [-49.783186, -27.2948667], [-49.782671, -27.2945068], [-49.7825611, -27.2943971], [-49.7818406, -27.293709], [-49.7818048, -27.2936321], [-49.7817514, -27.2935173], [-49.7814855, -27.2929789], [-49.781279, -27.2924021], [-49.7811878, -27.2919897], [-49.7811824, -27.2916512], [-49.7813031, -27.2910911], [-49.7813273, -27.2905285], [-49.7813192, -27.2902616], [-49.7812862, -27.2900556], [-49.7811647, -27.289719], [-49.781161, -27.2896156], [-49.7811765, -27.2894274], [-49.7811989, -27.2890674], [-49.7812334, -27.2887598], [-49.7812736, -27.2883141], [-49.7813407, -27.2878302], [-49.7814158, -27.2874231], [-49.7814127, -27.2872889], [-49.7813647, -27.2871796]], [[-49.7621294, -27.2871405], [-49.7620343, -27.2872118], [-49.7619576, -27.2872111], [-49.7618426, -27.2872073], [-49.7616065, -27.2871652], [-49.7611544, -27.2869029], [-49.7606623, -27.2865428], [-49.7604422, -27.2863221], [-49.7601815, -27.2858972], [-49.7600807, -27.2854613], [-49.7601325, -27.2851164], [-49.7604352, -27.2846382], [-49.76077, -27.2841804], [-49.7610602, -27.283966], [-49.7612321, -27.2838016], [-49.7614531, -27.2835142], [-49.7615916, -27.2831329], [-49.7615548, -27.2829912], [-49.7614285, -27.2828474], [-49.7605875, -27.2822918], [-49.7600186, -27.2820693], [-49.7596059, -27.2819078], [-49.758212, -27.2814107], [-49.757992, -27.2812867], [-49.7579008, -27.2812056], [-49.757815, -27.2810555], [-49.7576943, -27.2807384], [-49.7574422, -27.2803475], [-49.7572786, -27.2799946], [-49.7572356, -27.2798421], [-49.757131, -27.2795918], [-49.7570452, -27.2794845], [-49.7569404, -27.2794324], [-49.7568446, -27.2794202], [-49.756691, -27.2794359], [-49.7564723, -27.2795482], [-49.7562742, -27.2798262], [-49.7561191, -27.2802143], [-49.7560893, -27.2805852], [-49.7560662, -27.280829], [-49.7560233, -27.2810126], [-49.7558663, -27.2813556], [-49.7555665, -27.2821025], [-49.7552925, -27.2825411], [-49.7551024, -27.2826679], [-49.7548351, -27.282748], [-49.7544566, -27.2827825], [-49.7541967, -27.2828124], [-49.7539848, -27.2827957], [-49.7537327, -27.2827242], [-49.7534859, -27.2826312], [-49.7532955, -27.282512], [-49.7531989, -27.2823499], [-49.7531614, -27.2821997], [-49.7531748, -27.2820185], [-49.7533196, -27.2816419], [-49.7534671, -27.2812414], [-49.7534779, -27.2810865], [-49.7534376, -27.2808648], [-49.753357, -27.2806451], [-49.7528764, -27.2801115], [-49.7527476, -27.2798897], [-49.7527397, -27.2797383], [-49.7527643, -27.279533], [-49.7528342, -27.2791331]], [[-49.764301, -27.2871788], [-49.7650317, -27.2864558], [-49.7653638, -27.2860381], [-49.765441, -27.2859411], [-49.7654685, -27.2857687], [-49.7654164, -27.2856658], [-49.7653145, -27.2855919], [-49.7650698, -27.2853941], [-49.7647579, -27.2852686], [-49.7643647, -27.2852651], [-49.7635587, -27.2853977], [-49.7631897, -27.2855201], [-49.7630056, -27.2856897], [-49.7628135, -27.2859992], [-49.7623211, -27.2867849], [-49.7622474, -27.2869172], [-49.7621294, -27.2871405]]]}}
